<?xml version="1.0" encoding="UTF-8"?>
<kml xmlns="http://www.opengis.net/kml/2.2">
  <Document id="root_doc">
    <Document id="aoi_4326">
      <name>aoi_4326</name>
      <Placemark id="aoi_4326.1">
        <name>Lote</name>
        <description><![CDATA[Polígono KML 'Bajo rural en la planicie del Arroyo de Giles (ejemplo)' (4 vértices)]]></description>
        <Polygon>
          <outerBoundaryIs>
            <LinearRing>
              <coordinates>
                -59.4211333000001,-34.4042990000003,0
                -59.4211333000001,-34.4032210000003,0
                -59.4198267000001,-34.4032210000003,0
                -59.4198267000001,-34.4042990000003,0
                -59.4211333000001,-34.4042990000003,0
              </coordinates>
            </LinearRing>
          </outerBoundaryIs>
        </Polygon>
      </Placemark>
      <Placemark id="aoi_4326.2">
        <name>Buffer 500 m (AOI)</name>
        <description>Radio 500 m alrededor del centroide del lote</description>
        <Polygon>
          <outerBoundaryIs>
            <LinearRing>
              <coordinates>
                -59.4150422717511,-34.4037341209993,0
                -59.415043139662,-34.4038447391836,0
                -59.4150472825409,-34.4039553063953,0
                -59.4150546979051,-34.4040657560327,0
                -59.4150653813009,-34.4041760215646,0
                -59.4150793263058,-34.4042860365706,0
                -59.4150965245324,-34.4043957347806,0
                -59.4151169656338,-34.4045050501154,0
                -59.4151406373094,-34.404613916726,0
                -59.4151675253123,-34.4047222690335,0
                -59.4151976134583,-34.4048300417687,0
                -59.4152308836351,-34.4049371700109,0
                -59.4152673158132,-34.4050435892278,0
                -59.4153068880585,-34.4051492353136,0
                -59.4153495765449,-34.4052540446284,0
                -59.4153953555688,-34.4053579540357,0
                -59.4154441975645,-34.4054609009411,0
                -59.4154960731211,-34.4055628233298,0
                -59.4155509509999,-34.4056636598038,0
                -59.4156087981531,-34.4057633496191,0
                -59.415669579744,-34.4058618327223,0
                -59.4157332591676,-34.4059590497866,0
                -59.4157997980732,-34.4060549422476,0
                -59.4158691563867,-34.406149452339,0
                -59.4159412923355,-34.4062425231267,0
                -59.4160161624729,-34.4063340985436,0
                -59.4160937217051,-34.4064241234232,0
                -59.4161739233176,-34.406512543533,0
                -59.4162567190036,-34.4065993056069,0
                -59.4163420588933,-34.4066843573776,0
                -59.4164298915836,-34.4067676476079,0
                -59.4165201641693,-34.4068491261216,0
                -59.4166128222749,-34.406928743834,0
                -59.4167078100871,-34.407006452781,0
                -59.4168050703889,-34.4070822061483,0
                -59.4169045445936,-34.4071559582997,0
                -59.4170061727804,-34.4072276648044,0
                -59.4171098937305,-34.4072972824637,0
                -59.4172156449636,-34.4073647693375,0
                -59.417323362776,-34.4074300847689,0
                -59.4174329822787,-34.4074931894095,0
                -59.4175444374368,-34.4075540452422,0
                -59.4176576611088,-34.4076126156049,0
                -59.4177725850875,-34.4076688652122,0
                -59.4178891401408,-34.4077227601768,0
                -59.4180072560538,-34.4077742680296,0
                -59.4181268616705,-34.4078233577401,0
                -59.4182478849374,-34.4078699997339,0
                -59.4183702529463,-34.4079141659117,0
                -59.4184938919787,-34.4079558296653,0
                -59.4186187275498,-34.4079949658944,0
                -59.4187446844537,-34.4080315510211,0
                -59.4188716868088,-34.4080655630046,0
                -59.4189996581032,-34.4080969813539,0
                -59.419128521241,-34.4081257871411,0
                -59.4192581985887,-34.4081519630116,0
                -59.4193886120222,-34.4081754931957,0
                -59.4195196829735,-34.4081963635173,0
                -59.4196513324786,-34.4082145614028,0
                -59.4197834812244,-34.4082300758886,0
                -59.4199160495972,-34.4082428976278,0
                -59.42004895773,-34.4082530188958,0
                -59.4201821255515,-34.4082604335948,0
                -59.4203154728334,-34.4082651372575,0
                -59.4204489192394,-34.4082671270501,0
                -59.4205823843736,-34.4082664017738,0
                -59.4207157878285,-34.4082629618652,0
                -59.4208490492341,-34.4082568093967,0
                -59.4209820883056,-34.4082479480748,0
                -59.4211148248927,-34.4082363832379,0
                -59.421247179027,-34.4082221218532,0
                -59.4213790709709,-34.4082051725125,0
                -59.4215104212651,-34.4081855454268,0
                -59.4216411507769,-34.4081632524206,0
                -59.421771180748,-34.4081383069242,0
                -59.4219004328414,-34.4081107239661,0
                -59.422028829189,-34.4080805201637,0
                -59.4221562924386,-34.4080477137133,0
                -59.4222827458004,-34.4080123243791,0
                -59.4224081130932,-34.4079743734816,0
                -59.4225323187905,-34.4079338838841,0
                -59.4226552880658,-34.4078908799796,0
                -59.4227769468379,-34.4078453876757,0
                -59.4228972218153,-34.4077974343792,0
                -59.4230160405409,-34.4077470489795,0
                -59.4231333314348,-34.407694261831,0
                -59.4232490238384,-34.407639104735,0
                -59.4233630480561,-34.4075816109206,0
                -59.4234753353979,-34.4075218150247,0
                -59.4235858182207,-34.4074597530707,0
                -59.4236944299688,-34.4073954624474,0
                -59.4238011052142,-34.4073289818859,0
                -59.4239057796959,-34.4072603514367,0
                -59.4240083903589,-34.4071896124454,0
                -59.4241088753918,-34.4071168075275,0
                -59.4242071742643,-34.4070419805435,0
                -59.4243032277635,-34.4069651765713,0
                -59.4243969780299,-34.4068864418802,0
                -59.4244883685918,-34.4068058239023,0
                -59.4245773443995,-34.4067233712042,0
                -59.4246638518587,-34.4066391334574,0
                -59.4247478388624,-34.406553161409,0
                -59.4248292548225,-34.4064655068505,0
                -59.4249080507002,-34.4063762225868,0
                -59.4249841790357,-34.4062853624045,0
                -59.4250575939764,-34.4061929810395,0
                -59.4251282513048,-34.4060991341436,0
                -59.4251961084652,-34.4060038782516,0
                -59.4252611245892,-34.4059072707468,0
                -59.4253232605199,-34.4058093698263,0
                -59.4253824788364,-34.4057102344666,0
                -59.4254387438753,-34.4056099243874,0
                -59.4254920217531,-34.4055085000157,0
                -59.4255422803857,-34.4054060224499,0
                -59.4255894895084,-34.4053025534224,0
                -59.4256336206937,-34.4051981552626,0
                -59.4256746473688,-34.4050928908594,0
                -59.4257125448311,-34.4049868236235,0
                -59.4257472902633,-34.4048800174487,0
                -59.4257788627471,-34.4047725366738,0
                -59.4258072432759,-34.4046644460439,0
                -59.4258324147661,-34.4045558106709,0
                -59.4258543620672,-34.4044466959949,0
                -59.4258730719712,-34.4043371677442,0
                -59.4258885332202,-34.4042272918962,0
                -59.4259007365136,-34.4041171346374,0
                -59.4259096745133,-34.4040067623233,0
                -59.425915341848,-34.4038962414391,0
                -59.425917735117,-34.403785638559,0
                -59.4259168528915,-34.4036750203063,0
                -59.4259126957158,-34.4035644533133,0
                -59.425905266107,-34.4034540041813,0
                -59.4258945685533,-34.4033437394403,0
                -59.4258806095113,-34.4032337255089,0
                -59.425863397402,-34.4031240286544,0
                -59.425842942606,-34.4030147149529,0
                -59.4258192574568,-34.4029058502493,0
                -59.4257923562336,-34.402797500118,0
                -59.4257622551526,-34.4026897298231,0
                -59.4257289723574,-34.4025826042791,0
                -59.4256925279075,-34.4024761880121,0
                -59.4256529437669,-34.4023705451206,0
                -59.4256102437904,-34.402265739237,0
                -59.4255644537091,-34.4021618334893,0
                -59.4255156011153,-34.4020588904632,0
                -59.4254637154455,-34.4019569721642,0
                -59.4254088279628,-34.4018561399804,0
                -59.4253509717381,-34.4017564546454,0
                -59.4252901816301,-34.4016579762019,0
                -59.425226494264,-34.4015607639655,0
                -59.42515994801,-34.4014648764888,0
                -59.4250905829596,-34.4013703715263,0
                -59.4250184409018,-34.4012773059996,0
                -59.4249435652979,-34.4011857359632,0
                -59.424866001255,-34.4010957165706,0
                -59.4247857954992,-34.4010073020411,0
                -59.4247029963471,-34.4009205456274,0
                -59.424617653677,-34.4008354995831,0
                -59.4245298188987,-34.4007522151315,0
                -59.4244395449223,-34.400670742435,0
                -59.4243468861269,-34.4005911305644,0
                -59.4242518983271,-34.4005134274696,0
                -59.4241546387402,-34.4004376799508,0
                -59.424055165951,-34.4003639336301,0
                -59.4239535398769,-34.4002922329244,0
                -59.4238498217318,-34.4002226210181,0
                -59.423744073989,-34.4001551398378,0
                -59.4236363603439,-34.4000898300264,0
                -59.4235267456753,-34.400026730919,0
                -59.4234152960068,-34.3999658805192,0
                -59.4233020784664,-34.3999073154761,0
                -59.4231871612467,-34.3998510710622,0
                -59.4230706135632,-34.3997971811524,0
                -59.4229525056135,-34.3997456782035,0
                -59.422832908534,-34.3996965932344,0
                -59.4227118943579,-34.3996499558078,0
                -59.4225895359714,-34.3996057940122,0
                -59.4224659070698,-34.3995641344451,0
                -59.4223410821136,-34.3995250021968,0
                -59.422215136283,-34.3994884208356,0
                -59.4220881454329,-34.3994544123934,0
                -59.4219601860477,-34.3994229973523,0
                -59.4218313351945,-34.3993941946325,0
                -59.421701670477,-34.399368021581,0
                -59.4215712699892,-34.399344493961,0
                -59.4214402122676,-34.3993236259423,0
                -59.4213085762447,-34.3993054300928,0
                -59.4211764412008,-34.3992899173713,0
                -59.4210438867167,-34.3992770971205,0
                -59.4209109926259,-34.3992669770614,0
                -59.420777838966,-34.3992595632889,0
                -59.4206445059311,-34.3992548602679,0
                -59.4205110738231,-34.3992528708308,0
                -59.4203776230035,-34.3992535961757,0
                -59.4202442338454,-34.3992570358655,0
                -59.4201109866844,-34.3992631878286,0
                -59.4199779617707,-34.3992720483595,0
                -59.4198452392208,-34.3992836121219,0
                -59.4197128989691,-34.3992978721511,0
                -59.4195810207199,-34.3993148198586,0
                -59.4194496838994,-34.3993344450372,0
                -59.4193189676078,-34.3993567358672,0
                -59.4191889505717,-34.3993816789234,0
                -59.4190597110968,-34.3994092591832,0
                -59.4189313270209,-34.3994394600357,0
                -59.4188038756665,-34.3994722632918,0
                -59.4186774337949,-34.3995076491948,0
                -59.4185520775595,-34.3995455964327,0
                -59.4184278824603,-34.3995860821509,0
                -59.4183049232982,-34.3996290819657,0
                -59.41818327413,-34.3996745699794,0
                -59.418063008224,-34.3997225187955,0
                -59.4179441980157,-34.3997728995356,0
                -59.4178269150641,-34.3998256818563,0
                -59.4177112300091,-34.3998808339679,0
                -59.4175972125283,-34.3999383226534,0
                -59.4174849312954,-34.3999981132883,0
                -59.4173744539391,-34.4000601698618,0
                -59.4172658470017,-34.4001244549981,0
                -59.4171591758997,-34.4001909299793,0
                -59.417054504884,-34.4002595547683,0
                -59.4169518970014,-34.4003302880333,0
                -59.4168514140565,-34.4004030871723,0
                -59.4167531165747,-34.4004779083392,0
                -59.4166570637653,-34.4005547064695,0
                -59.4165633134865,-34.4006334353084,0
                -59.4164719222097,-34.4007140474378,0
                -59.4163829449865,-34.4007964943053,0
                -59.4162964354146,-34.4008807262531,0
                -59.4162124456059,-34.4009666925485,0
                -59.4161310261556,-34.4010543414136,0
                -59.4160522261105,-34.4011436200572,0
                -59.4159760929408,-34.4012344747063,0
                -59.4159026725106,-34.4013268506384,0
                -59.4158320090506,-34.4014206922147,0
                -59.4157641451312,-34.4015159429133,0
                -59.4156991216374,-34.4016125453634,0
                -59.4156369777435,-34.4017104413798,0
                -59.4155777508897,-34.4018095719982,0
                -59.41552147676,-34.4019098775102,0
                -59.4154681892598,-34.4020112974997,0
                -59.4154179204964,-34.4021137708789,0
                -59.4153707007589,-34.4022172359257,0
                -59.4153265585002,-34.40232163032,0
                -59.41528552032,-34.4024268911819,0
                -59.4152476109486,-34.4025329551096,0
                -59.4152128532319,-34.4026397582171,0
                -59.4151812681178,-34.4027472361728,0
                -59.4151528746433,-34.4028553242387,0
                -59.4151276899233,-34.4029639573089,0
                -59.4151057291401,-34.4030730699489,0
                -59.4150870055343,-34.4031825964352,0
                -59.4150715303965,-34.4032924707948,0
                -59.4150593130611,-34.4034026268447,0
                -59.4150503608999,-34.4035129982323,0
                -59.4150446793181,-34.4036235184747,0
                -59.4150422717511,-34.4037341209993,0
              </coordinates>
            </LinearRing>
          </outerBoundaryIs>
        </Polygon>
      </Placemark>
      <Placemark id="aoi_4326.3">
        <name>Buffer 10 km (análisis hidrológico)</name>
        <description>Radio 10000 m alrededor del centroide del lote</description>
        <Polygon>
          <outerBoundaryIs>
            <LinearRing>
              <coordinates>
                -59.311726833011,-34.4031964916426,0
                -59.3117414713643,-34.4054088383437,0
                -59.3118216120039,-34.4076202201804,0
                -59.3119672118248,-34.4098293050345,0
                -59.3121781882751,-34.4120347620671,0
                -59.3124544193935,-34.4142352625218,0
                -59.3127957438701,-34.4164294805246,0
                -59.3132019611316,-34.4186160938842,0
                -59.3136728314498,-34.4207937848892,0
                -59.314208076074,-34.4229612411033,0
                -59.3148073773873,-34.4251171561572,0
                -59.3154703790861,-34.4272602305379,0
                -59.3161966863835,-34.4293891723729,0
                -59.3169858662357,-34.431502698211,0
                -59.3178374475926,-34.4335995337981,0
                -59.3187509216706,-34.435678414847,0
                -59.3197257422491,-34.4377380878024,0
                -59.3207613259897,-34.4397773105987,0
                -59.3218570527783,-34.4417948534119,0
                -59.3230122660895,-34.4437894994036,0
                -59.3242262733738,-34.4457600454582,0
                -59.3254983464666,-34.4477053029107,0
                -59.326827722019,-34.4496240982676,0
                -59.3282136019509,-34.4515152739172,0
                -59.3296551539251,-34.4533776888319,0
                -59.3311515118423,-34.4552102192595,0
                -59.3327017763579,-34.457011759405,0
                -59.3343050154181,-34.4587812221012,0
                -59.3359602648177,-34.4605175394686,0
                -59.3376665287767,-34.462219663563,0
                -59.3394227805371,-34.4638865670126,0
                -59.3412279629786,-34.4655172436409,0
                -59.3430809892538,-34.4671107090786,0
                -59.3449807434412,-34.4686660013611,0
                -59.3469260812169,-34.4701821815137,0
                -59.3489158305436,-34.4716583341217,0
                -59.3509487923771,-34.4730935678874,0
                -59.3530237413901,-34.4744870161721,0
                -59.3551394267113,-34.4758378375229,0
                -59.3572945726819,-34.477145216185,0
                -59.3594878796267,-34.478408362598,0
                -59.3617180246407,-34.4796265138765,0
                -59.3639836623899,-34.4807989342745,0
                -59.3662834259266,-34.4819249156331,0
                -59.368615927518,-34.4830037778124,0
                -59.3709797594882,-34.4840348691051,0
                -59.3733734950723,-34.4850175666343,0
                -59.375795689283,-34.4859512767322,0
                -59.3782448797884,-34.4868354353026,0
                -59.3807195878006,-34.4876695081643,0
                -59.3832183189753,-34.4884529913772,0
                -59.3857395643205,-34.4891854115489,0
                -59.3882818011147,-34.4898663261242,0
                -59.3908434938344,-34.4904953236543,0
                -59.3934230950885,-34.4910720240483,0
                -59.3960190465613,-34.4915960788049,0
                -59.3986297799617,-34.4920671712248,0
                -59.4012537179794,-34.4924850166044,0
                -59.4038892752458,-34.4928493624095,0
                -59.4065348593013,-34.4931599884292,0
                -59.4091888715658,-34.4934167069104,0
                -59.4118497083142,-34.4936193626729,0
                -59.4145157616544,-34.4937678332036,0
                -59.4171854205084,-34.4938620287317,0
                -59.4198570715949,-34.4939018922836,0
                -59.4225291004141,-34.4938873997177,0
                -59.4251998922325,-34.4938185597392,0
                -59.4278678330683,-34.4936954138952,0
                -59.4305313106762,-34.4935180365491,0
                -59.4331887155312,-34.4932865348356,0
                -59.4358384418103,-34.4930010485952,0
                -59.4384788883728,-34.4926617502896,0
                -59.4411084597361,-34.4922688448958,0
                -59.4437255670498,-34.4918225697817,0
                -59.4463286290639,-34.4913231945614,0
                -59.4489160730933,-34.4907710209307,0
                -59.4514863359763,-34.490166382483,0
                -59.4540378650275,-34.4895096445066,0
                -59.4565691189839,-34.4888012037614,0
                -59.4590785689434,-34.4880414882373,0
                -59.4615646992963,-34.4872309568933,0
                -59.4640260086477,-34.486370099378,0
                -59.4664610107312,-34.4854594357309,0
                -59.468868235313,-34.4844995160658,0
                -59.4712462290862,-34.4834909202351,0
                -59.4735935565537,-34.4824342574775,0
                -59.4759088009009,-34.4813301660458,0
                -59.4781905648553,-34.4801793128188,0
                -59.4804374715355,-34.4789823928952,0
                -59.4826481652856,-34.47774012917,0
                -59.4848213124974,-34.4764532718947,0
                -59.4869556024188,-34.4751225982206,0
                -59.4890497479469,-34.4737489117254,0
                -59.491102486407,-34.4723330419249,0
                -59.4931125803167,-34.4708758437678,0
                -59.4950788181326,-34.4693781971161,0
                -59.4970000149829,-34.4678410062093,0
                -59.4988750133816,-34.4662651991155,0
                -59.5007026839262,-34.4646517271665,0
                -59.5024819259782,-34.46300156438,0
                -59.5042116683251,-34.4613157068677,0
                -59.5058908698246,-34.4595951722298,0
                -59.507518520029,-34.4578409989375,0
                -59.5090936397924,-34.4560542457022,0
                -59.5106152818563,-34.4542359908324,0
                -59.5120825314169,-34.4523873315798,0
                -59.5134945066718,-34.4505093834735,0
                -59.5148503593459,-34.4486032796427,0
                -59.5161492751973,-34.4466701701302,0
                -59.5173904745014,-34.4447112211949,0
                -59.518573212514,-34.4427276146045,0
                -59.519696779913,-34.4407205469202,0
                -59.5207605032178,-34.4386912287709,0
                -59.5217637451875,-34.4366408841209,0
                -59.5227059051952,-34.4345707495281,0
                -59.5235864195819,-34.4324820733958,0
                -59.5244047619859,-34.4303761152176,0
                -59.5251604436505,-34.4282541448151,0
                -59.5258530137079,-34.4261174415698,0
                -59.5264820594406,-34.4239672936503,0
                -59.5270472065191,-34.421804997233,0
                -59.5275481192162,-34.4196318557196,0
                -59.5279845005979,-34.4174491789492,0
                -59.5283560926908,-34.4152582824077,0
                -59.5286626766255,-34.4130604864339,0
                -59.5289040727564,-34.4108571154221,0
                -59.529080140758,-34.4086494970236,0
                -59.5291907796968,-34.4064389613459,0
                -59.5292359280802,-34.4042268401508,0
                -59.5292155638808,-34.4020144660514,0
                -59.5291297045372,-34.3998031717096,0
                -59.5289784069312,-34.3975942890331,0
                -59.528761767341,-34.3953891483735,0
                -59.5284799213709,-34.3931890777251,0
                -59.5281330438573,-34.3909954019266,0
                -59.527721348751,-34.3888094418629,0
                -59.5272450889769,-34.3866325136717,0
                -59.5267045562691,-34.3844659279517,0
                -59.526100080984,-34.382310988975,0
                -59.5254320318896,-34.3801689939033,0
                -59.5247008159324,-34.3780412320089,0
                -59.5239068779814,-34.3759289839004,0
                -59.5230507005494,-34.3738335207539,0
                -59.5221328034924,-34.3717561035502,0
                -59.5211537436863,-34.3696979823183,0
                -59.520114114682,-34.3676603953854,0
                -59.5190145463392,-34.3656445686347,0
                -59.5178557044378,-34.3636517147703,0
                -59.5166382902689,-34.3616830325909,0
                -59.5153630402048,-34.3597397062709,0
                -59.5140307252479,-34.3578229046517,0
                -59.5126421505597,-34.3559337805419,0
                -59.5111981549694,-34.3540734700269,0
                -59.5096996104632,-34.3522430917892,0
                -59.5081474216537,-34.350443746439,0
                -59.5065425252302,-34.348676515856,0
                -59.5048858893911,-34.3469424625425,0
                -59.5031785132564,-34.3452426289883,0
                -59.5014214262636,-34.3435780370472,0
                -59.4996156875453,-34.3419496873271,0
                -59.4977623852891,-34.3403585585915,0
                -59.4958626360814,-34.3388056071757,0
                -59.4939175842344,-34.337291766415,0
                -59.4919284010967,-34.3358179460884,0
                -59.4898962843485,-34.3343850318749,0
                -59.4878224572816,-34.3329938848252,0
                -59.4857081680642,-34.3316453408482,0
                -59.4835546889921,-34.3303402102124,0
                -59.4813633157248,-34.3290792770623,0
                -59.4791353665091,-34.3278632989515,0
                -59.4768721813892,-34.3266930063908,0
                -59.4745751214044,-34.3255691024125,0
                -59.4722455677742,-34.3244922621522,0
                -59.4698849210728,-34.3234631324459,0
                -59.4674946003916,-34.3224823314451,0
                -59.465076042491,-34.3215504482486,0
                -59.462630700943,-34.3206680425513,0
                -59.4601600452628,-34.3198356443115,0
                -59.4576655600324,-34.3190537534351,0
                -59.4551487440149,-34.3183228394783,0
                -59.452611109261,-34.3176433413676,0
                -59.4500541802076,-34.3170156671395,0
                -59.4474794927696,-34.3164401936968,0
                -59.4448885934249,-34.3159172665851,0
                -59.4422830382934,-34.3154471997869,0
                -59.4396643922105,-34.3150302755349,0
                -59.4370342277959,-34.3146667441443,0
                -59.4343941245174,-34.3143568238641,0
                -59.431745667751,-34.3141007007469,0
                -59.4290904478383,-34.3138985285389,0
                -59.4264300591396,-34.3137504285881,0
                -59.4237660990864,-34.3136564897725,0
                -59.4211001672308,-34.3136167684473,0
                -59.4184338642944,-34.3136312884115,0
                -59.4157687912164,-34.3137000408937,0
                -59.4131065482015,-34.3138229845579,0
                -59.4104487337683,-34.3140000455276,0
                -59.4077969437987,-34.3142311174303,0
                -59.4051527705886,-34.3145160614609,0
                -59.4025178019011,-34.3148547064641,0
                -59.3998936200217,-34.3152468490367,0
                -59.397281800817,-34.3156922536485,0
                -59.3946839127976,-34.3161906527827,0
                -59.3921015161838,-34.3167417470949,0
                -59.3895361619775,-34.3173452055917,0
                -59.3869893910386,-34.3180006658278,0
                -59.3844627331674,-34.3187077341214,0
                -59.3819577061936,-34.319465985789,0
                -59.3794758150715,-34.3202749653981,0
                -59.3770185509833,-34.3211341870385,0
                -59.3745873904501,-34.3220431346116,0
                -59.3721837944509,-34.323001262138,0
                -59.3698092075512,-34.3240079940826,0
                -59.3674650570406,-34.3250627256972,0
                -59.3651527520802,-34.3261648233811,0
                -59.3628736828613,-34.3273136250587,0
                -59.3606292197737,-34.3285084405737,0
                -59.3584207125864,-34.329748552101,0
                -59.35624948964,-34.3310332145737,0
                -59.3541168570511,-34.3323616561283,0
                -59.3520240979301,-34.3337330785642,0
                -59.3499724716117,-34.3351466578202,0
                -59.3479632128993,-34.3366015444654,0
                -59.3459975313243,-34.3380968642069,0
                -59.3440766104185,-34.3396317184106,0
                -59.3422016070035,-34.3412051846378,0
                -59.3403736504938,-34.342816317196,0
                -59.338593842217,-34.3444641477034,0
                -59.3368632547498,-34.346147685667,0
                -59.3351829312708,-34.3478659190744,0
                -59.3335538849305,-34.3496178149983,0
                -59.3319770982384,-34.3514023202139,0
                -59.330453522469,-34.3532183618281,0
                -59.3289840770845,-34.355064847921,0
                -59.3275696491775,-34.3569406681992,0
                -59.3262110929316,-34.3588446946593,0
                -59.3249092291021,-34.360775782263,0
                -59.3236648445156,-34.3627327696225,0
                -59.32247869159,-34.3647144796955,0
                -59.3213514878741,-34.3667197204898,0
                -59.3202839156088,-34.3687472857774,0
                -59.3192766213076,-34.370795955817,0
                -59.3183302153596,-34.3728644980848,0
                -59.3174452716529,-34.3749516680134,0
                -59.3166223272195,-34.3770562097379,0
                -59.3158618819031,-34.3791768568491,0
                -59.3151643980472,-34.3813123331531,0
                -59.3145303002072,-34.3834613534374,0
                -59.3139599748833,-34.3856226242419,0
                -59.3134537702777,-34.3877948446357,0
                -59.3130119960727,-34.3899767069988,0
                -59.3126349232335,-34.3921668978071,0
                -59.3123227838331,-34.3943640984223,0
                -59.3120757709005,-34.396566985884,0
                -59.3118940382926,-34.3987742337059,0
                -59.3117777005889,-34.4009845126732,0
                -59.311726833011,-34.4031964916426,0
              </coordinates>
            </LinearRing>
          </outerBoundaryIs>
        </Polygon>
      </Placemark>
    </Document>
  </Document>
</kml>
