{
"type": "FeatureCollection",
"name": "aoi_4326",
"crs": { "type": "name", "properties": { "name": "urn:ogc:def:crs:OGC:1.3:CRS84" } },
"features": [
{"type":"Feature","properties":{"name":"lote","label":"Lote","descr":"Polígono KML 'Bajo rural en la planicie del Arroyo de Giles (ejemplo)' (4 vértices)","radius_m":null,"area_m2":14367.1},"geometry":{"type":"Polygon","coordinates":[[[-59.421133300000065,-34.404299000000272],[-59.421133300000065,-34.403221000000279],[-59.419826700000066,-34.403221000000272],[-59.419826700000066,-34.404299000000265],[-59.421133300000065,-34.404299000000272]]]}},
{"type":"Feature","properties":{"name":"aoi","label":"Buffer 500 m (AOI)","descr":"Radio 500 m alrededor del centroide del lote","radius_m":500.0,"area_m2":785319.3},"geometry":{"type":"Polygon","coordinates":[[[-59.415042271751126,-34.403734120999317],[-59.415043139661982,-34.403844739183562],[-59.415047282540876,-34.403955306395268],[-59.415054697905134,-34.404065756032686],[-59.415065381300948,-34.404176021564638],[-59.415079326305786,-34.404286036570568],[-59.415096524532423,-34.4043957347806],[-59.415116965633814,-34.40450505011539],[-59.415140637309371,-34.404613916725992],[-59.415167525312334,-34.404722269033527],[-59.415197613458325,-34.404830041768669],[-59.415230883635076,-34.404937170010903],[-59.415267315813246,-34.405043589227766],[-59.415306888058545,-34.405149235313623],[-59.415349576544912,-34.405254044628379],[-59.415395355568755,-34.405357954035701],[-59.415444197564511,-34.405460900941122],[-59.41549607312114,-34.405562823329795],[-59.415550950999929,-34.405663659803785],[-59.415608798153116,-34.4057633496191],[-59.41566957974397,-34.40586183272228],[-59.415733259167645,-34.405959049786553],[-59.415799798073202,-34.406054942247643],[-59.415869156386734,-34.406149452339029],[-59.415941292335468,-34.406242523126721],[-59.416016162472943,-34.406334098543617],[-59.41609372170511,-34.406424123423228],[-59.416173923317572,-34.406512543532983],[-59.416256719003592,-34.406599305606875],[-59.416342058893285,-34.406684357377564],[-59.416429891583604,-34.406767647607865],[-59.416520164169341,-34.406849126121642],[-59.416612822274878,-34.406928743834037],[-59.416707810087097,-34.407006452781005],[-59.416805070388875,-34.407082206148338],[-59.416904544593592,-34.407155958299711],[-59.417006172780439,-34.407227664804353],[-59.417109893730483,-34.407297282463716],[-59.417215644963576,-34.407364769337462],[-59.417323362775981,-34.40743008476894],[-59.417432982278747,-34.407493189409465],[-59.417544437436803,-34.4075540452422],[-59.417657661108791,-34.407612615604911],[-59.417772585087462,-34.407668865212223],[-59.417889140140801,-34.407722760176767],[-59.418007256053762,-34.407774268029648],[-59.418126861670515,-34.407823357740078],[-59.418247884937401,-34.40786999973394],[-59.418370252946318,-34.407914165911684],[-59.418493891978677,-34.40795582966534],[-59.41861872754977,-34.407994965894432],[-59.418744684453728,-34.408031551021132],[-59.418871686808835,-34.40806556300457],[-59.418999658103203,-34.408096981353943],[-59.419128521240964,-34.408125787141067],[-59.419258198588707,-34.408151963011612],[-59.419388612022196,-34.408175493195699],[-59.419519682973537,-34.408196363517256],[-59.419651332478594,-34.408214561402751],[-59.4197834812244,-34.408230075888596],[-59.419916049597155,-34.408242897627844],[-59.420048957730032,-34.408253018895827],[-59.42018212555147,-34.408260433594762],[-59.420315472833366,-34.408265137257494],[-59.420448919239405,-34.408267127050131],[-59.420582384373574,-34.408266401773766],[-59.420715787828527,-34.408262961865191],[-59.420849049234064,-34.408256809396732],[-59.420982088305642,-34.408247948074823],[-59.421114824892705,-34.40823638323792],[-59.421247179027027,-34.408222121853214],[-59.42137907097085,-34.408205172512467],[-59.421510421265062,-34.40818554542679],[-59.421641150776949,-34.40816325242055],[-59.421771180748017,-34.408138306924151],[-59.421900432841369,-34.408110723966082],[-59.422028829188989,-34.408080520163679],[-59.422156292438615,-34.408047713713259],[-59.422282745800437,-34.408012324379129],[-59.422408113093248,-34.407974373481558],[-59.422532318790523,-34.407933883884056],[-59.422655288065812,-34.407890879979576],[-59.422776946837878,-34.407845387675707],[-59.42289722181534,-34.407797434379248],[-59.423016040540872,-34.407747048979509],[-59.423133331434819,-34.407694261830954],[-59.423249023838352,-34.407639104734969],[-59.423363048056054,-34.40758161092063],[-59.42347533539791,-34.407521815024673],[-59.423585818220715,-34.407459753070697],[-59.423694429968798,-34.407395462447369],[-59.423801105214174,-34.407328981885875],[-59.423905779695922,-34.407260351436697],[-59.424008390358892,-34.407189612445364],[-59.424108875391788,-34.407116807527544],[-59.424207174264282,-34.407041980543461],[-59.424303227763538,-34.406965176571312],[-59.424396978029925,-34.406886441880225],[-59.424488368591788,-34.406805823902332],[-59.424577344399509,-34.406723371204194],[-59.424663851858696,-34.406639133457439],[-59.424747838862373,-34.406553161409043],[-59.424829254822484,-34.406465506850502],[-59.424908050700225,-34.406376222586822],[-59.424984179035683,-34.406285362404539],[-59.425057593976362,-34.406192981039503],[-59.425128251304812,-34.406099134143624],[-59.425196108465236,-34.406003878251617],[-59.425261124589156,-34.405907270746752],[-59.425323260519917,-34.405809369826308],[-59.425382478836376,-34.405710234466603],[-59.42543874387534,-34.405609924387356],[-59.425492021753094,-34.405508500015721],[-59.425542280385677,-34.405406022449938],[-59.425589489508376,-34.405302553422366],[-59.425633620693745,-34.405198155262561],[-59.425674647368837,-34.405092890859407],[-59.425712544831086,-34.404986823623489],[-59.425747290263267,-34.404880017448683],[-59.425778862747116,-34.404772536673825],[-59.425807243275948,-34.404664446043896],[-59.425832414766127,-34.404555810670921],[-59.42585436206722,-34.404446695994864],[-59.425873071971154,-34.40433716774421],[-59.425888533220203,-34.404227291896227],[-59.425900736513618,-34.404117134637367],[-59.425909674513257,-34.404006762323348],[-59.425915341848039,-34.403896241439142],[-59.425917735117018,-34.403785638559],[-59.42591685289149,-34.403675020306267],[-59.425912695715802,-34.403564453313301],[-59.42590526610703,-34.40345400418132],[-59.425894568553325,-34.403343739440324],[-59.42588060951131,-34.403233725508898],[-59.425863397402047,-34.403124028654403],[-59.425842942606003,-34.403014714952853],[-59.42581925745678,-34.40290585024929],[-59.425792356233572,-34.402797500117998],[-59.425762255152627,-34.402689729823081],[-59.425728972357369,-34.402582604279125],[-59.425692527907529,-34.402476188012137],[-59.425652943766949,-34.402370545120618],[-59.425610243790395,-34.402265739236974],[-59.425564453709072,-34.402161833489302],[-59.425515601115251,-34.402058890463202],[-59.425463715445474,-34.401956972164193],[-59.425408827962826,-34.401856139980396],[-59.425350971738148,-34.401756454645422],[-59.425290181630089,-34.401657976201946],[-59.42522649426401,-34.401560763965534],[-59.42515994800997,-34.401464876488802],[-59.425090582959569,-34.401370371526255],[-59.425018440901809,-34.401277305999621],[-59.424943565297909,-34.401185735963196],[-59.424866001255019,-34.401095716570588],[-59.424785795499211,-34.40100730204113],[-59.424702996347122,-34.400920545627393],[-59.424617653677046,-34.40083549958306],[-59.424529818898677,-34.400752215131533],[-59.424439544922308,-34.400670742435032],[-59.424346886126862,-34.400591130564415],[-59.424251898327121,-34.40051342746964],[-59.424154638740205,-34.400437679950791],[-59.424055165951025,-34.400363933630103],[-59.423953539876933,-34.40029223292435],[-59.423849821731778,-34.400222621018095],[-59.423744073989006,-34.400155139837771],[-59.423636360343878,-34.400089830026353],[-59.423526745675339,-34.400026730918974],[-59.423415296006809,-34.399965880519169],[-59.423302078466421,-34.399907315476057],[-59.423187161246652,-34.399851071062194],[-59.423070613563226,-34.399797181152437],[-59.422952505613466,-34.399745678203502],[-59.422832908533991,-34.399696593234403],[-59.422711894357896,-34.399649955807774],[-59.422589535971362,-34.39960579401221],[-59.422465907069842,-34.399564134445079],[-59.422341082113604,-34.399525002196832],[-59.422215136282965,-34.399488420835638],[-59.42208814543293,-34.399454412393375],[-59.421960186047698,-34.399422997352261],[-59.421831335194454,-34.399394194632492],[-59.42170167047702,-34.399368021581033],[-59.421571269989208,-34.399344493961024],[-59.42144021226764,-34.399323625942252],[-59.421308576244677,-34.399305430092802],[-59.421176441200771,-34.399289917371306],[-59.421043886716717,-34.399277097120454],[-59.420910992625906,-34.399266977061366],[-59.420777838966011,-34.399259563288879],[-59.420644505931079,-34.399254860267916],[-59.420511073823072,-34.39925287083085],[-59.420377623003546,-34.399253596175718],[-59.420244233845416,-34.399257035865546],[-59.420110986684378,-34.399263187828559],[-59.419977961770705,-34.399272048359535],[-59.419845239220805,-34.399283612121906],[-59.419712898969124,-34.399297872151095],[-59.419581020719946,-34.399314819858567],[-59.419449683899408,-34.399334445037219],[-59.419318967607765,-34.399356735867208],[-59.419188950571666,-34.39938167892339],[-59.4190597110968,-34.399409259183187],[-59.418931327020871,-34.399439460035701],[-59.418803875666505,-34.399472263291763],[-59.41867743379489,-34.399507649194796],[-59.418552077559525,-34.399545596432745],[-59.418427882460321,-34.399586082150932],[-59.418304923298194,-34.399629081965728],[-59.418183274130023,-34.39967456997941],[-59.418063008224017,-34.399722518795521],[-59.417944198015682,-34.399772899535563],[-59.417826915064126,-34.399825681856257],[-59.417711230009104,-34.399880833967899],[-59.417597212528271,-34.399938322653362],[-59.417484931295434,-34.399998113288291],[-59.417374453939061,-34.400060169861781],[-59.417265847001666,-34.400124454998121],[-59.417159175899656,-34.400190929979296],[-59.417054504883971,-34.400259554768326],[-59.41695189700139,-34.400330288033317],[-59.416851414056538,-34.400403087172322],[-59.416753116574689,-34.400477908339163],[-59.416657063765342,-34.400554706469535],[-59.416563313486463,-34.400633435308436],[-59.416471922209723,-34.400714047437823],[-59.416382944986488,-34.400796494305297],[-59.416296435414559,-34.400880726253135],[-59.416212445605943,-34.400966692548458],[-59.416131026155561,-34.401054341413555],[-59.416052226110537,-34.401143620057177],[-59.415976092940845,-34.401234474706293],[-59.41590267251064,-34.401326850638419],[-59.41583200905059,-34.401420692214714],[-59.415764145131241,-34.401515942913271],[-59.415699121637395,-34.401612545363371],[-59.415636977743453,-34.401710441379848],[-59.415577750889739,-34.401809571998221],[-59.415521476759977,-34.401909877510221],[-59.415468189259848,-34.402011297499683],[-59.415417920496417,-34.402113770878948],[-59.415370700758871,-34.402217235925654],[-59.415326558500183,-34.402321630319953],[-59.415285520320005,-34.402426891181946],[-59.415247610948605,-34.402532955109628],[-59.415212853231914,-34.402639758217056],[-59.41518126811777,-34.4027472361728],[-59.415152874643283,-34.402855324238693],[-59.415127689923303,-34.402963957308856],[-59.41510572914013,-34.40307306994886],[-59.415087005534275,-34.403182596435208],[-59.415071530396517,-34.403292470794781],[-59.415059313061064,-34.403402626844745],[-59.415050360899869,-34.403512998232323],[-59.415044679318122,-34.403623518474738],[-59.415042271751126,-34.403734120999317]]]}},
{"type":"Feature","properties":{"name":"hidro","label":"Buffer 10 km (análisis hidrológico)","descr":"Radio 10000 m alrededor del centroide del lote","radius_m":10000.0,"area_m2":314127725.1},"geometry":{"type":"Polygon","coordinates":[[[-59.311726833011043,-34.403196491642646],[-59.311741471364265,-34.405408838343696],[-59.311821612003861,-34.407620220180448],[-59.311967211824758,-34.409829305034464],[-59.312178188275112,-34.412034762067137],[-59.312454419393482,-34.414235262521771],[-59.312795743870097,-34.416429480524599],[-59.31320196113159,-34.418616093884225],[-59.313672831449772,-34.420793784889234],[-59.314208076073996,-34.422961241103273],[-59.314807377387332,-34.425117156157228],[-59.315470379086143,-34.42726023053789],[-59.316196686383478,-34.429389172372858],[-59.316985866235719,-34.431502698211013],[-59.317837447592623,-34.433599533798088],[-59.318750921670635,-34.435678414846997],[-59.319725742249119,-34.437738087802352],[-59.3207613259897,-34.439777310598664],[-59.321857052778256,-34.441794853411864],[-59.323012266089471,-34.443789499403643],[-59.324226273373796,-34.445760045458208],[-59.32549834646656,-34.447705302910741],[-59.326827722018962,-34.449624098267591],[-59.328213601950907,-34.451515273917195],[-59.329655153925074,-34.453377688831885],[-59.331151511842336,-34.455210219259499],[-59.332701776357865,-34.457011759405013],[-59.33430501541811,-34.458781222101244],[-59.335960264817729,-34.460517539468583],[-59.337666528776737,-34.462219663563047],[-59.339422780537078,-34.463886567012622],[-59.341227962978564,-34.465517243640925],[-59.343080989253764,-34.467110709078582],[-59.344980743441191,-34.468666001361136],[-59.346926081216878,-34.4701821815137],[-59.348915830543568,-34.471658334121699],[-59.350948792377139,-34.473093567887432],[-59.353023741390061,-34.474487016172056],[-59.355139426711254,-34.475837837522853],[-59.357294572681866,-34.477145216184951],[-59.359487879626712,-34.47840836259801],[-59.361718024640723,-34.479626513876532],[-59.363983662389906,-34.480798934274461],[-59.366283425926568,-34.481924915633073],[-59.368615927517965,-34.483003777812357],[-59.370979759488151,-34.484034869105116],[-59.373373495072279,-34.485017566634269],[-59.375795689283017,-34.485951276732173],[-59.378244879788383,-34.486835435302567],[-59.380719587800627,-34.487669508164316],[-59.38321831897531,-34.488452991377159],[-59.385739564320453,-34.489185411548931],[-59.38828180111468,-34.489866326124179],[-59.390843493834375,-34.490495323654329],[-59.393423095088487,-34.491072024048343],[-59.396019046561285,-34.491596078804861],[-59.398629779961745,-34.492067171224775],[-59.401253717979394,-34.492485016604427],[-59.403889275245817,-34.492849362409515],[-59.406534859301253,-34.493159988429177],[-59.409188871565775,-34.49341670691043],[-59.411849708314172,-34.493619362672931],[-59.414515761654421,-34.493767833203599],[-59.417185420508403,-34.493862028731712],[-59.419857071594926,-34.493901892283603],[-59.422529100414138,-34.493887399717707],[-59.425199892232534,-34.493818559739232],[-59.427867833068319,-34.493695413895232],[-59.430531310676209,-34.493518036549112],[-59.433188715531159,-34.493286534835562],[-59.435838441810304,-34.493001048595239],[-59.438478888372757,-34.492661750289578],[-59.441108459736121,-34.492268844895769],[-59.443725567049825,-34.491822569781725],[-59.44632862906392,-34.491323194561424],[-59.448916073093287,-34.490771020930666],[-59.451486335976305,-34.490166382483032],[-59.45403786502753,-34.489509644506647],[-59.456569118983914,-34.488801203761419],[-59.459078568943433,-34.488041488237265],[-59.461564699296339,-34.487230956893313],[-59.464026008647721,-34.486370099378007],[-59.466461010731159,-34.485459435730924],[-59.468868235313003,-34.484499516065753],[-59.471246229086162,-34.483490920235134],[-59.473593556553709,-34.482434257477465],[-59.475908800900861,-34.481330166045751],[-59.478190564855339,-34.48017931281877],[-59.480437471535517,-34.478982392895176],[-59.482648165285582,-34.477740129170002],[-59.484821312497445,-34.476453271894741],[-59.486955602418824,-34.475122598220551],[-59.489049747946865,-34.473748911725373],[-59.491102486407044,-34.472333041924898],[-59.493112580316655,-34.47087584376785],[-59.495078818132598,-34.46937819711605],[-59.497000014982916,-34.467841006209291],[-59.49887501338155,-34.466265199115469],[-59.500702683926164,-34.464651727166519],[-59.502481925978181,-34.463001564380029],[-59.504211668325134,-34.46131570686768],[-59.505890869824555,-34.459595172229811],[-59.507518520029031,-34.457840998937549],[-59.509093639792404,-34.45605424570217],[-59.510615281856282,-34.454235990832366],[-59.512082531416901,-34.452387331579828],[-59.51349450667179,-34.450509383473467],[-59.514850359345907,-34.448603279642676],[-59.516149275197343,-34.446670170130204],[-59.517390474501404,-34.444711221194858],[-59.518573212513985,-34.442727614604507],[-59.519696779912955,-34.440720546920168],[-59.520760503217836,-34.438691228770942],[-59.521763745187471,-34.436640884120905],[-59.522705905195224,-34.434570749528056],[-59.523586419581925,-34.432482073395832],[-59.524404761985949,-34.430376115217648],[-59.525160443650492,-34.428254144815071],[-59.525853013707874,-34.426117441569794],[-59.526482059440582,-34.42396729365025],[-59.52704720651905,-34.421804997233004],[-59.527548119216156,-34.419631855719587],[-59.527984500597888,-34.417449178949177],[-59.528356092690828,-34.415258282407741],[-59.528662676625515,-34.413060486433878],[-59.528904072756411,-34.410857115422054],[-59.529080140757969,-34.408649497023589],[-59.529190779696791,-34.406438961345913],[-59.529235928080212,-34.404226840150777],[-59.529215563880797,-34.402014466051398],[-59.529129704537205,-34.399803171709614],[-59.528978406931202,-34.397594289033115],[-59.528761767341003,-34.395389148373461],[-59.528479921370916,-34.39318907772514],[-59.528133043857252,-34.39099540192656],[-59.527721348751022,-34.388809441862904],[-59.527245088976905,-34.386632513671735],[-59.526704556269138,-34.38446592795173],[-59.52610008098398,-34.382310988975],[-59.525432031889565,-34.380168993903297],[-59.524700815932384,-34.378041232008876],[-59.523906877981396,-34.37592898390038],[-59.523050700549419,-34.373833520753891],[-59.522132803492418,-34.371756103550226],[-59.521153743686256,-34.369697982318293],[-59.520114114682016,-34.3676603953854],[-59.5190145463392,-34.365644568634686],[-59.517855704437764,-34.363651714770349],[-59.516638290268908,-34.361683032590882],[-59.515363040204818,-34.359739706270851],[-59.514030725247935,-34.357822904651712],[-59.512642150559699,-34.355933780541932],[-59.511198154969428,-34.354073470026933],[-59.50969961046323,-34.352243091789191],[-59.508147421653668,-34.350443746438955],[-59.506542525230202,-34.348676515855971],[-59.504885889391055,-34.346942462542536],[-59.503178513256358,-34.345242628988288],[-59.501421426263619,-34.343578037047244],[-59.499615687545273,-34.341949687327087],[-59.497762385289057,-34.340358558591518],[-59.495862636081405,-34.338805607175651],[-59.493917584234445,-34.337291766415035],[-59.491928401096743,-34.335817946088426],[-59.489896284348518,-34.334385031874874],[-59.487822457281553,-34.332993884825171],[-59.485708168064214,-34.331645340848219],[-59.483554688992093,-34.330340210212356],[-59.48136331572482,-34.329079277062306],[-59.479135366509126,-34.327863298951549],[-59.476872181389247,-34.326693006390769],[-59.474575121404371,-34.325569102412487],[-59.472245567774173,-34.32449226215217],[-59.469884921072811,-34.323463132445902],[-59.467494600391568,-34.322482331445144],[-59.465076042491049,-34.32155044824858],[-59.462630700943016,-34.320668042551269],[-59.460160045262789,-34.319835644311475],[-59.457665560032368,-34.319053753435135],[-59.45514874401487,-34.31832283947827],[-59.452611109260985,-34.317643341367642],[-59.450054180207609,-34.317015667139515],[-59.447479492769645,-34.316440193696842],[-59.44488859342492,-34.31591726658511],[-59.442283038293382,-34.315447199786867],[-59.439664392210531,-34.315030275534859],[-59.437034227795927,-34.314666744144304],[-59.434394124517368,-34.314356823864081],[-59.431745667751038,-34.314100700746906],[-59.429090447838306,-34.313898528538864],[-59.426430059139641,-34.313750428588051],[-59.423766099086443,-34.313656489772455],[-59.421100167230819,-34.313616768447275],[-59.418433864294393,-34.31363128841145],[-59.415768791216387,-34.3137000408937],[-59.413106548201469,-34.313822984557859],[-59.410448733768312,-34.314000045527564],[-59.407796943798694,-34.314231117430296],[-59.405152770588643,-34.314516061460886],[-59.402517801901112,-34.314854706464125],[-59.399893620021658,-34.31524684903674],[-59.397281800817048,-34.31569225364855],[-59.394683912797618,-34.31619065278268],[-59.392101516183807,-34.316741747094881],[-59.389536161977489,-34.317345205591735],[-59.386989391038583,-34.318000665827817],[-59.384462733167425,-34.318707734121432],[-59.381957706193603,-34.319465985788987],[-59.379475815071508,-34.32027496539807],[-59.377018550983337,-34.321134187038453],[-59.374587390450102,-34.322043134611626],[-59.372183794450912,-34.32300126213805],[-59.369809207551199,-34.324007994082606],[-59.367465057040562,-34.325062725697158],[-59.365152752080242,-34.32616482338107],[-59.362873682861334,-34.327313625058672],[-59.360629219773685,-34.328508440573735],[-59.358420712586401,-34.329748552100959],[-59.356249489639978,-34.331033214573722],[-59.354116857051132,-34.33236165612832],[-59.352024097930141,-34.333733078564244],[-59.349972471611686,-34.335146657820168],[-59.347963212899344,-34.336601544465445],[-59.345997531324279,-34.338096864206904],[-59.344076610418526,-34.339631718410551],[-59.342201607003517,-34.341205184637772],[-59.340373650493824,-34.342816317195975],[-59.338593842217044,-34.344464147703377],[-59.336863254749836,-34.346147685666985],[-59.335182931270843,-34.34786591907438],[-59.333553884930453,-34.349617814998318],[-59.331977098238433,-34.351402320213914],[-59.330453522468986,-34.353218361828077],[-59.328984077084499,-34.355064847921049],[-59.327569649177462,-34.356940668199229],[-59.326211092931615,-34.358844694659261],[-59.324909229102119,-34.360775782262976],[-59.323664844515648,-34.362732769622518],[-59.32247869159,-34.364714479695486],[-59.321351487874132,-34.366719720489797],[-59.32028391560879,-34.368747285777403],[-59.319276621307615,-34.370795955816988],[-59.318330215359644,-34.372864498084773],[-59.317445271652893,-34.374951668013388],[-59.316622327219548,-34.377056209737908],[-59.315861881903118,-34.379176856849107],[-59.315164398047244,-34.381312333153147],[-59.314530300207174,-34.383461353437418],[-59.313959974883325,-34.385622624241861],[-59.313453770277654,-34.3877948446357],[-59.313011996072653,-34.389976706998802],[-59.312634923233496,-34.392166897807137],[-59.312322783833146,-34.394364098422251],[-59.312075770900528,-34.396566985883958],[-59.31189403829255,-34.398774233705851],[-59.311777700588927,-34.400984512673169],[-59.311726833011043,-34.403196491642646]]]}}
]
}
