{
"type": "FeatureCollection",
"name": "rog_P100_24h_agua5cm",
"crs": { "type": "name", "properties": { "name": "urn:ogc:def:crs:EPSG::5347" } },
"features": [
{"type":"Feature","properties":{"Name":"100 mm en 24 h · h>5 cm"},"geometry":{"type":"Polygon","coordinates":[[[5552850.0,6195810.0],[5552850.0,6195780.0],[5552880.0,6195780.0],[5552880.0,6195810.0],[5552850.0,6195810.0]]]}},
{"type":"Feature","properties":{"Name":"100 mm en 24 h · h>5 cm"},"geometry":{"type":"Polygon","coordinates":[[[5552970.0,6195810.0],[5552970.0,6195780.0],[5553000.0,6195780.0],[5553000.0,6195810.0],[5552970.0,6195810.0]]]}},
{"type":"Feature","properties":{"Name":"100 mm en 24 h · h>5 cm"},"geometry":{"type":"Polygon","coordinates":[[[5552520.0,6195720.0],[5552520.0,6195660.0],[5552490.0,6195660.0],[5552490.0,6195510.0],[5552520.0,6195510.0],[5552520.0,6195540.0],[5552550.0,6195540.0],[5552550.0,6195570.0],[5552580.0,6195570.0],[5552580.0,6195690.0],[5552550.0,6195690.0],[5552550.0,6195720.0],[5552520.0,6195720.0]]]}},
{"type":"Feature","properties":{"Name":"100 mm en 24 h · h>5 cm"},"geometry":{"type":"Polygon","coordinates":[[[5554290.0,6195480.0],[5554290.0,6195450.0],[5554320.0,6195450.0],[5554320.0,6195480.0],[5554290.0,6195480.0]]]}},
{"type":"Feature","properties":{"Name":"100 mm en 24 h · h>5 cm"},"geometry":{"type":"Polygon","coordinates":[[[5551680.0,6195660.0],[5551680.0,6195600.0],[5551650.0,6195600.0],[5551650.0,6195540.0],[5551680.0,6195540.0],[5551680.0,6195450.0],[5551710.0,6195450.0],[5551710.0,6195420.0],[5551770.0,6195420.0],[5551770.0,6195390.0],[5551800.0,6195390.0],[5551800.0,6195360.0],[5551920.0,6195360.0],[5551920.0,6195330.0],[5551950.0,6195330.0],[5551950.0,6195300.0],[5552070.0,6195300.0],[5552070.0,6195360.0],[5552100.0,6195360.0],[5552100.0,6195480.0],[5552070.0,6195480.0],[5552070.0,6195450.0],[5552040.0,6195450.0],[5552040.0,6195420.0],[5551920.0,6195420.0],[5551920.0,6195450.0],[5551860.0,6195450.0],[5551860.0,6195480.0],[5551770.0,6195480.0],[5551770.0,6195510.0],[5551740.0,6195510.0],[5551740.0,6195540.0],[5551710.0,6195540.0],[5551710.0,6195660.0],[5551680.0,6195660.0]]]}},
{"type":"Feature","properties":{"Name":"100 mm en 24 h · h>5 cm"},"geometry":{"type":"Polygon","coordinates":[[[5554770.0,6195420.0],[5554770.0,6195390.0],[5554740.0,6195390.0],[5554740.0,6195300.0],[5554770.0,6195300.0],[5554770.0,6195360.0],[5554800.0,6195360.0],[5554800.0,6195390.0],[5554830.0,6195390.0],[5554830.0,6195420.0],[5554770.0,6195420.0]]]}},
{"type":"Feature","properties":{"Name":"100 mm en 24 h · h>5 cm"},"geometry":{"type":"Polygon","coordinates":[[[5551590.0,6195210.0],[5551590.0,6195180.0],[5551620.0,6195180.0],[5551620.0,6195210.0],[5551590.0,6195210.0]]]}},
{"type":"Feature","properties":{"Name":"100 mm en 24 h · h>5 cm"},"geometry":{"type":"Polygon","coordinates":[[[5551560.0,6195180.0],[5551560.0,6195150.0],[5551590.0,6195150.0],[5551590.0,6195180.0],[5551560.0,6195180.0]]]}},
{"type":"Feature","properties":{"Name":"100 mm en 24 h · h>5 cm"},"geometry":{"type":"Polygon","coordinates":[[[5552430.0,6195300.0],[5552430.0,6195240.0],[5552400.0,6195240.0],[5552400.0,6195090.0],[5552430.0,6195090.0],[5552430.0,6195060.0],[5552460.0,6195060.0],[5552460.0,6195300.0],[5552430.0,6195300.0]]]}},
{"type":"Feature","properties":{"Name":"100 mm en 24 h · h>5 cm"},"geometry":{"type":"Polygon","coordinates":[[[5552400.0,6194760.0],[5552400.0,6194730.0],[5552430.0,6194730.0],[5552430.0,6194760.0],[5552400.0,6194760.0]]]}},
{"type":"Feature","properties":{"Name":"100 mm en 24 h · h>5 cm"},"geometry":{"type":"Polygon","coordinates":[[[5553780.0,6194880.0],[5553780.0,6194640.0],[5553840.0,6194640.0],[5553840.0,6194790.0],[5553810.0,6194790.0],[5553810.0,6194880.0],[5553780.0,6194880.0]]]}},
{"type":"Feature","properties":{"Name":"100 mm en 24 h · h>5 cm"},"geometry":{"type":"Polygon","coordinates":[[[5551110.0,6194820.0],[5551110.0,6194790.0],[5551050.0,6194790.0],[5551050.0,6194730.0],[5551020.0,6194730.0],[5551020.0,6194700.0],[5550960.0,6194700.0],[5550960.0,6194670.0],[5550840.0,6194670.0],[5550840.0,6194640.0],[5550870.0,6194640.0],[5550870.0,6194580.0],[5550930.0,6194580.0],[5550930.0,6194550.0],[5551080.0,6194550.0],[5551080.0,6194580.0],[5551110.0,6194580.0],[5551110.0,6194610.0],[5551140.0,6194610.0],[5551140.0,6194640.0],[5551170.0,6194640.0],[5551170.0,6194670.0],[5551230.0,6194670.0],[5551230.0,6194700.0],[5551290.0,6194700.0],[5551290.0,6194730.0],[5551320.0,6194730.0],[5551320.0,6194790.0],[5551290.0,6194790.0],[5551290.0,6194820.0],[5551110.0,6194820.0]]]}},
{"type":"Feature","properties":{"Name":"100 mm en 24 h · h>5 cm"},"geometry":{"type":"Polygon","coordinates":[[[5555070.0,6194550.0],[5555070.0,6194520.0],[5555100.0,6194520.0],[5555100.0,6194550.0],[5555070.0,6194550.0]]]}},
{"type":"Feature","properties":{"Name":"100 mm en 24 h · h>5 cm"},"geometry":{"type":"Polygon","coordinates":[[[5552550.0,6194520.0],[5552550.0,6194490.0],[5552580.0,6194490.0],[5552580.0,6194520.0],[5552550.0,6194520.0]]]}},
{"type":"Feature","properties":{"Name":"100 mm en 24 h · h>5 cm"},"geometry":{"type":"Polygon","coordinates":[[[5554380.0,6194460.0],[5554380.0,6194430.0],[5554410.0,6194430.0],[5554410.0,6194460.0],[5554380.0,6194460.0]]]}},
{"type":"Feature","properties":{"Name":"100 mm en 24 h · h>5 cm"},"geometry":{"type":"Polygon","coordinates":[[[5551500.0,6194310.0],[5551500.0,6194280.0],[5551530.0,6194280.0],[5551530.0,6194310.0],[5551500.0,6194310.0]]]}},
{"type":"Feature","properties":{"Name":"100 mm en 24 h · h>5 cm"},"geometry":{"type":"Polygon","coordinates":[[[5554860.0,6194310.0],[5554860.0,6194280.0],[5554890.0,6194280.0],[5554890.0,6194310.0],[5554860.0,6194310.0]]]}},
{"type":"Feature","properties":{"Name":"100 mm en 24 h · h>5 cm"},"geometry":{"type":"Polygon","coordinates":[[[5551530.0,6194280.0],[5551530.0,6194250.0],[5551560.0,6194250.0],[5551560.0,6194280.0],[5551530.0,6194280.0]]]}},
{"type":"Feature","properties":{"Name":"100 mm en 24 h · h>5 cm"},"geometry":{"type":"Polygon","coordinates":[[[5551560.0,6194250.0],[5551560.0,6194220.0],[5551590.0,6194220.0],[5551590.0,6194250.0],[5551560.0,6194250.0]]]}},
{"type":"Feature","properties":{"Name":"100 mm en 24 h · h>5 cm"},"geometry":{"type":"Polygon","coordinates":[[[5551440.0,6194220.0],[5551440.0,6194190.0],[5551470.0,6194190.0],[5551470.0,6194220.0],[5551440.0,6194220.0]]]}},
{"type":"Feature","properties":{"Name":"100 mm en 24 h · h>5 cm"},"geometry":{"type":"Polygon","coordinates":[[[5551590.0,6194220.0],[5551590.0,6194190.0],[5551620.0,6194190.0],[5551620.0,6194220.0],[5551590.0,6194220.0]]]}},
{"type":"Feature","properties":{"Name":"100 mm en 24 h · h>5 cm"},"geometry":{"type":"Polygon","coordinates":[[[5551470.0,6194190.0],[5551470.0,6194160.0],[5551500.0,6194160.0],[5551500.0,6194130.0],[5551530.0,6194130.0],[5551530.0,6194190.0],[5551470.0,6194190.0]]]}},
{"type":"Feature","properties":{"Name":"100 mm en 24 h · h>5 cm"},"geometry":{"type":"Polygon","coordinates":[[[5551530.0,6194130.0],[5551530.0,6194100.0],[5551560.0,6194100.0],[5551560.0,6194130.0],[5551530.0,6194130.0]]]}},
{"type":"Feature","properties":{"Name":"100 mm en 24 h · h>5 cm"},"geometry":{"type":"Polygon","coordinates":[[[5553780.0,6194100.0],[5553780.0,6194070.0],[5553810.0,6194070.0],[5553810.0,6194100.0],[5553780.0,6194100.0]]]}},
{"type":"Feature","properties":{"Name":"100 mm en 24 h · h>5 cm"},"geometry":{"type":"Polygon","coordinates":[[[5554500.0,6194310.0],[5554500.0,6194250.0],[5554530.0,6194250.0],[5554530.0,6194160.0],[5554560.0,6194160.0],[5554560.0,6194130.0],[5554590.0,6194130.0],[5554590.0,6194070.0],[5554620.0,6194070.0],[5554620.0,6193980.0],[5554650.0,6193980.0],[5554650.0,6193950.0],[5554680.0,6193950.0],[5554680.0,6194010.0],[5554710.0,6194010.0],[5554710.0,6194100.0],[5554680.0,6194100.0],[5554680.0,6194160.0],[5554650.0,6194160.0],[5554650.0,6194190.0],[5554620.0,6194190.0],[5554620.0,6194220.0],[5554590.0,6194220.0],[5554590.0,6194250.0],[5554560.0,6194250.0],[5554560.0,6194310.0],[5554500.0,6194310.0]]]}},
{"type":"Feature","properties":{"Name":"100 mm en 24 h · h>5 cm"},"geometry":{"type":"Polygon","coordinates":[[[5551830.0,6194010.0],[5551830.0,6193950.0],[5551860.0,6193950.0],[5551860.0,6193980.0],[5551890.0,6193980.0],[5551890.0,6194010.0],[5551830.0,6194010.0]]]}},
{"type":"Feature","properties":{"Name":"100 mm en 24 h · h>5 cm"},"geometry":{"type":"Polygon","coordinates":[[[5551680.0,6193980.0],[5551680.0,6193950.0],[5551710.0,6193950.0],[5551710.0,6193980.0],[5551680.0,6193980.0]]]}},
{"type":"Feature","properties":{"Name":"100 mm en 24 h · h>5 cm"},"geometry":{"type":"Polygon","coordinates":[[[5551740.0,6193950.0],[5551740.0,6193920.0],[5551770.0,6193920.0],[5551770.0,6193950.0],[5551740.0,6193950.0]]]}},
{"type":"Feature","properties":{"Name":"100 mm en 24 h · h>5 cm"},"geometry":{"type":"Polygon","coordinates":[[[5554320.0,6193890.0],[5554320.0,6193860.0],[5554350.0,6193860.0],[5554350.0,6193890.0],[5554320.0,6193890.0]]]}},
{"type":"Feature","properties":{"Name":"100 mm en 24 h · h>5 cm"},"geometry":{"type":"Polygon","coordinates":[[[5551470.0,6194040.0],[5551470.0,6194010.0],[5551410.0,6194010.0],[5551410.0,6193980.0],[5551440.0,6193980.0],[5551440.0,6193950.0],[5551470.0,6193950.0],[5551470.0,6193920.0],[5551500.0,6193920.0],[5551500.0,6193860.0],[5551560.0,6193860.0],[5551560.0,6193830.0],[5551620.0,6193830.0],[5551620.0,6193860.0],[5551650.0,6193860.0],[5551650.0,6193890.0],[5551740.0,6193890.0],[5551740.0,6193920.0],[5551620.0,6193920.0],[5551620.0,6193950.0],[5551590.0,6193950.0],[5551590.0,6193980.0],[5551560.0,6193980.0],[5551560.0,6194010.0],[5551530.0,6194010.0],[5551530.0,6194040.0],[5551470.0,6194040.0]]]}},
{"type":"Feature","properties":{"Name":"100 mm en 24 h · h>5 cm"},"geometry":{"type":"Polygon","coordinates":[[[5551740.0,6193860.0],[5551740.0,6193830.0],[5551770.0,6193830.0],[5551770.0,6193860.0],[5551740.0,6193860.0]]]}},
{"type":"Feature","properties":{"Name":"100 mm en 24 h · h>5 cm"},"geometry":{"type":"Polygon","coordinates":[[[5551710.0,6193830.0],[5551710.0,6193800.0],[5551740.0,6193800.0],[5551740.0,6193830.0],[5551710.0,6193830.0]]]}},
{"type":"Feature","properties":{"Name":"100 mm en 24 h · h>5 cm"},"geometry":{"type":"Polygon","coordinates":[[[5551680.0,6193800.0],[5551680.0,6193770.0],[5551710.0,6193770.0],[5551710.0,6193800.0],[5551680.0,6193800.0]]]}},
{"type":"Feature","properties":{"Name":"100 mm en 24 h · h>5 cm"},"geometry":{"type":"Polygon","coordinates":[[[5555640.0,6193830.0],[5555640.0,6193740.0],[5555670.0,6193740.0],[5555670.0,6193830.0],[5555640.0,6193830.0]]]}},
{"type":"Feature","properties":{"Name":"100 mm en 24 h · h>5 cm"},"geometry":{"type":"Polygon","coordinates":[[[5554980.0,6193650.0],[5554980.0,6193590.0],[5554950.0,6193590.0],[5554950.0,6193530.0],[5554920.0,6193530.0],[5554920.0,6193440.0],[5554980.0,6193440.0],[5554980.0,6193500.0],[5555010.0,6193500.0],[5555010.0,6193650.0],[5554980.0,6193650.0]]]}},
{"type":"Feature","properties":{"Name":"100 mm en 24 h · h>5 cm"},"geometry":{"type":"Polygon","coordinates":[[[5552070.0,6193530.0],[5552070.0,6193500.0],[5552040.0,6193500.0],[5552040.0,6193380.0],[5552070.0,6193380.0],[5552070.0,6193410.0],[5552100.0,6193410.0],[5552100.0,6193530.0],[5552070.0,6193530.0]]]}},
{"type":"Feature","properties":{"Name":"100 mm en 24 h · h>5 cm"},"geometry":{"type":"Polygon","coordinates":[[[5555160.0,6193290.0],[5555160.0,6193260.0],[5555190.0,6193260.0],[5555190.0,6193290.0],[5555160.0,6193290.0]]]}},
{"type":"Feature","properties":{"Name":"100 mm en 24 h · h>5 cm"},"geometry":{"type":"Polygon","coordinates":[[[5555100.0,6193260.0],[5555100.0,6193200.0],[5555130.0,6193200.0],[5555130.0,6193230.0],[5555160.0,6193230.0],[5555160.0,6193260.0],[5555100.0,6193260.0]]]}},
{"type":"Feature","properties":{"Name":"100 mm en 24 h · h>5 cm"},"geometry":{"type":"Polygon","coordinates":[[[5554920.0,6193200.0],[5554920.0,6193170.0],[5554950.0,6193170.0],[5554950.0,6193200.0],[5554920.0,6193200.0]]]}},
{"type":"Feature","properties":{"Name":"100 mm en 24 h · h>5 cm"},"geometry":{"type":"Polygon","coordinates":[[[5553570.0,6193050.0],[5553570.0,6193020.0],[5553600.0,6193020.0],[5553600.0,6193050.0],[5553570.0,6193050.0]]]}},
{"type":"Feature","properties":{"Name":"100 mm en 24 h · h>5 cm"},"geometry":{"type":"Polygon","coordinates":[[[5553540.0,6193020.0],[5553540.0,6192990.0],[5553570.0,6192990.0],[5553570.0,6193020.0],[5553540.0,6193020.0]]]}},
{"type":"Feature","properties":{"Name":"100 mm en 24 h · h>5 cm"},"geometry":{"type":"Polygon","coordinates":[[[5553150.0,6192960.0],[5553150.0,6192930.0],[5553180.0,6192930.0],[5553180.0,6192960.0],[5553150.0,6192960.0]]]}},
{"type":"Feature","properties":{"Name":"100 mm en 24 h · h>5 cm"},"geometry":{"type":"Polygon","coordinates":[[[5554230.0,6192960.0],[5554230.0,6192930.0],[5554260.0,6192930.0],[5554260.0,6192960.0],[5554230.0,6192960.0]]]}},
{"type":"Feature","properties":{"Name":"100 mm en 24 h · h>5 cm"},"geometry":{"type":"Polygon","coordinates":[[[5554470.0,6192810.0],[5554470.0,6192750.0],[5554500.0,6192750.0],[5554500.0,6192810.0],[5554470.0,6192810.0]]]}},
{"type":"Feature","properties":{"Name":"100 mm en 24 h · h>5 cm"},"geometry":{"type":"Polygon","coordinates":[[[5553750.0,6192720.0],[5553750.0,6192690.0],[5553780.0,6192690.0],[5553780.0,6192720.0],[5553750.0,6192720.0]]]}},
{"type":"Feature","properties":{"Name":"100 mm en 24 h · h>5 cm"},"geometry":{"type":"Polygon","coordinates":[[[5553780.0,6192690.0],[5553780.0,6192660.0],[5553810.0,6192660.0],[5553810.0,6192690.0],[5553780.0,6192690.0]]]}},
{"type":"Feature","properties":{"Name":"100 mm en 24 h · h>5 cm"},"geometry":{"type":"Polygon","coordinates":[[[5553750.0,6192660.0],[5553750.0,6192630.0],[5553780.0,6192630.0],[5553780.0,6192660.0],[5553750.0,6192660.0]]]}},
{"type":"Feature","properties":{"Name":"100 mm en 24 h · h>5 cm"},"geometry":{"type":"Polygon","coordinates":[[[5553900.0,6192600.0],[5553900.0,6192510.0],[5553960.0,6192510.0],[5553960.0,6192570.0],[5553930.0,6192570.0],[5553930.0,6192600.0],[5553900.0,6192600.0]]]}},
{"type":"Feature","properties":{"Name":"100 mm en 24 h · h>5 cm"},"geometry":{"type":"Polygon","coordinates":[[[5553180.0,6192930.0],[5553180.0,6192900.0],[5553210.0,6192900.0],[5553210.0,6192840.0],[5553240.0,6192840.0],[5553240.0,6192810.0],[5553270.0,6192810.0],[5553270.0,6192750.0],[5553300.0,6192750.0],[5553300.0,6192720.0],[5553330.0,6192720.0],[5553330.0,6192690.0],[5553360.0,6192690.0],[5553360.0,6192630.0],[5553390.0,6192630.0],[5553390.0,6192570.0],[5553450.0,6192570.0],[5553450.0,6192540.0],[5553480.0,6192540.0],[5553480.0,6192510.0],[5553510.0,6192510.0],[5553510.0,6192480.0],[5553540.0,6192480.0],[5553540.0,6192450.0],[5553570.0,6192450.0],[5553570.0,6192420.0],[5553600.0,6192420.0],[5553600.0,6192390.0],[5553630.0,6192390.0],[5553630.0,6192330.0],[5553660.0,6192330.0],[5553660.0,6192300.0],[5553720.0,6192300.0],[5553720.0,6192330.0],[5553750.0,6192330.0],[5553750.0,6192450.0],[5553720.0,6192450.0],[5553720.0,6192480.0],[5553690.0,6192480.0],[5553690.0,6192510.0],[5553660.0,6192510.0],[5553660.0,6192540.0],[5553630.0,6192540.0],[5553630.0,6192570.0],[5553600.0,6192570.0],[5553600.0,6192600.0],[5553570.0,6192600.0],[5553570.0,6192630.0],[5553540.0,6192630.0],[5553540.0,6192660.0],[5553510.0,6192660.0],[5553510.0,6192690.0],[5553450.0,6192690.0],[5553450.0,6192750.0],[5553390.0,6192750.0],[5553390.0,6192810.0],[5553360.0,6192810.0],[5553360.0,6192840.0],[5553330.0,6192840.0],[5553330.0,6192870.0],[5553300.0,6192870.0],[5553300.0,6192900.0],[5553240.0,6192900.0],[5553240.0,6192930.0],[5553180.0,6192930.0]]]}},
{"type":"Feature","properties":{"Name":"100 mm en 24 h · h>5 cm"},"geometry":{"type":"Polygon","coordinates":[[[5554590.0,6192060.0],[5554590.0,6192030.0],[5554560.0,6192030.0],[5554560.0,6191970.0],[5554530.0,6191970.0],[5554530.0,6191820.0],[5554590.0,6191820.0],[5554590.0,6191850.0],[5554620.0,6191850.0],[5554620.0,6191910.0],[5554650.0,6191910.0],[5554650.0,6192060.0],[5554590.0,6192060.0]]]}},
{"type":"Feature","properties":{"Name":"100 mm en 24 h · h>5 cm"},"geometry":{"type":"Polygon","coordinates":[[[5554350.0,6191760.0],[5554350.0,6191730.0],[5554320.0,6191730.0],[5554320.0,6191640.0],[5554290.0,6191640.0],[5554290.0,6191580.0],[5554320.0,6191580.0],[5554320.0,6191430.0],[5554350.0,6191430.0],[5554350.0,6191520.0],[5554380.0,6191520.0],[5554380.0,6191610.0],[5554410.0,6191610.0],[5554410.0,6191670.0],[5554440.0,6191670.0],[5554440.0,6191700.0],[5554410.0,6191700.0],[5554410.0,6191730.0],[5554440.0,6191730.0],[5554440.0,6191760.0],[5554350.0,6191760.0]]]}},
{"type":"Feature","properties":{"Name":"100 mm en 24 h · h>5 cm"},"geometry":{"type":"Polygon","coordinates":[[[5554170.0,6191400.0],[5554170.0,6191370.0],[5554200.0,6191370.0],[5554200.0,6191400.0],[5554170.0,6191400.0]]]}},
{"type":"Feature","properties":{"Name":"100 mm en 24 h · h>5 cm"},"geometry":{"type":"Polygon","coordinates":[[[5554350.0,6191400.0],[5554350.0,6191370.0],[5554380.0,6191370.0],[5554380.0,6191400.0],[5554350.0,6191400.0]]]}},
{"type":"Feature","properties":{"Name":"100 mm en 24 h · h>5 cm"},"geometry":{"type":"Polygon","coordinates":[[[5554380.0,6191370.0],[5554380.0,6191310.0],[5554410.0,6191310.0],[5554410.0,6191220.0],[5554440.0,6191220.0],[5554440.0,6191190.0],[5554470.0,6191190.0],[5554470.0,6191340.0],[5554440.0,6191340.0],[5554440.0,6191370.0],[5554380.0,6191370.0]]]}},
{"type":"Feature","properties":{"Name":"100 mm en 24 h · h>5 cm"},"geometry":{"type":"Polygon","coordinates":[[[5554350.0,6191160.0],[5554350.0,6191100.0],[5554320.0,6191100.0],[5554320.0,6191040.0],[5554290.0,6191040.0],[5554290.0,6190980.0],[5554350.0,6190980.0],[5554350.0,6190950.0],[5554380.0,6190950.0],[5554380.0,6190980.0],[5554410.0,6190980.0],[5554410.0,6191010.0],[5554440.0,6191010.0],[5554440.0,6191130.0],[5554410.0,6191130.0],[5554410.0,6191160.0],[5554350.0,6191160.0]]]}},
{"type":"Feature","properties":{"Name":"100 mm en 24 h · h>5 cm"},"geometry":{"type":"Polygon","coordinates":[[[5553540.0,6190920.0],[5553540.0,6190860.0],[5553570.0,6190860.0],[5553570.0,6190920.0],[5553540.0,6190920.0]]]}},
{"type":"Feature","properties":{"Name":"100 mm en 24 h · h>5 cm"},"geometry":{"type":"Polygon","coordinates":[[[5553990.0,6191130.0],[5553990.0,6191100.0],[5553930.0,6191100.0],[5553930.0,6191070.0],[5553900.0,6191070.0],[5553900.0,6191040.0],[5553870.0,6191040.0],[5553870.0,6191010.0],[5553810.0,6191010.0],[5553810.0,6190980.0],[5553780.0,6190980.0],[5553780.0,6190860.0],[5553810.0,6190860.0],[5553810.0,6190830.0],[5553840.0,6190830.0],[5553840.0,6190800.0],[5553870.0,6190800.0],[5553870.0,6190770.0],[5553930.0,6190770.0],[5553930.0,6190740.0],[5553960.0,6190740.0],[5553960.0,6190710.0],[5553990.0,6190710.0],[5553990.0,6190830.0],[5553960.0,6190830.0],[5553960.0,6190920.0],[5553990.0,6190920.0],[5553990.0,6190980.0],[5554020.0,6190980.0],[5554020.0,6191040.0],[5554050.0,6191040.0],[5554050.0,6191130.0],[5553990.0,6191130.0]]]}},
{"type":"Feature","properties":{"Name":"100 mm en 24 h · h>5 cm"},"geometry":{"type":"Polygon","coordinates":[[[5555340.0,6198360.0],[5555340.0,6198300.0],[5555310.0,6198300.0],[5555310.0,6198240.0],[5555280.0,6198240.0],[5555280.0,6198210.0],[5555190.0,6198210.0],[5555190.0,6198180.0],[5555160.0,6198180.0],[5555160.0,6198150.0],[5555100.0,6198150.0],[5555100.0,6198120.0],[5555040.0,6198120.0],[5555040.0,6198090.0],[5554980.0,6198090.0],[5554980.0,6198060.0],[5554920.0,6198060.0],[5554920.0,6198030.0],[5554890.0,6198030.0],[5554890.0,6198000.0],[5554860.0,6198000.0],[5554860.0,6197970.0],[5554800.0,6197970.0],[5554800.0,6197940.0],[5554770.0,6197940.0],[5554770.0,6197910.0],[5554740.0,6197910.0],[5554740.0,6197880.0],[5554710.0,6197880.0],[5554710.0,6197850.0],[5554680.0,6197850.0],[5554680.0,6197790.0],[5554620.0,6197790.0],[5554620.0,6197670.0],[5554590.0,6197670.0],[5554590.0,6197580.0],[5554560.0,6197580.0],[5554560.0,6197520.0],[5554530.0,6197520.0],[5554530.0,6197280.0],[5554500.0,6197280.0],[5554500.0,6197130.0],[5554470.0,6197130.0],[5554470.0,6197040.0],[5554440.0,6197040.0],[5554440.0,6196920.0],[5554410.0,6196920.0],[5554410.0,6196830.0],[5554380.0,6196830.0],[5554380.0,6196770.0],[5554350.0,6196770.0],[5554350.0,6196710.0],[5554320.0,6196710.0],[5554320.0,6196680.0],[5554290.0,6196680.0],[5554290.0,6196650.0],[5554260.0,6196650.0],[5554260.0,6196620.0],[5554230.0,6196620.0],[5554230.0,6196560.0],[5554200.0,6196560.0],[5554200.0,6196530.0],[5554170.0,6196530.0],[5554170.0,6196470.0],[5554140.0,6196470.0],[5554140.0,6196380.0],[5554110.0,6196380.0],[5554110.0,6196320.0],[5554080.0,6196320.0],[5554080.0,6196260.0],[5554050.0,6196260.0],[5554050.0,6196230.0],[5554020.0,6196230.0],[5554020.0,6196170.0],[5553990.0,6196170.0],[5553990.0,6196140.0],[5553960.0,6196140.0],[5553960.0,6196110.0],[5553930.0,6196110.0],[5553930.0,6196080.0],[5553870.0,6196080.0],[5553870.0,6196050.0],[5553840.0,6196050.0],[5553840.0,6196020.0],[5553750.0,6196020.0],[5553750.0,6195990.0],[5553690.0,6195990.0],[5553690.0,6195960.0],[5553930.0,6195960.0],[5553930.0,6195930.0],[5553990.0,6195930.0],[5553990.0,6195960.0],[5554020.0,6195960.0],[5554020.0,6196020.0],[5554050.0,6196020.0],[5554050.0,6196050.0],[5554080.0,6196050.0],[5554080.0,6196110.0],[5554110.0,6196110.0],[5554110.0,6196140.0],[5554140.0,6196140.0],[5554140.0,6196200.0],[5554170.0,6196200.0],[5554170.0,6196260.0],[5554200.0,6196260.0],[5554200.0,6196350.0],[5554230.0,6196350.0],[5554230.0,6196410.0],[5554260.0,6196410.0],[5554260.0,6196470.0],[5554290.0,6196470.0],[5554290.0,6196500.0],[5554320.0,6196500.0],[5554320.0,6196560.0],[5554350.0,6196560.0],[5554350.0,6196590.0],[5554380.0,6196590.0],[5554380.0,6196620.0],[5554410.0,6196620.0],[5554410.0,6196650.0],[5554440.0,6196650.0],[5554440.0,6196710.0],[5554470.0,6196710.0],[5554470.0,6196770.0],[5554500.0,6196770.0],[5554500.0,6196830.0],[5554530.0,6196830.0],[5554530.0,6196920.0],[5554560.0,6196920.0],[5554560.0,6197040.0],[5554590.0,6197040.0],[5554590.0,6197130.0],[5554620.0,6197130.0],[5554620.0,6197250.0],[5554650.0,6197250.0],[5554650.0,6197280.0],[5554680.0,6197280.0],[5554680.0,6197310.0],[5554710.0,6197310.0],[5554710.0,6197340.0],[5554650.0,6197340.0],[5554650.0,6197400.0],[5554680.0,6197400.0],[5554680.0,6197490.0],[5554710.0,6197490.0],[5554710.0,6197610.0],[5554740.0,6197610.0],[5554740.0,6197670.0],[5554770.0,6197670.0],[5554770.0,6197760.0],[5554800.0,6197760.0],[5554800.0,6197820.0],[5554830.0,6197820.0],[5554830.0,6197850.0],[5554860.0,6197850.0],[5554860.0,6197880.0],[5554920.0,6197880.0],[5554920.0,6197910.0],[5554950.0,6197910.0],[5554950.0,6197940.0],[5555010.0,6197940.0],[5555010.0,6197970.0],[5555130.0,6197970.0],[5555130.0,6198000.0],[5555220.0,6198000.0],[5555220.0,6198030.0],[5555310.0,6198030.0],[5555310.0,6197490.0],[5555280.0,6197490.0],[5555280.0,6197460.0],[5555310.0,6197460.0],[5555310.0,6196830.0],[5555280.0,6196830.0],[5555280.0,6196560.0],[5555250.0,6196560.0],[5555250.0,6196500.0],[5555220.0,6196500.0],[5555220.0,6196380.0],[5555190.0,6196380.0],[5555190.0,6196320.0],[5555160.0,6196320.0],[5555160.0,6196290.0],[5555130.0,6196290.0],[5555130.0,6196140.0],[5555100.0,6196140.0],[5555100.0,6196080.0],[5555130.0,6196080.0],[5555130.0,6195840.0],[5555100.0,6195840.0],[5555100.0,6195780.0],[5555070.0,6195780.0],[5555070.0,6195750.0],[5555040.0,6195750.0],[5555040.0,6195720.0],[5555010.0,6195720.0],[5555010.0,6195690.0],[5554980.0,6195690.0],[5554980.0,6195510.0],[5554950.0,6195510.0],[5554950.0,6195480.0],[5554920.0,6195480.0],[5554920.0,6195420.0],[5554890.0,6195420.0],[5554890.0,6195360.0],[5554860.0,6195360.0],[5554860.0,6195330.0],[5554830.0,6195330.0],[5554830.0,6195300.0],[5554770.0,6195300.0],[5554770.0,6195240.0],[5554740.0,6195240.0],[5554740.0,6195210.0],[5554710.0,6195210.0],[5554710.0,6195300.0],[5554680.0,6195300.0],[5554680.0,6195330.0],[5554650.0,6195330.0],[5554650.0,6195300.0],[5554620.0,6195300.0],[5554620.0,6195270.0],[5554560.0,6195270.0],[5554560.0,6195240.0],[5554500.0,6195240.0],[5554500.0,6195180.0],[5554470.0,6195180.0],[5554470.0,6195120.0],[5554440.0,6195120.0],[5554440.0,6195060.0],[5554410.0,6195060.0],[5554410.0,6195000.0],[5554380.0,6195000.0],[5554380.0,6194940.0],[5554350.0,6194940.0],[5554350.0,6194880.0],[5554320.0,6194880.0],[5554320.0,6194850.0],[5554290.0,6194850.0],[5554290.0,6194790.0],[5554260.0,6194790.0],[5554260.0,6194730.0],[5554230.0,6194730.0],[5554230.0,6194670.0],[5554200.0,6194670.0],[5554200.0,6194640.0],[5554170.0,6194640.0],[5554170.0,6194580.0],[5554140.0,6194580.0],[5554140.0,6194550.0],[5554110.0,6194550.0],[5554110.0,6194520.0],[5554080.0,6194520.0],[5554080.0,6194490.0],[5554050.0,6194490.0],[5554050.0,6194460.0],[5554020.0,6194460.0],[5554020.0,6194430.0],[5553990.0,6194430.0],[5553990.0,6194400.0],[5553960.0,6194400.0],[5553960.0,6194370.0],[5553930.0,6194370.0],[5553930.0,6194340.0],[5553900.0,6194340.0],[5553900.0,6194310.0],[5553870.0,6194310.0],[5553870.0,6194280.0],[5553840.0,6194280.0],[5553840.0,6194220.0],[5553810.0,6194220.0],[5553810.0,6194190.0],[5553780.0,6194190.0],[5553780.0,6194160.0],[5553870.0,6194160.0],[5553870.0,6194040.0],[5553840.0,6194040.0],[5553840.0,6194010.0],[5553660.0,6194010.0],[5553660.0,6193980.0],[5553600.0,6193980.0],[5553600.0,6193950.0],[5553570.0,6193950.0],[5553570.0,6193920.0],[5553540.0,6193920.0],[5553540.0,6193890.0],[5553510.0,6193890.0],[5553510.0,6193860.0],[5553480.0,6193860.0],[5553480.0,6193830.0],[5553420.0,6193830.0],[5553420.0,6193800.0],[5553360.0,6193800.0],[5553360.0,6193770.0],[5553330.0,6193770.0],[5553330.0,6193740.0],[5553300.0,6193740.0],[5553300.0,6193710.0],[5553240.0,6193710.0],[5553240.0,6193680.0],[5553210.0,6193680.0],[5553210.0,6193650.0],[5553150.0,6193650.0],[5553150.0,6193620.0],[5553090.0,6193620.0],[5553090.0,6193650.0],[5553030.0,6193650.0],[5553030.0,6193680.0],[5553000.0,6193680.0],[5553000.0,6193710.0],[5552970.0,6193710.0],[5552970.0,6193740.0],[5552940.0,6193740.0],[5552940.0,6193770.0],[5552880.0,6193770.0],[5552880.0,6193800.0],[5552850.0,6193800.0],[5552850.0,6193830.0],[5552820.0,6193830.0],[5552820.0,6193860.0],[5552790.0,6193860.0],[5552790.0,6193920.0],[5552760.0,6193920.0],[5552760.0,6193950.0],[5552730.0,6193950.0],[5552730.0,6194010.0],[5552700.0,6194010.0],[5552700.0,6194040.0],[5552670.0,6194040.0],[5552670.0,6194070.0],[5552610.0,6194070.0],[5552610.0,6194100.0],[5552580.0,6194100.0],[5552580.0,6194130.0],[5552550.0,6194130.0],[5552550.0,6194160.0],[5552520.0,6194160.0],[5552520.0,6194190.0],[5552460.0,6194190.0],[5552460.0,6194220.0],[5552430.0,6194220.0],[5552430.0,6194250.0],[5552370.0,6194250.0],[5552370.0,6194280.0],[5552310.0,6194280.0],[5552310.0,6194310.0],[5552250.0,6194310.0],[5552250.0,6194340.0],[5552190.0,6194340.0],[5552190.0,6194370.0],[5552160.0,6194370.0],[5552160.0,6194400.0],[5552100.0,6194400.0],[5552100.0,6194430.0],[5552070.0,6194430.0],[5552070.0,6194460.0],[5552010.0,6194460.0],[5552010.0,6194490.0],[5551980.0,6194490.0],[5551980.0,6194520.0],[5551920.0,6194520.0],[5551920.0,6194550.0],[5551890.0,6194550.0],[5551890.0,6194580.0],[5551860.0,6194580.0],[5551860.0,6194700.0],[5551830.0,6194700.0],[5551830.0,6194760.0],[5551800.0,6194760.0],[5551800.0,6194880.0],[5551770.0,6194880.0],[5551770.0,6194970.0],[5551740.0,6194970.0],[5551740.0,6195000.0],[5551710.0,6195000.0],[5551710.0,6194820.0],[5551740.0,6194820.0],[5551740.0,6194730.0],[5551770.0,6194730.0],[5551770.0,6194670.0],[5551800.0,6194670.0],[5551800.0,6194520.0],[5551710.0,6194520.0],[5551710.0,6194490.0],[5551800.0,6194490.0],[5551800.0,6194460.0],[5551860.0,6194460.0],[5551860.0,6194430.0],[5551890.0,6194430.0],[5551890.0,6194400.0],[5551950.0,6194400.0],[5551950.0,6194370.0],[5552010.0,6194370.0],[5552010.0,6194340.0],[5552040.0,6194340.0],[5552040.0,6194310.0],[5552100.0,6194310.0],[5552100.0,6194280.0],[5552130.0,6194280.0],[5552130.0,6194250.0],[5552190.0,6194250.0],[5552190.0,6194220.0],[5552250.0,6194220.0],[5552250.0,6194190.0],[5552310.0,6194190.0],[5552310.0,6194160.0],[5552370.0,6194160.0],[5552370.0,6194130.0],[5552400.0,6194130.0],[5552400.0,6194100.0],[5552460.0,6194100.0],[5552460.0,6194040.0],[5552490.0,6194040.0],[5552490.0,6194010.0],[5552550.0,6194010.0],[5552550.0,6193980.0],[5552580.0,6193980.0],[5552580.0,6193950.0],[5552610.0,6193950.0],[5552610.0,6193890.0],[5552640.0,6193890.0],[5552640.0,6193860.0],[5552670.0,6193860.0],[5552670.0,6193830.0],[5552700.0,6193830.0],[5552700.0,6193800.0],[5552730.0,6193800.0],[5552730.0,6193770.0],[5552760.0,6193770.0],[5552760.0,6193740.0],[5552790.0,6193740.0],[5552790.0,6193710.0],[5552850.0,6193710.0],[5552850.0,6193650.0],[5552910.0,6193650.0],[5552910.0,6193620.0],[5552940.0,6193620.0],[5552940.0,6193590.0],[5552970.0,6193590.0],[5552970.0,6193530.0],[5553000.0,6193530.0],[5553000.0,6193470.0],[5552970.0,6193470.0],[5552970.0,6193440.0],[5552940.0,6193440.0],[5552940.0,6193380.0],[5552910.0,6193380.0],[5552910.0,6193350.0],[5552880.0,6193350.0],[5552880.0,6193320.0],[5552850.0,6193320.0],[5552850.0,6193290.0],[5552820.0,6193290.0],[5552820.0,6193260.0],[5552790.0,6193260.0],[5552790.0,6193230.0],[5552760.0,6193230.0],[5552760.0,6193200.0],[5552730.0,6193200.0],[5552730.0,6193170.0],[5552700.0,6193170.0],[5552700.0,6193110.0],[5552670.0,6193110.0],[5552670.0,6193080.0],[5552640.0,6193080.0],[5552640.0,6193050.0],[5552610.0,6193050.0],[5552610.0,6193020.0],[5552580.0,6193020.0],[5552580.0,6192990.0],[5552520.0,6192990.0],[5552520.0,6192960.0],[5552490.0,6192960.0],[5552490.0,6192930.0],[5552460.0,6192930.0],[5552460.0,6192900.0],[5552430.0,6192900.0],[5552430.0,6192870.0],[5552370.0,6192870.0],[5552370.0,6192840.0],[5552310.0,6192840.0],[5552310.0,6192810.0],[5552250.0,6192810.0],[5552250.0,6192780.0],[5552190.0,6192780.0],[5552190.0,6192750.0],[5552100.0,6192750.0],[5552100.0,6192720.0],[5552010.0,6192720.0],[5552010.0,6192750.0],[5551620.0,6192750.0],[5551620.0,6192720.0],[5551350.0,6192720.0],[5551350.0,6192750.0],[5551170.0,6192750.0],[5551170.0,6192720.0],[5551140.0,6192720.0],[5551140.0,6192750.0],[5550840.0,6192750.0],[5550840.0,6192780.0],[5550810.0,6192780.0],[5550810.0,6192840.0],[5550780.0,6192840.0],[5550780.0,6192900.0],[5550750.0,6192900.0],[5550750.0,6193110.0],[5550720.0,6193110.0],[5550720.0,6193260.0],[5550690.0,6193260.0],[5550690.0,6193500.0],[5550720.0,6193500.0],[5550720.0,6193530.0],[5550690.0,6193530.0],[5550690.0,6193620.0],[5550720.0,6193620.0],[5550720.0,6193980.0],[5550690.0,6193980.0],[5550690.0,6193920.0],[5550660.0,6193920.0],[5550660.0,6193740.0],[5550630.0,6193740.0],[5550630.0,6193590.0],[5550600.0,6193590.0],[5550600.0,6193470.0],[5550630.0,6193470.0],[5550630.0,6193110.0],[5550660.0,6193110.0],[5550660.0,6192840.0],[5550690.0,6192840.0],[5550690.0,6192660.0],[5550660.0,6192660.0],[5550660.0,6192630.0],[5550630.0,6192630.0],[5550630.0,6192600.0],[5550540.0,6192600.0],[5550540.0,6192570.0],[5550510.0,6192570.0],[5550510.0,6192540.0],[5550450.0,6192540.0],[5550450.0,6192480.0],[5550480.0,6192480.0],[5550480.0,6192450.0],[5550450.0,6192450.0],[5550450.0,6192420.0],[5550390.0,6192420.0],[5550390.0,6192450.0],[5550210.0,6192450.0],[5550210.0,6192420.0],[5549880.0,6192420.0],[5549880.0,6192450.0],[5549700.0,6192450.0],[5549700.0,6192420.0],[5549580.0,6192420.0],[5549580.0,6192390.0],[5549490.0,6192390.0],[5549490.0,6192360.0],[5549430.0,6192360.0],[5549430.0,6192330.0],[5549400.0,6192330.0],[5549400.0,6192300.0],[5549370.0,6192300.0],[5549370.0,6192270.0],[5549310.0,6192270.0],[5549310.0,6192240.0],[5549280.0,6192240.0],[5549280.0,6192210.0],[5549250.0,6192210.0],[5549250.0,6192180.0],[5549220.0,6192180.0],[5549220.0,6192150.0],[5549190.0,6192150.0],[5549190.0,6192120.0],[5549160.0,6192120.0],[5549160.0,6192090.0],[5549130.0,6192090.0],[5549130.0,6192030.0],[5549100.0,6192030.0],[5549100.0,6192000.0],[5549070.0,6192000.0],[5549070.0,6191970.0],[5549040.0,6191970.0],[5549040.0,6191940.0],[5549010.0,6191940.0],[5549010.0,6191910.0],[5548980.0,6191910.0],[5548980.0,6191880.0],[5549010.0,6191880.0],[5549010.0,6191850.0],[5548980.0,6191850.0],[5548980.0,6191790.0],[5548950.0,6191790.0],[5548950.0,6191430.0],[5548920.0,6191430.0],[5548920.0,6191310.0],[5548950.0,6191310.0],[5548950.0,6191280.0],[5548980.0,6191280.0],[5548980.0,6191340.0],[5549010.0,6191340.0],[5549010.0,6191370.0],[5549040.0,6191370.0],[5549040.0,6191460.0],[5549070.0,6191460.0],[5549070.0,6191490.0],[5549040.0,6191490.0],[5549040.0,6191730.0],[5549070.0,6191730.0],[5549070.0,6191790.0],[5549100.0,6191790.0],[5549100.0,6191850.0],[5549130.0,6191850.0],[5549130.0,6191880.0],[5549160.0,6191880.0],[5549160.0,6191910.0],[5549190.0,6191910.0],[5549190.0,6191940.0],[5549220.0,6191940.0],[5549220.0,6192000.0],[5549250.0,6192000.0],[5549250.0,6192030.0],[5549280.0,6192030.0],[5549280.0,6192060.0],[5549310.0,6192060.0],[5549310.0,6192090.0],[5549340.0,6192090.0],[5549340.0,6192120.0],[5549370.0,6192120.0],[5549370.0,6192150.0],[5549430.0,6192150.0],[5549430.0,6192210.0],[5549490.0,6192210.0],[5549490.0,6192240.0],[5549520.0,6192240.0],[5549520.0,6192270.0],[5549610.0,6192270.0],[5549610.0,6192300.0],[5549670.0,6192300.0],[5549670.0,6192330.0],[5550150.0,6192330.0],[5550150.0,6192360.0],[5550180.0,6192360.0],[5550180.0,6192330.0],[5550210.0,6192330.0],[5550210.0,6192300.0],[5550270.0,6192300.0],[5550270.0,6192330.0],[5550540.0,6192330.0],[5550540.0,6192300.0],[5550630.0,6192300.0],[5550630.0,6192420.0],[5550690.0,6192420.0],[5550690.0,6192450.0],[5550720.0,6192450.0],[5550720.0,6192480.0],[5550750.0,6192480.0],[5550750.0,6192510.0],[5550780.0,6192510.0],[5550780.0,6192540.0],[5550840.0,6192540.0],[5550840.0,6192570.0],[5550900.0,6192570.0],[5550900.0,6192600.0],[5551650.0,6192600.0],[5551650.0,6192630.0],[5551860.0,6192630.0],[5551860.0,6192600.0],[5551920.0,6192600.0],[5551920.0,6192570.0],[5551980.0,6192570.0],[5551980.0,6192540.0],[5552010.0,6192540.0],[5552010.0,6192480.0],[5552040.0,6192480.0],[5552040.0,6192360.0],[5552010.0,6192360.0],[5552010.0,6192240.0],[5551980.0,6192240.0],[5551980.0,6192150.0],[5551950.0,6192150.0],[5551950.0,6192120.0],[5551920.0,6192120.0],[5551920.0,6192090.0],[5551890.0,6192090.0],[5551890.0,6192060.0],[5551860.0,6192060.0],[5551860.0,6192030.0],[5551830.0,6192030.0],[5551830.0,6192000.0],[5551800.0,6192000.0],[5551800.0,6191970.0],[5551770.0,6191970.0],[5551770.0,6191940.0],[5551740.0,6191940.0],[5551740.0,6191910.0],[5551710.0,6191910.0],[5551710.0,6191880.0],[5551680.0,6191880.0],[5551680.0,6191820.0],[5551650.0,6191820.0],[5551650.0,6191790.0],[5551620.0,6191790.0],[5551620.0,6191730.0],[5551590.0,6191730.0],[5551590.0,6191700.0],[5551560.0,6191700.0],[5551560.0,6191670.0],[5551530.0,6191670.0],[5551530.0,6191640.0],[5551500.0,6191640.0],[5551500.0,6191610.0],[5551560.0,6191610.0],[5551560.0,6191580.0],[5551590.0,6191580.0],[5551590.0,6191610.0],[5551620.0,6191610.0],[5551620.0,6191490.0],[5551590.0,6191490.0],[5551590.0,6191370.0],[5551560.0,6191370.0],[5551560.0,6191400.0],[5551530.0,6191400.0],[5551530.0,6191430.0],[5551500.0,6191430.0],[5551500.0,6191400.0],[5551470.0,6191400.0],[5551470.0,6191370.0],[5551440.0,6191370.0],[5551440.0,6191310.0],[5551410.0,6191310.0],[5551410.0,6191250.0],[5551380.0,6191250.0],[5551380.0,6191220.0],[5551350.0,6191220.0],[5551350.0,6191130.0],[5551320.0,6191130.0],[5551320.0,6191010.0],[5551290.0,6191010.0],[5551290.0,6190920.0],[5551260.0,6190920.0],[5551260.0,6190740.0],[5551230.0,6190740.0],[5551230.0,6190560.0],[5551200.0,6190560.0],[5551200.0,6190530.0],[5551170.0,6190530.0],[5551170.0,6190500.0],[5551110.0,6190500.0],[5551110.0,6190470.0],[5551080.0,6190470.0],[5551080.0,6190440.0],[5551050.0,6190440.0],[5551050.0,6190410.0],[5551020.0,6190410.0],[5551020.0,6190350.0],[5550990.0,6190350.0],[5550990.0,6190290.0],[5550960.0,6190290.0],[5550960.0,6190260.0],[5550930.0,6190260.0],[5550930.0,6190230.0],[5550870.0,6190230.0],[5550870.0,6190200.0],[5550840.0,6190200.0],[5550840.0,6190170.0],[5550810.0,6190170.0],[5550810.0,6190140.0],[5550780.0,6190140.0],[5550780.0,6190110.0],[5550750.0,6190110.0],[5550750.0,6190080.0],[5550720.0,6190080.0],[5550720.0,6189930.0],[5550690.0,6189930.0],[5550690.0,6189870.0],[5550660.0,6189870.0],[5550660.0,6189780.0],[5550630.0,6189780.0],[5550630.0,6189750.0],[5550570.0,6189750.0],[5550570.0,6189720.0],[5550540.0,6189720.0],[5550540.0,6189660.0],[5550510.0,6189660.0],[5550510.0,6189630.0],[5550480.0,6189630.0],[5550480.0,6189600.0],[5550450.0,6189600.0],[5550450.0,6189570.0],[5550420.0,6189570.0],[5550420.0,6189540.0],[5550390.0,6189540.0],[5550390.0,6189480.0],[5550360.0,6189480.0],[5550360.0,6189420.0],[5550330.0,6189420.0],[5550330.0,6189360.0],[5550300.0,6189360.0],[5550300.0,6189330.0],[5550270.0,6189330.0],[5550270.0,6189300.0],[5550240.0,6189300.0],[5550240.0,6189270.0],[5550180.0,6189270.0],[5550180.0,6189240.0],[5550150.0,6189240.0],[5550150.0,6189210.0],[5550120.0,6189210.0],[5550120.0,6189180.0],[5550060.0,6189180.0],[5550060.0,6189150.0],[5550030.0,6189150.0],[5550030.0,6189120.0],[5549880.0,6189120.0],[5549880.0,6189150.0],[5549790.0,6189150.0],[5549790.0,6189180.0],[5549760.0,6189180.0],[5549760.0,6189210.0],[5549700.0,6189210.0],[5549700.0,6189240.0],[5549640.0,6189240.0],[5549640.0,6189270.0],[5549580.0,6189270.0],[5549580.0,6189300.0],[5549520.0,6189300.0],[5549520.0,6189330.0],[5549490.0,6189330.0],[5549490.0,6189360.0],[5549460.0,6189360.0],[5549460.0,6189390.0],[5549430.0,6189390.0],[5549430.0,6189420.0],[5549400.0,6189420.0],[5549400.0,6189540.0],[5549370.0,6189540.0],[5549370.0,6189420.0],[5549340.0,6189420.0],[5549340.0,6189450.0],[5549220.0,6189450.0],[5549220.0,6189480.0],[5549160.0,6189480.0],[5549160.0,6189510.0],[5549130.0,6189510.0],[5549130.0,6189540.0],[5549100.0,6189540.0],[5549100.0,6189570.0],[5549070.0,6189570.0],[5549070.0,6189600.0],[5549040.0,6189600.0],[5549040.0,6189630.0],[5549010.0,6189630.0],[5549010.0,6189660.0],[5548980.0,6189660.0],[5548980.0,6189690.0],[5548950.0,6189690.0],[5548950.0,6189630.0],[5548920.0,6189630.0],[5548920.0,6189720.0],[5548890.0,6189720.0],[5548890.0,6189750.0],[5548860.0,6189750.0],[5548860.0,6189780.0],[5548830.0,6189780.0],[5548830.0,6189810.0],[5548800.0,6189810.0],[5548800.0,6189930.0],[5548770.0,6189930.0],[5548770.0,6189990.0],[5548740.0,6189990.0],[5548740.0,6190020.0],[5548710.0,6190020.0],[5548710.0,6190050.0],[5548650.0,6190050.0],[5548650.0,6190080.0],[5548620.0,6190080.0],[5548620.0,6190110.0],[5548440.0,6190110.0],[5548440.0,6190050.0],[5548470.0,6190050.0],[5548470.0,6190020.0],[5548590.0,6190020.0],[5548590.0,6189990.0],[5548620.0,6189990.0],[5548620.0,6189960.0],[5548710.0,6189960.0],[5548710.0,6189930.0],[5548680.0,6189930.0],[5548680.0,6189900.0],[5548710.0,6189900.0],[5548710.0,6189840.0],[5548740.0,6189840.0],[5548740.0,6189780.0],[5548770.0,6189780.0],[5548770.0,6189720.0],[5548800.0,6189720.0],[5548800.0,6189660.0],[5548830.0,6189660.0],[5548830.0,6189600.0],[5548860.0,6189600.0],[5548860.0,6189570.0],[5548950.0,6189570.0],[5548950.0,6189540.0],[5548980.0,6189540.0],[5548980.0,6189480.0],[5549040.0,6189480.0],[5549040.0,6189450.0],[5549070.0,6189450.0],[5549070.0,6189420.0],[5549160.0,6189420.0],[5549160.0,6189390.0],[5549220.0,6189390.0],[5549220.0,6189360.0],[5549310.0,6189360.0],[5549310.0,6189330.0],[5549370.0,6189330.0],[5549370.0,6189300.0],[5549400.0,6189300.0],[5549400.0,6189240.0],[5549430.0,6189240.0],[5549430.0,6189210.0],[5549460.0,6189210.0],[5549460.0,6189180.0],[5549490.0,6189180.0],[5549490.0,6189150.0],[5549460.0,6189150.0],[5549460.0,6189120.0],[5549430.0,6189120.0],[5549430.0,6189090.0],[5549400.0,6189090.0],[5549400.0,6189060.0],[5549310.0,6189060.0],[5549310.0,6189030.0],[5549220.0,6189030.0],[5549220.0,6189000.0],[5549190.0,6189000.0],[5549190.0,6188970.0],[5549130.0,6188970.0],[5549130.0,6189000.0],[5549100.0,6189000.0],[5549100.0,6188970.0],[5549040.0,6188970.0],[5549040.0,6188940.0],[5548980.0,6188940.0],[5548980.0,6188910.0],[5548950.0,6188910.0],[5548950.0,6188880.0],[5548860.0,6188880.0],[5548860.0,6188850.0],[5548800.0,6188850.0],[5548800.0,6188820.0],[5548770.0,6188820.0],[5548770.0,6188790.0],[5548740.0,6188790.0],[5548740.0,6188760.0],[5548710.0,6188760.0],[5548710.0,6188730.0],[5548680.0,6188730.0],[5548680.0,6188700.0],[5548650.0,6188700.0],[5548650.0,6188670.0],[5548620.0,6188670.0],[5548620.0,6188640.0],[5548590.0,6188640.0],[5548590.0,6188610.0],[5548500.0,6188610.0],[5548500.0,6188580.0],[5548620.0,6188580.0],[5548620.0,6188610.0],[5548680.0,6188610.0],[5548680.0,6188670.0],[5548770.0,6188670.0],[5548770.0,6188730.0],[5548830.0,6188730.0],[5548830.0,6188760.0],[5548890.0,6188760.0],[5548890.0,6188790.0],[5548920.0,6188790.0],[5548920.0,6188820.0],[5548980.0,6188820.0],[5548980.0,6188850.0],[5549190.0,6188850.0],[5549190.0,6188880.0],[5549340.0,6188880.0],[5549340.0,6188910.0],[5549220.0,6188910.0],[5549220.0,6188970.0],[5549310.0,6188970.0],[5549310.0,6189000.0],[5549340.0,6189000.0],[5549340.0,6189030.0],[5549460.0,6189030.0],[5549460.0,6189060.0],[5549520.0,6189060.0],[5549520.0,6189090.0],[5549640.0,6189090.0],[5549640.0,6189060.0],[5549700.0,6189060.0],[5549700.0,6189030.0],[5549760.0,6189030.0],[5549760.0,6189000.0],[5549880.0,6189000.0],[5549880.0,6188970.0],[5549940.0,6188970.0],[5549940.0,6188940.0],[5549970.0,6188940.0],[5549970.0,6188880.0],[5550000.0,6188880.0],[5550000.0,6188730.0],[5550030.0,6188730.0],[5550030.0,6188580.0],[5550060.0,6188580.0],[5550060.0,6188550.0],[5550090.0,6188550.0],[5550090.0,6188610.0],[5550120.0,6188610.0],[5550120.0,6188760.0],[5550150.0,6188760.0],[5550150.0,6188850.0],[5550120.0,6188850.0],[5550120.0,6188970.0],[5550150.0,6188970.0],[5550150.0,6189030.0],[5550180.0,6189030.0],[5550180.0,6189000.0],[5550210.0,6189000.0],[5550210.0,6189030.0],[5550240.0,6189030.0],[5550240.0,6189060.0],[5550270.0,6189060.0],[5550270.0,6189090.0],[5550300.0,6189090.0],[5550300.0,6189120.0],[5550330.0,6189120.0],[5550330.0,6189180.0],[5550360.0,6189180.0],[5550360.0,6189210.0],[5550390.0,6189210.0],[5550390.0,6189240.0],[5550420.0,6189240.0],[5550420.0,6189270.0],[5550450.0,6189270.0],[5550450.0,6189300.0],[5550480.0,6189300.0],[5550480.0,6189330.0],[5550510.0,6189330.0],[5550510.0,6189360.0],[5550540.0,6189360.0],[5550540.0,6189420.0],[5550570.0,6189420.0],[5550570.0,6189450.0],[5550600.0,6189450.0],[5550600.0,6189510.0],[5550630.0,6189510.0],[5550630.0,6189570.0],[5550660.0,6189570.0],[5550660.0,6189600.0],[5550690.0,6189600.0],[5550690.0,6189720.0],[5550720.0,6189720.0],[5550720.0,6189690.0],[5550750.0,6189690.0],[5550750.0,6189750.0],[5550780.0,6189750.0],[5550780.0,6189780.0],[5550810.0,6189780.0],[5550810.0,6189840.0],[5550840.0,6189840.0],[5550840.0,6189960.0],[5550870.0,6189960.0],[5550870.0,6189990.0],[5550810.0,6189990.0],[5550810.0,6190050.0],[5550870.0,6190050.0],[5550870.0,6190110.0],[5550930.0,6190110.0],[5550930.0,6190080.0],[5550960.0,6190080.0],[5550960.0,6190110.0],[5551020.0,6190110.0],[5551020.0,6190140.0],[5551050.0,6190140.0],[5551050.0,6190170.0],[5551080.0,6190170.0],[5551080.0,6190200.0],[5551110.0,6190200.0],[5551110.0,6190230.0],[5551140.0,6190230.0],[5551140.0,6190260.0],[5551170.0,6190260.0],[5551170.0,6190290.0],[5551200.0,6190290.0],[5551200.0,6190380.0],[5551260.0,6190380.0],[5551260.0,6190440.0],[5551290.0,6190440.0],[5551290.0,6190530.0],[5551320.0,6190530.0],[5551320.0,6190620.0],[5551350.0,6190620.0],[5551350.0,6190740.0],[5551380.0,6190740.0],[5551380.0,6190770.0],[5551410.0,6190770.0],[5551410.0,6190890.0],[5551440.0,6190890.0],[5551440.0,6190920.0],[5551470.0,6190920.0],[5551470.0,6190980.0],[5551440.0,6190980.0],[5551440.0,6190950.0],[5551410.0,6190950.0],[5551410.0,6191010.0],[5551440.0,6191010.0],[5551440.0,6191040.0],[5551470.0,6191040.0],[5551470.0,6191070.0],[5551500.0,6191070.0],[5551500.0,6191100.0],[5551530.0,6191100.0],[5551530.0,6191130.0],[5551560.0,6191130.0],[5551560.0,6191160.0],[5551590.0,6191160.0],[5551590.0,6191250.0],[5551620.0,6191250.0],[5551620.0,6191310.0],[5551650.0,6191310.0],[5551650.0,6191340.0],[5551680.0,6191340.0],[5551680.0,6191430.0],[5551710.0,6191430.0],[5551710.0,6191490.0],[5551740.0,6191490.0],[5551740.0,6191670.0],[5551770.0,6191670.0],[5551770.0,6191730.0],[5551800.0,6191730.0],[5551800.0,6191760.0],[5551830.0,6191760.0],[5551830.0,6191790.0],[5551860.0,6191790.0],[5551860.0,6191820.0],[5551890.0,6191820.0],[5551890.0,6191850.0],[5551920.0,6191850.0],[5551920.0,6191880.0],[5551950.0,6191880.0],[5551950.0,6191910.0],[5551980.0,6191910.0],[5551980.0,6191940.0],[5552010.0,6191940.0],[5552010.0,6191970.0],[5552040.0,6191970.0],[5552040.0,6192000.0],[5552070.0,6192000.0],[5552070.0,6192060.0],[5552100.0,6192060.0],[5552100.0,6192270.0],[5552130.0,6192270.0],[5552130.0,6192360.0],[5552160.0,6192360.0],[5552160.0,6192480.0],[5552250.0,6192480.0],[5552250.0,6192510.0],[5552280.0,6192510.0],[5552280.0,6192540.0],[5552310.0,6192540.0],[5552310.0,6192570.0],[5552340.0,6192570.0],[5552340.0,6192600.0],[5552370.0,6192600.0],[5552370.0,6192630.0],[5552430.0,6192630.0],[5552430.0,6192660.0],[5552460.0,6192660.0],[5552460.0,6192690.0],[5552490.0,6192690.0],[5552490.0,6192720.0],[5552550.0,6192720.0],[5552550.0,6192750.0],[5552580.0,6192750.0],[5552580.0,6192780.0],[5552640.0,6192780.0],[5552640.0,6192810.0],[5552670.0,6192810.0],[5552670.0,6192780.0],[5552700.0,6192780.0],[5552700.0,6192720.0],[5552730.0,6192720.0],[5552730.0,6192690.0],[5552760.0,6192690.0],[5552760.0,6192630.0],[5552790.0,6192630.0],[5552790.0,6192570.0],[5552820.0,6192570.0],[5552820.0,6192480.0],[5552850.0,6192480.0],[5552850.0,6192270.0],[5552880.0,6192270.0],[5552880.0,6192150.0],[5552910.0,6192150.0],[5552910.0,6192060.0],[5552940.0,6192060.0],[5552940.0,6192000.0],[5552970.0,6192000.0],[5552970.0,6191910.0],[5553000.0,6191910.0],[5553000.0,6191820.0],[5553030.0,6191820.0],[5553030.0,6191760.0],[5553060.0,6191760.0],[5553060.0,6191700.0],[5553090.0,6191700.0],[5553090.0,6191520.0],[5553120.0,6191520.0],[5553120.0,6191250.0],[5553150.0,6191250.0],[5553150.0,6190950.0],[5553120.0,6190950.0],[5553120.0,6190560.0],[5553150.0,6190560.0],[5553150.0,6190440.0],[5553180.0,6190440.0],[5553180.0,6190410.0],[5553150.0,6190410.0],[5553150.0,6190260.0],[5553120.0,6190260.0],[5553120.0,6190080.0],[5553090.0,6190080.0],[5553090.0,6190050.0],[5553150.0,6190050.0],[5553150.0,6190080.0],[5553180.0,6190080.0],[5553180.0,6190170.0],[5553210.0,6190170.0],[5553210.0,6190320.0],[5553240.0,6190320.0],[5553240.0,6190440.0],[5553270.0,6190440.0],[5553270.0,6190830.0],[5553240.0,6190830.0],[5553240.0,6190950.0],[5553210.0,6190950.0],[5553210.0,6191130.0],[5553240.0,6191130.0],[5553240.0,6191160.0],[5553210.0,6191160.0],[5553210.0,6191520.0],[5553240.0,6191520.0],[5553240.0,6191550.0],[5553210.0,6191550.0],[5553210.0,6191640.0],[5553180.0,6191640.0],[5553180.0,6191730.0],[5553150.0,6191730.0],[5553150.0,6191820.0],[5553120.0,6191820.0],[5553120.0,6191910.0],[5553090.0,6191910.0],[5553090.0,6191970.0],[5553060.0,6191970.0],[5553060.0,6192030.0],[5553030.0,6192030.0],[5553030.0,6192090.0],[5553000.0,6192090.0],[5553000.0,6192240.0],[5552970.0,6192240.0],[5552970.0,6192450.0],[5552940.0,6192450.0],[5552940.0,6192600.0],[5552910.0,6192600.0],[5552910.0,6192690.0],[5552880.0,6192690.0],[5552880.0,6192780.0],[5552850.0,6192780.0],[5552850.0,6192900.0],[5552820.0,6192900.0],[5552820.0,6192930.0],[5552790.0,6192930.0],[5552790.0,6192990.0],[5552820.0,6192990.0],[5552820.0,6193050.0],[5552850.0,6193050.0],[5552850.0,6193080.0],[5552880.0,6193080.0],[5552880.0,6193110.0],[5552940.0,6193110.0],[5552940.0,6193140.0],[5552970.0,6193140.0],[5552970.0,6193170.0],[5553000.0,6193170.0],[5553000.0,6193200.0],[5553030.0,6193200.0],[5553030.0,6193260.0],[5553060.0,6193260.0],[5553060.0,6193290.0],[5553090.0,6193290.0],[5553090.0,6193320.0],[5553120.0,6193320.0],[5553120.0,6193350.0],[5553180.0,6193350.0],[5553180.0,6193380.0],[5553210.0,6193380.0],[5553210.0,6193410.0],[5553270.0,6193410.0],[5553270.0,6193440.0],[5553300.0,6193440.0],[5553300.0,6193470.0],[5553360.0,6193470.0],[5553360.0,6193500.0],[5553390.0,6193500.0],[5553390.0,6193530.0],[5553420.0,6193530.0],[5553420.0,6193560.0],[5553480.0,6193560.0],[5553480.0,6193590.0],[5553510.0,6193590.0],[5553510.0,6193620.0],[5553540.0,6193620.0],[5553540.0,6193650.0],[5553570.0,6193650.0],[5553570.0,6193680.0],[5553630.0,6193680.0],[5553630.0,6193740.0],[5553600.0,6193740.0],[5553600.0,6193770.0],[5553690.0,6193770.0],[5553690.0,6193800.0],[5553750.0,6193800.0],[5553750.0,6193830.0],[5553810.0,6193830.0],[5553810.0,6193860.0],[5553930.0,6193860.0],[5553930.0,6193830.0],[5553960.0,6193830.0],[5553960.0,6193770.0],[5553990.0,6193770.0],[5553990.0,6193740.0],[5554020.0,6193740.0],[5554020.0,6193680.0],[5554050.0,6193680.0],[5554050.0,6193650.0],[5554080.0,6193650.0],[5554080.0,6193590.0],[5554110.0,6193590.0],[5554110.0,6193530.0],[5554140.0,6193530.0],[5554140.0,6193500.0],[5554170.0,6193500.0],[5554170.0,6193440.0],[5554200.0,6193440.0],[5554200.0,6193410.0],[5554230.0,6193410.0],[5554230.0,6193380.0],[5554260.0,6193380.0],[5554260.0,6193320.0],[5554290.0,6193320.0],[5554290.0,6193290.0],[5554320.0,6193290.0],[5554320.0,6193260.0],[5554350.0,6193260.0],[5554350.0,6193200.0],[5554380.0,6193200.0],[5554380.0,6193170.0],[5554410.0,6193170.0],[5554410.0,6193140.0],[5554470.0,6193140.0],[5554470.0,6193080.0],[5554530.0,6193080.0],[5554530.0,6193050.0],[5554560.0,6193050.0],[5554560.0,6193020.0],[5554590.0,6193020.0],[5554590.0,6192960.0],[5554620.0,6192960.0],[5554620.0,6192900.0],[5554650.0,6192900.0],[5554650.0,6192810.0],[5554680.0,6192810.0],[5554680.0,6192690.0],[5554710.0,6192690.0],[5554710.0,6192660.0],[5554740.0,6192660.0],[5554740.0,6192720.0],[5554770.0,6192720.0],[5554770.0,6192750.0],[5554740.0,6192750.0],[5554740.0,6192780.0],[5554770.0,6192780.0],[5554770.0,6192810.0],[5554740.0,6192810.0],[5554740.0,6192900.0],[5554710.0,6192900.0],[5554710.0,6193050.0],[5554680.0,6193050.0],[5554680.0,6193110.0],[5554650.0,6193110.0],[5554650.0,6193170.0],[5554620.0,6193170.0],[5554620.0,6193200.0],[5554590.0,6193200.0],[5554590.0,6193140.0],[5554560.0,6193140.0],[5554560.0,6193170.0],[5554530.0,6193170.0],[5554530.0,6193200.0],[5554500.0,6193200.0],[5554500.0,6193230.0],[5554470.0,6193230.0],[5554470.0,6193290.0],[5554410.0,6193290.0],[5554410.0,6193350.0],[5554380.0,6193350.0],[5554380.0,6193380.0],[5554350.0,6193380.0],[5554350.0,6193410.0],[5554320.0,6193410.0],[5554320.0,6193470.0],[5554290.0,6193470.0],[5554290.0,6193530.0],[5554260.0,6193530.0],[5554260.0,6193560.0],[5554230.0,6193560.0],[5554230.0,6193590.0],[5554200.0,6193590.0],[5554200.0,6193620.0],[5554170.0,6193620.0],[5554170.0,6193680.0],[5554140.0,6193680.0],[5554140.0,6193740.0],[5554110.0,6193740.0],[5554110.0,6193770.0],[5554080.0,6193770.0],[5554080.0,6193860.0],[5554050.0,6193860.0],[5554050.0,6193920.0],[5554080.0,6193920.0],[5554080.0,6194130.0],[5554110.0,6194130.0],[5554110.0,6194190.0],[5554140.0,6194190.0],[5554140.0,6194280.0],[5554170.0,6194280.0],[5554170.0,6194340.0],[5554200.0,6194340.0],[5554200.0,6194400.0],[5554230.0,6194400.0],[5554230.0,6194430.0],[5554260.0,6194430.0],[5554260.0,6194460.0],[5554290.0,6194460.0],[5554290.0,6194490.0],[5554320.0,6194490.0],[5554320.0,6194550.0],[5554350.0,6194550.0],[5554350.0,6194610.0],[5554380.0,6194610.0],[5554380.0,6194670.0],[5554410.0,6194670.0],[5554410.0,6194760.0],[5554440.0,6194760.0],[5554440.0,6194790.0],[5554470.0,6194790.0],[5554470.0,6194820.0],[5554500.0,6194820.0],[5554500.0,6194850.0],[5554530.0,6194850.0],[5554530.0,6194880.0],[5554590.0,6194880.0],[5554590.0,6194910.0],[5554620.0,6194910.0],[5554620.0,6194940.0],[5554710.0,6194940.0],[5554710.0,6194970.0],[5554770.0,6194970.0],[5554770.0,6195000.0],[5554800.0,6195000.0],[5554800.0,6195030.0],[5554860.0,6195030.0],[5554860.0,6195060.0],[5554890.0,6195060.0],[5554890.0,6195090.0],[5554920.0,6195090.0],[5554920.0,6195120.0],[5554950.0,6195120.0],[5554950.0,6195150.0],[5554980.0,6195150.0],[5554980.0,6195210.0],[5555010.0,6195210.0],[5555010.0,6195240.0],[5555040.0,6195240.0],[5555040.0,6195270.0],[5555070.0,6195270.0],[5555070.0,6195300.0],[5555100.0,6195300.0],[5555100.0,6195330.0],[5555130.0,6195330.0],[5555130.0,6195360.0],[5555190.0,6195360.0],[5555190.0,6195390.0],[5555220.0,6195390.0],[5555220.0,6195360.0],[5555250.0,6195360.0],[5555250.0,6195330.0],[5555310.0,6195330.0],[5555310.0,6195300.0],[5555340.0,6195300.0],[5555340.0,6195270.0],[5555400.0,6195270.0],[5555400.0,6195240.0],[5555430.0,6195240.0],[5555430.0,6195210.0],[5555460.0,6195210.0],[5555460.0,6195180.0],[5555490.0,6195180.0],[5555490.0,6195150.0],[5555520.0,6195150.0],[5555520.0,6195120.0],[5555580.0,6195120.0],[5555580.0,6195090.0],[5555610.0,6195090.0],[5555610.0,6195060.0],[5555670.0,6195060.0],[5555670.0,6195000.0],[5555700.0,6195000.0],[5555700.0,6194880.0],[5555670.0,6194880.0],[5555670.0,6194820.0],[5555700.0,6194820.0],[5555700.0,6194790.0],[5555730.0,6194790.0],[5555730.0,6194700.0],[5555760.0,6194700.0],[5555760.0,6194670.0],[5555820.0,6194670.0],[5555820.0,6194640.0],[5555850.0,6194640.0],[5555850.0,6194790.0],[5555820.0,6194790.0],[5555820.0,6194880.0],[5555790.0,6194880.0],[5555790.0,6194970.0],[5555760.0,6194970.0],[5555760.0,6195000.0],[5555730.0,6195000.0],[5555730.0,6195090.0],[5555700.0,6195090.0],[5555700.0,6195120.0],[5555670.0,6195120.0],[5555670.0,6195180.0],[5555610.0,6195180.0],[5555610.0,6195210.0],[5555580.0,6195210.0],[5555580.0,6195240.0],[5555550.0,6195240.0],[5555550.0,6195270.0],[5555520.0,6195270.0],[5555520.0,6195300.0],[5555460.0,6195300.0],[5555460.0,6195330.0],[5555430.0,6195330.0],[5555430.0,6195360.0],[5555370.0,6195360.0],[5555370.0,6195390.0],[5555310.0,6195390.0],[5555310.0,6195420.0],[5555280.0,6195420.0],[5555280.0,6195450.0],[5555250.0,6195450.0],[5555250.0,6195570.0],[5555280.0,6195570.0],[5555280.0,6195660.0],[5555310.0,6195660.0],[5555310.0,6195720.0],[5555340.0,6195720.0],[5555340.0,6195870.0],[5555310.0,6195870.0],[5555310.0,6196170.0],[5555340.0,6196170.0],[5555340.0,6196230.0],[5555370.0,6196230.0],[5555370.0,6196200.0],[5555400.0,6196200.0],[5555400.0,6196170.0],[5555430.0,6196170.0],[5555430.0,6196140.0],[5555490.0,6196140.0],[5555490.0,6196110.0],[5555550.0,6196110.0],[5555550.0,6196080.0],[5555640.0,6196080.0],[5555640.0,6196050.0],[5556150.0,6196050.0],[5556150.0,6196080.0],[5556330.0,6196080.0],[5556330.0,6196110.0],[5556540.0,6196110.0],[5556540.0,6196140.0],[5556510.0,6196140.0],[5556510.0,6196170.0],[5556300.0,6196170.0],[5556300.0,6196140.0],[5556090.0,6196140.0],[5556090.0,6196110.0],[5555940.0,6196110.0],[5555940.0,6196140.0],[5555760.0,6196140.0],[5555760.0,6196170.0],[5555670.0,6196170.0],[5555670.0,6196200.0],[5555640.0,6196200.0],[5555640.0,6196230.0],[5555610.0,6196230.0],[5555610.0,6196260.0],[5555550.0,6196260.0],[5555550.0,6196290.0],[5555520.0,6196290.0],[5555520.0,6196350.0],[5555460.0,6196350.0],[5555460.0,6196380.0],[5555430.0,6196380.0],[5555430.0,6196410.0],[5555400.0,6196410.0],[5555400.0,6196500.0],[5555430.0,6196500.0],[5555430.0,6196590.0],[5555460.0,6196590.0],[5555460.0,6196740.0],[5555490.0,6196740.0],[5555490.0,6196770.0],[5555580.0,6196770.0],[5555580.0,6196740.0],[5555670.0,6196740.0],[5555670.0,6196710.0],[5556090.0,6196710.0],[5556090.0,6196740.0],[5555910.0,6196740.0],[5555910.0,6196770.0],[5555670.0,6196770.0],[5555670.0,6196800.0],[5555610.0,6196800.0],[5555610.0,6196830.0],[5555520.0,6196830.0],[5555520.0,6196860.0],[5555460.0,6196860.0],[5555460.0,6196890.0],[5555490.0,6196890.0],[5555490.0,6196920.0],[5555460.0,6196920.0],[5555460.0,6197040.0],[5555490.0,6197040.0],[5555490.0,6197130.0],[5555460.0,6197130.0],[5555460.0,6197490.0],[5555430.0,6197490.0],[5555430.0,6197520.0],[5555460.0,6197520.0],[5555460.0,6197550.0],[5555430.0,6197550.0],[5555430.0,6197700.0],[5555460.0,6197700.0],[5555460.0,6197970.0],[5555430.0,6197970.0],[5555430.0,6198150.0],[5555460.0,6198150.0],[5555460.0,6198360.0],[5555340.0,6198360.0]],[[5554590.0,6197430.0],[5554650.0,6197430.0],[5554650.0,6197400.0],[5554590.0,6197400.0],[5554590.0,6197430.0]],[[5555220.0,6195900.0],[5555280.0,6195900.0],[5555280.0,6195840.0],[5555310.0,6195840.0],[5555310.0,6195780.0],[5555280.0,6195780.0],[5555280.0,6195750.0],[5555250.0,6195750.0],[5555250.0,6195870.0],[5555220.0,6195870.0],[5555220.0,6195900.0]],[[5555100.0,6195750.0],[5555130.0,6195750.0],[5555130.0,6195690.0],[5555070.0,6195690.0],[5555070.0,6195720.0],[5555100.0,6195720.0],[5555100.0,6195750.0]],[[5555220.0,6195750.0],[5555250.0,6195750.0],[5555250.0,6195720.0],[5555220.0,6195720.0],[5555220.0,6195750.0]],[[5555070.0,6195660.0],[5555130.0,6195660.0],[5555130.0,6195630.0],[5555160.0,6195630.0],[5555160.0,6195600.0],[5555070.0,6195600.0],[5555070.0,6195660.0]],[[5553960.0,6194310.0],[5554020.0,6194310.0],[5554020.0,6194250.0],[5553990.0,6194250.0],[5553990.0,6194220.0],[5553960.0,6194220.0],[5553960.0,6194130.0],[5553900.0,6194130.0],[5553900.0,6194160.0],[5553870.0,6194160.0],[5553870.0,6194220.0],[5553930.0,6194220.0],[5553930.0,6194250.0],[5553960.0,6194250.0],[5553960.0,6194310.0]],[[5550180.0,6192390.0],[5550210.0,6192390.0],[5550210.0,6192360.0],[5550180.0,6192360.0],[5550180.0,6192390.0]]]}}
]
}
