{
"type": "FeatureCollection",
"name": "flowpath_lote",
"crs": { "type": "name", "properties": { "name": "urn:ogc:def:crs:EPSG::5347" } },
"features": [
{"type":"Feature","properties":{"Name":"Camino de flujo desde el lote"},"geometry":{"type":"LineString","coordinates":[[5553225.0,6193425.0],[5553225.0,6193455.0],[5553225.0,6193485.0],[5553255.0,6193515.0],[5553285.0,6193545.0],[5553315.0,6193575.0],[5553345.0,6193575.0],[5553375.0,6193605.0],[5553405.0,6193635.0],[5553375.0,6193665.0],[5553405.0,6193695.0],[5553435.0,6193725.0],[5553465.0,6193725.0],[5553495.0,6193755.0],[5553525.0,6193785.0],[5553555.0,6193815.0],[5553585.0,6193845.0],[5553615.0,6193845.0],[5553645.0,6193875.0],[5553675.0,6193875.0],[5553675.0,6193905.0],[5553705.0,6193935.0],[5553735.0,6193935.0],[5553765.0,6193935.0],[5553795.0,6193965.0],[5553825.0,6193995.0],[5553855.0,6193995.0],[5553885.0,6194025.0],[5553915.0,6194055.0],[5553915.0,6194085.0],[5553945.0,6194115.0],[5553975.0,6194145.0],[5553975.0,6194175.0],[5554005.0,6194205.0],[5554035.0,6194235.0],[5554035.0,6194265.0],[5554035.0,6194295.0],[5554065.0,6194325.0],[5554095.0,6194355.0],[5554095.0,6194385.0],[5554095.0,6194415.0],[5554125.0,6194445.0],[5554155.0,6194445.0],[5554185.0,6194475.0],[5554215.0,6194505.0],[5554245.0,6194535.0],[5554275.0,6194565.0],[5554275.0,6194595.0],[5554275.0,6194625.0],[5554305.0,6194655.0],[5554335.0,6194685.0],[5554335.0,6194715.0],[5554365.0,6194745.0],[5554365.0,6194775.0],[5554365.0,6194805.0],[5554365.0,6194835.0],[5554395.0,6194865.0],[5554425.0,6194895.0],[5554455.0,6194925.0],[5554485.0,6194955.0],[5554515.0,6194985.0],[5554515.0,6195015.0],[5554545.0,6195045.0],[5554545.0,6195075.0],[5554545.0,6195105.0],[5554575.0,6195135.0],[5554605.0,6195135.0],[5554635.0,6195135.0],[5554665.0,6195135.0],[5554695.0,6195135.0],[5554725.0,6195135.0],[5554755.0,6195165.0],[5554785.0,6195195.0],[5554815.0,6195225.0],[5554845.0,6195255.0],[5554875.0,6195285.0],[5554905.0,6195315.0],[5554935.0,6195345.0],[5554965.0,6195375.0],[5554995.0,6195405.0],[5555025.0,6195435.0],[5555055.0,6195465.0],[5555085.0,6195495.0],[5555115.0,6195495.0],[5555145.0,6195495.0],[5555145.0,6195525.0],[5555145.0,6195555.0],[5555175.0,6195585.0],[5555205.0,6195615.0],[5555205.0,6195645.0],[5555205.0,6195675.0],[5555205.0,6195705.0],[5555175.0,6195735.0],[5555175.0,6195765.0],[5555175.0,6195795.0],[5555205.0,6195825.0],[5555205.0,6195855.0],[5555205.0,6195885.0],[5555205.0,6195915.0],[5555205.0,6195945.0],[5555205.0,6195975.0],[5555205.0,6196005.0],[5555205.0,6196035.0],[5555205.0,6196065.0],[5555205.0,6196095.0],[5555205.0,6196125.0],[5555235.0,6196155.0],[5555235.0,6196185.0],[5555235.0,6196215.0],[5555235.0,6196245.0],[5555235.0,6196275.0],[5555235.0,6196305.0],[5555235.0,6196335.0],[5555235.0,6196365.0],[5555265.0,6196395.0],[5555265.0,6196425.0],[5555265.0,6196455.0],[5555265.0,6196485.0],[5555295.0,6196515.0],[5555325.0,6196545.0],[5555355.0,6196575.0],[5555355.0,6196605.0],[5555355.0,6196635.0],[5555355.0,6196665.0],[5555355.0,6196695.0],[5555355.0,6196725.0],[5555385.0,6196755.0],[5555385.0,6196785.0],[5555385.0,6196815.0],[5555385.0,6196845.0],[5555385.0,6196875.0],[5555385.0,6196905.0],[5555385.0,6196935.0],[5555385.0,6196965.0],[5555385.0,6196995.0],[5555385.0,6197025.0],[5555415.0,6197055.0],[5555415.0,6197085.0],[5555415.0,6197115.0],[5555385.0,6197145.0],[5555385.0,6197175.0],[5555385.0,6197205.0],[5555385.0,6197235.0],[5555385.0,6197265.0],[5555385.0,6197295.0],[5555385.0,6197325.0],[5555385.0,6197355.0],[5555385.0,6197385.0],[5555385.0,6197415.0],[5555385.0,6197445.0],[5555385.0,6197475.0],[5555385.0,6197505.0],[5555385.0,6197535.0],[5555385.0,6197565.0],[5555385.0,6197595.0],[5555385.0,6197625.0],[5555385.0,6197655.0],[5555385.0,6197685.0],[5555385.0,6197715.0],[5555385.0,6197745.0],[5555385.0,6197775.0],[5555385.0,6197805.0],[5555385.0,6197835.0],[5555385.0,6197865.0],[5555385.0,6197895.0],[5555355.0,6197925.0],[5555355.0,6197955.0],[5555355.0,6197985.0],[5555355.0,6198015.0],[5555355.0,6198045.0],[5555355.0,6198075.0],[5555355.0,6198105.0],[5555355.0,6198135.0],[5555355.0,6198165.0],[5555355.0,6198195.0],[5555385.0,6198225.0],[5555385.0,6198255.0],[5555385.0,6198285.0],[5555415.0,6198315.0],[5555415.0,6198345.0],[5555415.0,6198375.0],[5555445.0,6198405.0],[5555445.0,6198435.0],[5555445.0,6198465.0],[5555445.0,6198495.0],[5555445.0,6198525.0],[5555445.0,6198555.0],[5555475.0,6198585.0],[5555475.0,6198615.0],[5555505.0,6198645.0],[5555505.0,6198675.0],[5555535.0,6198705.0],[5555535.0,6198735.0],[5555535.0,6198765.0],[5555535.0,6198795.0],[5555565.0,6198825.0],[5555595.0,6198855.0],[5555595.0,6198885.0],[5555595.0,6198915.0],[5555625.0,6198945.0],[5555625.0,6198975.0],[5555625.0,6199005.0],[5555655.0,6199035.0],[5555655.0,6199065.0],[5555655.0,6199095.0],[5555655.0,6199125.0],[5555655.0,6199155.0],[5555685.0,6199185.0],[5555715.0,6199215.0],[5555715.0,6199245.0],[5555715.0,6199275.0],[5555715.0,6199305.0],[5555715.0,6199335.0],[5555715.0,6199365.0],[5555715.0,6199395.0],[5555745.0,6199425.0],[5555775.0,6199455.0],[5555805.0,6199485.0],[5555835.0,6199515.0],[5555835.0,6199545.0],[5555865.0,6199575.0],[5555865.0,6199605.0],[5555865.0,6199635.0],[5555895.0,6199665.0],[5555895.0,6199695.0],[5555895.0,6199725.0],[5555925.0,6199755.0],[5555925.0,6199785.0],[5555925.0,6199815.0],[5555925.0,6199845.0],[5555955.0,6199875.0],[5555955.0,6199905.0],[5555985.0,6199935.0],[5556015.0,6199965.0],[5556015.0,6199995.0],[5556015.0,6200025.0],[5556045.0,6200055.0],[5556075.0,6200085.0],[5556075.0,6200115.0],[5556075.0,6200145.0],[5556105.0,6200175.0],[5556105.0,6200205.0],[5556105.0,6200235.0],[5556135.0,6200265.0],[5556135.0,6200295.0],[5556135.0,6200325.0],[5556165.0,6200355.0],[5556165.0,6200385.0],[5556195.0,6200415.0],[5556225.0,6200445.0],[5556255.0,6200475.0],[5556255.0,6200505.0],[5556255.0,6200535.0],[5556255.0,6200565.0],[5556255.0,6200595.0],[5556285.0,6200625.0],[5556285.0,6200655.0],[5556285.0,6200685.0],[5556315.0,6200715.0],[5556315.0,6200745.0],[5556345.0,6200775.0],[5556375.0,6200805.0],[5556405.0,6200835.0],[5556405.0,6200865.0],[5556405.0,6200895.0],[5556405.0,6200925.0],[5556405.0,6200955.0],[5556405.0,6200985.0],[5556405.0,6201015.0],[5556405.0,6201045.0],[5556405.0,6201075.0],[5556405.0,6201105.0],[5556405.0,6201135.0],[5556405.0,6201165.0],[5556435.0,6201195.0],[5556465.0,6201225.0],[5556435.0,6201255.0],[5556405.0,6201285.0],[5556405.0,6201315.0],[5556405.0,6201345.0],[5556405.0,6201375.0],[5556405.0,6201405.0],[5556405.0,6201435.0],[5556405.0,6201465.0],[5556405.0,6201495.0],[5556405.0,6201525.0],[5556435.0,6201525.0],[5556465.0,6201555.0],[5556495.0,6201555.0],[5556525.0,6201585.0],[5556525.0,6201615.0],[5556555.0,6201645.0],[5556585.0,6201675.0],[5556615.0,6201705.0],[5556645.0,6201735.0],[5556645.0,6201765.0],[5556645.0,6201795.0],[5556645.0,6201825.0],[5556675.0,6201855.0],[5556705.0,6201885.0],[5556735.0,6201915.0],[5556735.0,6201945.0],[5556735.0,6201975.0],[5556735.0,6202005.0],[5556735.0,6202035.0],[5556765.0,6202065.0],[5556765.0,6202095.0],[5556765.0,6202125.0],[5556765.0,6202155.0],[5556795.0,6202185.0],[5556825.0,6202215.0],[5556855.0,6202215.0],[5556855.0,6202245.0],[5556855.0,6202275.0],[5556855.0,6202305.0],[5556855.0,6202335.0],[5556855.0,6202365.0],[5556855.0,6202395.0],[5556855.0,6202425.0],[5556855.0,6202455.0],[5556855.0,6202485.0],[5556855.0,6202515.0],[5556855.0,6202545.0],[5556855.0,6202575.0],[5556855.0,6202605.0],[5556855.0,6202635.0],[5556855.0,6202665.0],[5556855.0,6202695.0],[5556885.0,6202725.0],[5556885.0,6202755.0],[5556885.0,6202785.0],[5556885.0,6202815.0],[5556885.0,6202845.0],[5556885.0,6202875.0],[5556915.0,6202905.0],[5556915.0,6202935.0],[5556915.0,6202965.0],[5556915.0,6202995.0],[5556915.0,6203025.0],[5556885.0,6203055.0],[5556885.0,6203085.0],[5556885.0,6203115.0],[5556885.0,6203145.0],[5556855.0,6203175.0],[5556825.0,6203205.0],[5556795.0,6203235.0],[5556765.0,6203265.0],[5556765.0,6203295.0],[5556765.0,6203325.0],[5556735.0,6203355.0],[5556705.0,6203385.0],[5556705.0,6203415.0],[5556705.0,6203445.0],[5556675.0,6203475.0],[5556675.0,6203505.0],[5556645.0,6203535.0],[5556645.0,6203565.0],[5556615.0,6203595.0],[5556585.0,6203625.0],[5556585.0,6203655.0],[5556555.0,6203685.0],[5556555.0,6203715.0],[5556525.0,6203745.0],[5556525.0,6203775.0],[5556495.0,6203805.0],[5556465.0,6203835.0],[5556465.0,6203865.0],[5556435.0,6203895.0],[5556435.0,6203925.0],[5556435.0,6203955.0]]}}
]
}
