<?xml version="1.0" encoding="utf-8" ?>
<kml xmlns="http://www.opengis.net/kml/2.2">
<Document id="root_doc">
<Folder><name>flowpath_lote</name>
  <Placemark id="flowpath_lote.1">
	<name>Camino de flujo desde el lote</name>
	<Style><LineStyle><color>ff0000ff</color></LineStyle><PolyStyle><fill>0</fill></PolyStyle></Style>
      <LineString><coordinates>-59.4211324035263,-34.403223636157 -59.421134266015,-34.4029532084094 -59.4211361284788,-34.4026827806497 -59.4208117322217,-34.4024108087236 -59.4204873380638,-34.4021388359466 -59.4201629460049,-34.4018668623186 -59.4198366894824,-34.4018653155855 -59.4195123005969,-34.4015933402522 -59.4191879138105,-34.4013213640681 -59.4195160357466,-34.4010524847558 -59.4191916510094,-34.4007805085787 -59.4188672683711,-34.4005085315509 -59.4185410171957,-34.4005069814159 -59.4182166377307,-34.4002350026829 -59.4178922603647,-34.3999630230992 -59.4175678850975,-34.3996910426647 -59.4172435119291,-34.3994190613796 -59.4169172650762,-34.3994175069576 -59.416592895081,-34.3991455239676 -59.4162666493275,-34.3991439678215 -59.4162685271846,-34.398873540127 -59.4159441613869,-34.3986015554357 -59.4156179177822,-34.3985999975812 -59.4152916742026,-34.3985984388569 -59.4149673126524,-34.3983264516068 -59.414642953201,-34.3980544635061 -59.4143167117953,-34.3980529022036 -59.413992355517,-34.3977809123984 -59.4136680013372,-34.3975089217428 -59.4136698874386,-34.3972384941015 -59.4133455363816,-34.3969665025991 -59.4130211874232,-34.3966945102463 -59.4130230755476,-34.3964240826003 -59.4126987297118,-34.3961520894009 -59.4123743859744,-34.3958800953512 -59.4123762761217,-34.3956096677006 -59.4123781662439,-34.3953392400379 -59.4120538266529,-34.3950672451453 -59.4117294891603,-34.3947952494024 -59.4117313813052,-34.3945248217351 -59.4117332734249,-34.3942543940557 -59.4114089400784,-34.3939823974701 -59.4110827146627,-34.3939808277063 -59.4107583844889,-34.3937088294166 -59.4104340564132,-34.3934368302768 -59.4101097304357,-34.3931648302869 -59.4097854065564,-34.3928928294469 -59.4097873048191,-34.39262240179 -59.4097892030564,-34.392351974121 -59.4094648833227,-34.3920799724385 -59.4091405656869,-34.3918079699061 -59.4091424659465,-34.3915375422326 -59.4088181514324,-34.3912655388539 -59.4088200526902,-34.3909951111722 -59.4088219539226,-34.3907246834784 -59.4088238551298,-34.3904542557725 -59.4084995457845,-34.3901822515553 -59.408175238537,-34.3899102464882 -59.4078509333873,-34.3896382405712 -59.4075266303354,-34.3893662338044 -59.4072023293813,-34.3890942261878 -59.4072042356806,-34.388823798489 -59.4068799378476,-34.3885517900264 -59.406881845145,-34.3882813623193 -59.406883752417,-34.3880109346002 -59.4065594587285,-34.3877389252956 -59.4062332578188,-34.3877373428527 -59.4059070569345,-34.3877357595403 -59.4055808560758,-34.3877341753583 -59.4052546552425,-34.3877325903069 -59.4049284544346,-34.387731004386 -59.4046041682149,-34.387458989964 -59.4042798840928,-34.3871869746923 -59.4039556020681,-34.3869149585711 -59.403631322141,-34.3866429416004 -59.4033070443113,-34.3863709237801 -59.4029827685791,-34.3860989051104 -59.4026584949443,-34.3858268855911 -59.4023342234068,-34.3855548652225 -59.4020099539667,-34.3852828440044 -59.4016856866239,-34.3850108219369 -59.4013614213784,-34.3847387990201 -59.4010371582301,-34.3844667752539 -59.4007109703393,-34.3844651782225 -59.4003847824742,-34.3844635803217 -59.4003867103626,-34.3841931527537 -59.4003886382253,-34.3839227251737 -59.4000643813687,-34.3836506988597 -59.3997401266092,-34.3833786716964 -59.3997420564919,-34.3831082441124 -59.3997439863489,-34.3828378165163 -59.3997459161802,-34.3825673889082 -59.400074025411,-34.3822985607987 -59.4000759541424,-34.3820281331504 -59.400077882848,-34.3817577054899 -59.3997536352482,-34.3814856783549 -59.3997555649509,-34.3812152506864 -59.3997574946278,-34.3809448230058 -59.3997594242791,-34.3806743953132 -59.3997613539046,-34.3804039676085 -59.3997632835045,-34.3801335398918 -59.3997652130786,-34.3798631121629 -59.3997671426269,-34.3795926844221 -59.3997690721496,-34.3793222566691 -59.3997710016466,-34.3790518289041 -59.3997729311178,-34.378781401127 -59.3994486958415,-34.3785093731833 -59.3994506263096,-34.3782389453982 -59.399452556752,-34.377968517601 -59.3994544871687,-34.3776980897917 -59.3994564175596,-34.3774276619704 -59.3994583479248,-34.3771572341371 -59.3994602782643,-34.3768868062916 -59.399462208578,-34.3766163784341 -59.3991379825559,-34.3763443496698 -59.3991399138664,-34.3760739218042 -59.3991418451512,-34.3758034939266 -59.3991437764102,-34.375533066037 -59.3988195555518,-34.3752610364359 -59.3984953367896,-34.3749890059859 -59.3981711201237,-34.374716974687 -59.3981730544241,-34.3744465467975 -59.3981749886987,-34.3741761188959 -59.3981769229475,-34.3739056909822 -59.3981788571705,-34.3736352630565 -59.3981807913678,-34.3733648351187 -59.3978565819096,-34.3730928029915 -59.3978585171033,-34.3728223750457 -59.3978604522712,-34.3725519470879 -59.3978623874133,-34.372281519118 -59.3978643225297,-34.372011091136 -59.3978662576202,-34.371740663142 -59.397868192685,-34.3714702351359 -59.3978701277239,-34.3711998071177 -59.3978720627371,-34.3709293790875 -59.3978739977245,-34.3706589510452 -59.3975497995618,-34.370386918106 -59.3975517355455,-34.3701164900558 -59.3975536715033,-34.3698460619934 -59.3978817374162,-34.3695772387554 -59.3978836722747,-34.3693068106527 -59.3978856071073,-34.3690363825381 -59.3978875419142,-34.3687659544113 -59.3978894766953,-34.3684955262725 -59.3978914114506,-34.3682250981216 -59.3978933461801,-34.3679546699586 -59.3978952808839,-34.3676842417836 -59.3978972155618,-34.3674138135965 -59.397899150214,-34.3671433853974 -59.3979010848404,-34.3668729571862 -59.397903019441,-34.3666025289629 -59.3979049540158,-34.3663321007275 -59.3979068885648,-34.3660616724801 -59.3979088230881,-34.3657912442207 -59.3979107575855,-34.3655208159491 -59.3979126920572,-34.3652503876655 -59.3979146265031,-34.3649799593698 -59.3979165609232,-34.3647095310621 -59.3979184953176,-34.3644391027423 -59.3979204296861,-34.3641686744104 -59.3979223640289,-34.3638982460665 -59.3979242983459,-34.3636278177105 -59.3979262326371,-34.3633573893424 -59.3979281669026,-34.3630869609623 -59.3979301011422,-34.3628165325701 -59.3982581381234,-34.3625477077134 -59.398260071264,-34.3622772792809 -59.3982620043789,-34.3620068508363 -59.398263937468,-34.3617364223797 -59.3982658705313,-34.3614659939111 -59.3982678035689,-34.3611955654303 -59.3982697365807,-34.3609251369376 -59.3982716695667,-34.3606547084327 -59.398273602527,-34.3603842799158 -59.3982755354615,-34.3601138513868 -59.3979513760771,-34.3598418194597 -59.3979533100074,-34.3595713909228 -59.397955243912,-34.3593009623737 -59.3976310886653,-34.3590289296065 -59.3976330235656,-34.3587585010495 -59.3976349584401,-34.3584880724804 -59.3973108073311,-34.3582160388731 -59.3973127432012,-34.357945610296 -59.3973146790456,-34.357675181707 -59.3973166148642,-34.3574047531058 -59.397318550657,-34.3571343244926 -59.397320486424,-34.3568638958673 -59.3969963425165,-34.3565918614322 -59.396998279279,-34.356321432799 -59.3966741384872,-34.3560493975198 -59.3966760762453,-34.3557789688787 -59.396351938569,-34.3555069327555 -59.3963538773226,-34.3552365041064 -59.3963558160502,-34.3549660754452 -59.3963577547521,-34.3546956467719 -59.3960336222338,-34.3544236098131 -59.3957094918097,-34.3541515720061 -59.3957114325281,-34.353881143329 -59.3957133732206,-34.3536107146399 -59.3953892469329,-34.3533386759932 -59.3953911886207,-34.3530682472962 -59.3953931302826,-34.3527978185871 -59.3950690081311,-34.3525257791008 -59.3950709507882,-34.3522553503838 -59.3950728934194,-34.3519849216547 -59.3950748360248,-34.3517144929136 -59.3950767786043,-34.3514440641605 -59.3947526626308,-34.3511720238428 -59.394428548751,-34.3508999826772 -59.3944304933466,-34.3506295539203 -59.3944324379162,-34.3503591251514 -59.3944343824599,-34.3500886963703 -59.3944363269777,-34.3498182675772 -59.3944382714695,-34.3495478387721 -59.3944402159355,-34.3492774099549 -59.394116110275,-34.3490053679665 -59.393792006708,-34.3487333251304 -59.3934679052346,-34.3484612814465 -59.3931438058546,-34.3481892369149 -59.3931457543779,-34.3479188081024 -59.3928216581122,-34.3476467627273 -59.3928236076303,-34.3473763339069 -59.3928255571224,-34.3471059050745 -59.3925014649915,-34.3468338588602 -59.3925034154783,-34.34656343002 -59.392505365939,-34.3462930011677 -59.3921812779428,-34.3460209541141 -59.3921832293982,-34.345750525254 -59.3921851808275,-34.3454800963818 -59.392187132231,-34.3452096674976 -59.3918630493897,-34.3449376196092 -59.3918650017876,-34.3446671907172 -59.39154092206,-34.3443951419855 -59.3912168444254,-34.3441230924063 -59.3912187988384,-34.3438526635107 -59.3912207532252,-34.343582234603 -59.3908966797246,-34.3433101841849 -59.390572608317,-34.3430381329193 -59.3905745647187,-34.3427677040081 -59.3905765210942,-34.3424972750848 -59.3902524538203,-34.3422252229804 -59.3902544111901,-34.3419547940494 -59.3902563685339,-34.3416843651063 -59.3899323053934,-34.3414123121631 -59.3899342637314,-34.3411418832123 -59.3899362220432,-34.3408714542493 -59.389612163036,-34.3405994004674 -59.389614122342,-34.3403289714968 -59.3892900664477,-34.3400569168719 -59.3889660126461,-34.3397848613997 -59.388641960937,-34.3395128050804 -59.3886439232774,-34.3392423761106 -59.3886458855916,-34.3389719471288 -59.3886478478797,-34.3387015181349 -59.3886498101416,-34.3384310891289 -59.3883257646055,-34.3381590319797 -59.3883277278613,-34.337888602966 -59.3883296910909,-34.3376181739403 -59.3880056496873,-34.3373461159526 -59.3880076139108,-34.3370756869192 -59.3876835756195,-34.3368036280888 -59.3873595394204,-34.3365315684114 -59.3870355053137,-34.3362595078869 -59.3870374725708,-34.3359890788545 -59.3870394398016,-34.3357186498099 -59.3870414070063,-34.3354482207534 -59.3870433741847,-34.3351777916847 -59.387045341337,-34.3349073626041 -59.387047308463,-34.3346369335113 -59.3870492755628,-34.3343665044065 -59.3870512426363,-34.3340960752896 -59.3870532096837,-34.3338256461606 -59.3870551767048,-34.3335552170196 -59.3870571436998,-34.3332847878665 -59.3867331229031,-34.3330127265433 -59.3864091041984,-34.3327406643731 -59.3867370588537,-34.3324718682097 -59.3870650114173,-34.3322030711336 -59.3870669782811,-34.3319326419202 -59.3870689451187,-34.3316622126948 -59.3870709119301,-34.3313917834572 -59.3870728787153,-34.3311213542076 -59.3870748454743,-34.330850924946 -59.3870768122071,-34.3305804956723 -59.3870787789136,-34.3303100663865 -59.3870807455939,-34.3300396370887 -59.3867547693332,-34.3300380051114 -59.3864307618444,-34.3297659429896 -59.3861047866819,-34.3297643092935 -59.3857807823567,-34.3294922454737 -59.3857827531415,-34.3292218162055 -59.3854587519273,-34.3289497515434 -59.3851347528046,-34.3286776860347 -59.3848107557733,-34.3284056196792 -59.3844867608335,-34.3281335524772 -59.3844887356697,-34.3278631232146 -59.3844907104795,-34.32759269394 -59.384492685263,-34.3273222646533 -59.3841686954726,-34.327050196618 -59.3838447077735,-34.3267781277361 -59.3835207221656,-34.3265060580077 -59.3835226999807,-34.3262356287223 -59.3835246777693,-34.3259651994249 -59.3835266555317,-34.3256947701154 -59.3835286332677,-34.3254243407938 -59.3832046538279,-34.3251522702368 -59.3832066325567,-34.3248818409076 -59.3832086112591,-34.3246114115664 -59.3832105899351,-34.3243409822131 -59.3828866156438,-34.3240689108231 -59.3825626434434,-34.3237968385867 -59.3822366916007,-34.3237951948438 -59.382238673334,-34.3235247655039 -59.3822406550409,-34.3232543361521 -59.3822426367214,-34.3229839067882 -59.3822446183755,-34.3227134774122 -59.3822466000032,-34.3224430480241 -59.3822485816045,-34.322172618624 -59.3822505631793,-34.3219021892118 -59.3822525447278,-34.3216317597876 -59.3822545262498,-34.3213613303513 -59.3822565077454,-34.3210909009029 -59.3822584892146,-34.3208204714425 -59.3822604706574,-34.32055004197 -59.3822624520738,-34.3202796124854 -59.3822644334638,-34.3200091829888 -59.3822664148274,-34.3197387534801 -59.3822683961646,-34.3194683239594 -59.38194444343,-34.3191962500979 -59.3819464257596,-34.3189258205696 -59.3819484080627,-34.3186553910292 -59.3819503903394,-34.3183849614768 -59.3819523725898,-34.3181145319123 -59.3819543548137,-34.3178441023357 -59.3816304092633,-34.3175720276506 -59.3816323924795,-34.3173015980665 -59.3816343756693,-34.3170311684704 -59.3816363588327,-34.3167607388622 -59.3816383419695,-34.3164903092419 -59.3819662476022,-34.3162215246231 -59.3819682296412,-34.3159510949621 -59.3819702116537,-34.3156806652891 -59.3819721936398,-34.315410235604 -59.382300093968,-34.3151414499869 -59.382627992206,-34.3148726634576 -59.3829558883541,-34.3146038760159 -59.3832837824121,-34.314335087662 -59.3832857600862,-34.3140646578503 -59.383287737734,-34.3137942280266 -59.3836156275595,-34.3135254387032 -59.383943515295,-34.3132566484676 -59.3839454907739,-34.3129862185747 -59.3839474662264,-34.3127157886697 -59.3842753497296,-34.3124469974648 -59.3842773240846,-34.3121765675191 -59.3846052044269,-34.3119077753735 -59.3846071776844,-34.3116373453872 -59.3849350548658,-34.311368552301 -59.3852629299575,-34.3110997583026 -59.3852649010465,-34.3108293282472 -59.3855927729775,-34.3105605333083 -59.3855947429692,-34.3102901032122 -59.3859226117396,-34.3100213073328 -59.385924580634,-34.3097508771961 -59.3862524462439,-34.3094820803762 -59.3865803097643,-34.3092132826443 -59.3865822764905,-34.3089428524386 -59.3869101368506,-34.3086740537663 -59.3869121024796,-34.30840362352 -59.3869140680825,-34.3081331932617</coordinates></LineString>
  </Placemark>
</Folder>
</Document></kml>
