{
"type": "FeatureCollection",
"name": "buffer_hidro",
"crs": { "type": "name", "properties": { "name": "urn:ogc:def:crs:OGC:1.3:CRS84" } },
"features": [
{"type":"Feature","properties":{"Name":"Buffer 10 km"},"geometry":{"type":"Polygon","coordinates":[[[-59.311726833011043,-34.403196491642646],[-59.311741471364265,-34.405408838343696],[-59.311821612003861,-34.407620220180448],[-59.311967211824758,-34.409829305034464],[-59.312178188275112,-34.412034762067137],[-59.312454419393482,-34.414235262521771],[-59.312795743870097,-34.416429480524599],[-59.31320196113159,-34.418616093884225],[-59.313672831449772,-34.420793784889234],[-59.314208076073996,-34.422961241103273],[-59.314807377387332,-34.425117156157228],[-59.315470379086143,-34.42726023053789],[-59.316196686383478,-34.429389172372858],[-59.316985866235719,-34.431502698211013],[-59.317837447592623,-34.433599533798088],[-59.318750921670635,-34.435678414846997],[-59.319725742249119,-34.437738087802352],[-59.3207613259897,-34.439777310598664],[-59.321857052778256,-34.441794853411864],[-59.323012266089471,-34.443789499403643],[-59.324226273373796,-34.445760045458208],[-59.32549834646656,-34.447705302910741],[-59.326827722018962,-34.449624098267591],[-59.328213601950907,-34.451515273917195],[-59.329655153925074,-34.453377688831885],[-59.331151511842336,-34.455210219259499],[-59.332701776357865,-34.457011759405013],[-59.33430501541811,-34.458781222101244],[-59.335960264817729,-34.460517539468583],[-59.337666528776737,-34.462219663563047],[-59.339422780537078,-34.463886567012622],[-59.341227962978564,-34.465517243640925],[-59.343080989253764,-34.467110709078582],[-59.344980743441191,-34.468666001361136],[-59.346926081216878,-34.4701821815137],[-59.348915830543568,-34.471658334121699],[-59.350948792377139,-34.473093567887432],[-59.353023741390061,-34.474487016172056],[-59.355139426711254,-34.475837837522853],[-59.357294572681866,-34.477145216184951],[-59.359487879626712,-34.47840836259801],[-59.361718024640723,-34.479626513876532],[-59.363983662389906,-34.480798934274461],[-59.366283425926568,-34.481924915633073],[-59.368615927517965,-34.483003777812357],[-59.370979759488151,-34.484034869105116],[-59.373373495072279,-34.485017566634269],[-59.375795689283017,-34.485951276732173],[-59.378244879788383,-34.486835435302567],[-59.380719587800627,-34.487669508164316],[-59.38321831897531,-34.488452991377159],[-59.385739564320453,-34.489185411548931],[-59.38828180111468,-34.489866326124179],[-59.390843493834375,-34.490495323654329],[-59.393423095088487,-34.491072024048343],[-59.396019046561285,-34.491596078804861],[-59.398629779961745,-34.492067171224775],[-59.401253717979394,-34.492485016604427],[-59.403889275245817,-34.492849362409515],[-59.406534859301253,-34.493159988429177],[-59.409188871565775,-34.49341670691043],[-59.411849708314172,-34.493619362672931],[-59.414515761654421,-34.493767833203599],[-59.417185420508403,-34.493862028731712],[-59.419857071594926,-34.493901892283603],[-59.422529100414138,-34.493887399717707],[-59.425199892232534,-34.493818559739232],[-59.427867833068319,-34.493695413895232],[-59.430531310676209,-34.493518036549112],[-59.433188715531159,-34.493286534835562],[-59.435838441810304,-34.493001048595239],[-59.438478888372757,-34.492661750289578],[-59.441108459736121,-34.492268844895769],[-59.443725567049825,-34.491822569781725],[-59.44632862906392,-34.491323194561424],[-59.448916073093287,-34.490771020930666],[-59.451486335976305,-34.490166382483032],[-59.45403786502753,-34.489509644506647],[-59.456569118983914,-34.488801203761419],[-59.459078568943433,-34.488041488237265],[-59.461564699296339,-34.487230956893313],[-59.464026008647721,-34.486370099378007],[-59.466461010731159,-34.485459435730924],[-59.468868235313003,-34.484499516065753],[-59.471246229086162,-34.483490920235134],[-59.473593556553709,-34.482434257477465],[-59.475908800900861,-34.481330166045751],[-59.478190564855339,-34.48017931281877],[-59.480437471535517,-34.478982392895176],[-59.482648165285582,-34.477740129170002],[-59.484821312497445,-34.476453271894741],[-59.486955602418824,-34.475122598220551],[-59.489049747946865,-34.473748911725373],[-59.491102486407044,-34.472333041924898],[-59.493112580316655,-34.47087584376785],[-59.495078818132598,-34.46937819711605],[-59.497000014982916,-34.467841006209291],[-59.49887501338155,-34.466265199115469],[-59.500702683926164,-34.464651727166519],[-59.502481925978181,-34.463001564380029],[-59.504211668325134,-34.46131570686768],[-59.505890869824555,-34.459595172229811],[-59.507518520029031,-34.457840998937549],[-59.509093639792404,-34.45605424570217],[-59.510615281856282,-34.454235990832366],[-59.512082531416901,-34.452387331579828],[-59.51349450667179,-34.450509383473467],[-59.514850359345907,-34.448603279642676],[-59.516149275197343,-34.446670170130204],[-59.517390474501404,-34.444711221194858],[-59.518573212513985,-34.442727614604507],[-59.519696779912955,-34.440720546920168],[-59.520760503217836,-34.438691228770942],[-59.521763745187471,-34.436640884120905],[-59.522705905195224,-34.434570749528056],[-59.523586419581925,-34.432482073395832],[-59.524404761985949,-34.430376115217648],[-59.525160443650492,-34.428254144815071],[-59.525853013707874,-34.426117441569794],[-59.526482059440582,-34.42396729365025],[-59.52704720651905,-34.421804997233004],[-59.527548119216156,-34.419631855719587],[-59.527984500597888,-34.417449178949177],[-59.528356092690828,-34.415258282407741],[-59.528662676625515,-34.413060486433878],[-59.528904072756411,-34.410857115422054],[-59.529080140757969,-34.408649497023589],[-59.529190779696791,-34.406438961345913],[-59.529235928080212,-34.404226840150777],[-59.529215563880797,-34.402014466051398],[-59.529129704537205,-34.399803171709614],[-59.528978406931202,-34.397594289033115],[-59.528761767341003,-34.395389148373461],[-59.528479921370916,-34.39318907772514],[-59.528133043857252,-34.39099540192656],[-59.527721348751022,-34.388809441862904],[-59.527245088976905,-34.386632513671735],[-59.526704556269138,-34.38446592795173],[-59.52610008098398,-34.382310988975],[-59.525432031889565,-34.380168993903297],[-59.524700815932384,-34.378041232008876],[-59.523906877981396,-34.37592898390038],[-59.523050700549419,-34.373833520753891],[-59.522132803492418,-34.371756103550226],[-59.521153743686256,-34.369697982318293],[-59.520114114682016,-34.3676603953854],[-59.5190145463392,-34.365644568634686],[-59.517855704437764,-34.363651714770349],[-59.516638290268908,-34.361683032590882],[-59.515363040204818,-34.359739706270851],[-59.514030725247935,-34.357822904651712],[-59.512642150559699,-34.355933780541932],[-59.511198154969428,-34.354073470026933],[-59.50969961046323,-34.352243091789191],[-59.508147421653668,-34.350443746438955],[-59.506542525230202,-34.348676515855971],[-59.504885889391055,-34.346942462542536],[-59.503178513256358,-34.345242628988288],[-59.501421426263619,-34.343578037047244],[-59.499615687545273,-34.341949687327087],[-59.497762385289057,-34.340358558591518],[-59.495862636081405,-34.338805607175651],[-59.493917584234445,-34.337291766415035],[-59.491928401096743,-34.335817946088426],[-59.489896284348518,-34.334385031874874],[-59.487822457281553,-34.332993884825171],[-59.485708168064214,-34.331645340848219],[-59.483554688992093,-34.330340210212356],[-59.48136331572482,-34.329079277062306],[-59.479135366509126,-34.327863298951549],[-59.476872181389247,-34.326693006390769],[-59.474575121404371,-34.325569102412487],[-59.472245567774173,-34.32449226215217],[-59.469884921072811,-34.323463132445902],[-59.467494600391568,-34.322482331445144],[-59.465076042491049,-34.32155044824858],[-59.462630700943016,-34.320668042551269],[-59.460160045262789,-34.319835644311475],[-59.457665560032368,-34.319053753435135],[-59.45514874401487,-34.31832283947827],[-59.452611109260985,-34.317643341367642],[-59.450054180207609,-34.317015667139515],[-59.447479492769645,-34.316440193696842],[-59.44488859342492,-34.31591726658511],[-59.442283038293382,-34.315447199786867],[-59.439664392210531,-34.315030275534859],[-59.437034227795927,-34.314666744144304],[-59.434394124517368,-34.314356823864081],[-59.431745667751038,-34.314100700746906],[-59.429090447838306,-34.313898528538864],[-59.426430059139641,-34.313750428588051],[-59.423766099086443,-34.313656489772455],[-59.421100167230819,-34.313616768447275],[-59.418433864294393,-34.31363128841145],[-59.415768791216387,-34.3137000408937],[-59.413106548201469,-34.313822984557859],[-59.410448733768312,-34.314000045527564],[-59.407796943798694,-34.314231117430296],[-59.405152770588643,-34.314516061460886],[-59.402517801901112,-34.314854706464125],[-59.399893620021658,-34.31524684903674],[-59.397281800817048,-34.31569225364855],[-59.394683912797618,-34.31619065278268],[-59.392101516183807,-34.316741747094881],[-59.389536161977489,-34.317345205591735],[-59.386989391038583,-34.318000665827817],[-59.384462733167425,-34.318707734121432],[-59.381957706193603,-34.319465985788987],[-59.379475815071508,-34.32027496539807],[-59.377018550983337,-34.321134187038453],[-59.374587390450102,-34.322043134611626],[-59.372183794450912,-34.32300126213805],[-59.369809207551199,-34.324007994082606],[-59.367465057040562,-34.325062725697158],[-59.365152752080242,-34.32616482338107],[-59.362873682861334,-34.327313625058672],[-59.360629219773685,-34.328508440573735],[-59.358420712586401,-34.329748552100959],[-59.356249489639978,-34.331033214573722],[-59.354116857051132,-34.33236165612832],[-59.352024097930141,-34.333733078564244],[-59.349972471611686,-34.335146657820168],[-59.347963212899344,-34.336601544465445],[-59.345997531324279,-34.338096864206904],[-59.344076610418526,-34.339631718410551],[-59.342201607003517,-34.341205184637772],[-59.340373650493824,-34.342816317195975],[-59.338593842217044,-34.344464147703377],[-59.336863254749836,-34.346147685666985],[-59.335182931270843,-34.34786591907438],[-59.333553884930453,-34.349617814998318],[-59.331977098238433,-34.351402320213914],[-59.330453522468986,-34.353218361828077],[-59.328984077084499,-34.355064847921049],[-59.327569649177462,-34.356940668199229],[-59.326211092931615,-34.358844694659261],[-59.324909229102119,-34.360775782262976],[-59.323664844515648,-34.362732769622518],[-59.32247869159,-34.364714479695486],[-59.321351487874132,-34.366719720489797],[-59.32028391560879,-34.368747285777403],[-59.319276621307615,-34.370795955816988],[-59.318330215359644,-34.372864498084773],[-59.317445271652893,-34.374951668013388],[-59.316622327219548,-34.377056209737908],[-59.315861881903118,-34.379176856849107],[-59.315164398047244,-34.381312333153147],[-59.314530300207174,-34.383461353437418],[-59.313959974883325,-34.385622624241861],[-59.313453770277654,-34.3877948446357],[-59.313011996072653,-34.389976706998802],[-59.312634923233496,-34.392166897807137],[-59.312322783833146,-34.394364098422251],[-59.312075770900528,-34.396566985883958],[-59.31189403829255,-34.398774233705851],[-59.311777700588927,-34.400984512673169],[-59.311726833011043,-34.403196491642646]]]}}
]
}
