{
"type": "FeatureCollection",
"name": "buffer_aoi",
"crs": { "type": "name", "properties": { "name": "urn:ogc:def:crs:OGC:1.3:CRS84" } },
"features": [
{"type":"Feature","properties":{"Name":"Buffer 500 m"},"geometry":{"type":"Polygon","coordinates":[[[-59.415042271751126,-34.403734120999317],[-59.415043139661982,-34.403844739183562],[-59.415047282540876,-34.403955306395268],[-59.415054697905134,-34.404065756032686],[-59.415065381300948,-34.404176021564638],[-59.415079326305786,-34.404286036570568],[-59.415096524532423,-34.4043957347806],[-59.415116965633814,-34.40450505011539],[-59.415140637309371,-34.404613916725992],[-59.415167525312334,-34.404722269033527],[-59.415197613458325,-34.404830041768669],[-59.415230883635076,-34.404937170010903],[-59.415267315813246,-34.405043589227766],[-59.415306888058545,-34.405149235313623],[-59.415349576544912,-34.405254044628379],[-59.415395355568755,-34.405357954035701],[-59.415444197564511,-34.405460900941122],[-59.41549607312114,-34.405562823329795],[-59.415550950999929,-34.405663659803785],[-59.415608798153116,-34.4057633496191],[-59.41566957974397,-34.40586183272228],[-59.415733259167645,-34.405959049786553],[-59.415799798073202,-34.406054942247643],[-59.415869156386734,-34.406149452339029],[-59.415941292335468,-34.406242523126721],[-59.416016162472943,-34.406334098543617],[-59.41609372170511,-34.406424123423228],[-59.416173923317572,-34.406512543532983],[-59.416256719003592,-34.406599305606875],[-59.416342058893285,-34.406684357377564],[-59.416429891583604,-34.406767647607865],[-59.416520164169341,-34.406849126121642],[-59.416612822274878,-34.406928743834037],[-59.416707810087097,-34.407006452781005],[-59.416805070388875,-34.407082206148338],[-59.416904544593592,-34.407155958299711],[-59.417006172780439,-34.407227664804353],[-59.417109893730483,-34.407297282463716],[-59.417215644963576,-34.407364769337462],[-59.417323362775981,-34.40743008476894],[-59.417432982278747,-34.407493189409465],[-59.417544437436803,-34.4075540452422],[-59.417657661108791,-34.407612615604911],[-59.417772585087462,-34.407668865212223],[-59.417889140140801,-34.407722760176767],[-59.418007256053762,-34.407774268029648],[-59.418126861670515,-34.407823357740078],[-59.418247884937401,-34.40786999973394],[-59.418370252946318,-34.407914165911684],[-59.418493891978677,-34.40795582966534],[-59.41861872754977,-34.407994965894432],[-59.418744684453728,-34.408031551021132],[-59.418871686808835,-34.40806556300457],[-59.418999658103203,-34.408096981353943],[-59.419128521240964,-34.408125787141067],[-59.419258198588707,-34.408151963011612],[-59.419388612022196,-34.408175493195699],[-59.419519682973537,-34.408196363517256],[-59.419651332478594,-34.408214561402751],[-59.4197834812244,-34.408230075888596],[-59.419916049597155,-34.408242897627844],[-59.420048957730032,-34.408253018895827],[-59.42018212555147,-34.408260433594762],[-59.420315472833366,-34.408265137257494],[-59.420448919239405,-34.408267127050131],[-59.420582384373574,-34.408266401773766],[-59.420715787828527,-34.408262961865191],[-59.420849049234064,-34.408256809396732],[-59.420982088305642,-34.408247948074823],[-59.421114824892705,-34.40823638323792],[-59.421247179027027,-34.408222121853214],[-59.42137907097085,-34.408205172512467],[-59.421510421265062,-34.40818554542679],[-59.421641150776949,-34.40816325242055],[-59.421771180748017,-34.408138306924151],[-59.421900432841369,-34.408110723966082],[-59.422028829188989,-34.408080520163679],[-59.422156292438615,-34.408047713713259],[-59.422282745800437,-34.408012324379129],[-59.422408113093248,-34.407974373481558],[-59.422532318790523,-34.407933883884056],[-59.422655288065812,-34.407890879979576],[-59.422776946837878,-34.407845387675707],[-59.42289722181534,-34.407797434379248],[-59.423016040540872,-34.407747048979509],[-59.423133331434819,-34.407694261830954],[-59.423249023838352,-34.407639104734969],[-59.423363048056054,-34.40758161092063],[-59.42347533539791,-34.407521815024673],[-59.423585818220715,-34.407459753070697],[-59.423694429968798,-34.407395462447369],[-59.423801105214174,-34.407328981885875],[-59.423905779695922,-34.407260351436697],[-59.424008390358892,-34.407189612445364],[-59.424108875391788,-34.407116807527544],[-59.424207174264282,-34.407041980543461],[-59.424303227763538,-34.406965176571312],[-59.424396978029925,-34.406886441880225],[-59.424488368591788,-34.406805823902332],[-59.424577344399509,-34.406723371204194],[-59.424663851858696,-34.406639133457439],[-59.424747838862373,-34.406553161409043],[-59.424829254822484,-34.406465506850502],[-59.424908050700225,-34.406376222586822],[-59.424984179035683,-34.406285362404539],[-59.425057593976362,-34.406192981039503],[-59.425128251304812,-34.406099134143624],[-59.425196108465236,-34.406003878251617],[-59.425261124589156,-34.405907270746752],[-59.425323260519917,-34.405809369826308],[-59.425382478836376,-34.405710234466603],[-59.42543874387534,-34.405609924387356],[-59.425492021753094,-34.405508500015721],[-59.425542280385677,-34.405406022449938],[-59.425589489508376,-34.405302553422366],[-59.425633620693745,-34.405198155262561],[-59.425674647368837,-34.405092890859407],[-59.425712544831086,-34.404986823623489],[-59.425747290263267,-34.404880017448683],[-59.425778862747116,-34.404772536673825],[-59.425807243275948,-34.404664446043896],[-59.425832414766127,-34.404555810670921],[-59.42585436206722,-34.404446695994864],[-59.425873071971154,-34.40433716774421],[-59.425888533220203,-34.404227291896227],[-59.425900736513618,-34.404117134637367],[-59.425909674513257,-34.404006762323348],[-59.425915341848039,-34.403896241439142],[-59.425917735117018,-34.403785638559],[-59.42591685289149,-34.403675020306267],[-59.425912695715802,-34.403564453313301],[-59.42590526610703,-34.40345400418132],[-59.425894568553325,-34.403343739440324],[-59.42588060951131,-34.403233725508898],[-59.425863397402047,-34.403124028654403],[-59.425842942606003,-34.403014714952853],[-59.42581925745678,-34.40290585024929],[-59.425792356233572,-34.402797500117998],[-59.425762255152627,-34.402689729823081],[-59.425728972357369,-34.402582604279125],[-59.425692527907529,-34.402476188012137],[-59.425652943766949,-34.402370545120618],[-59.425610243790395,-34.402265739236974],[-59.425564453709072,-34.402161833489302],[-59.425515601115251,-34.402058890463202],[-59.425463715445474,-34.401956972164193],[-59.425408827962826,-34.401856139980396],[-59.425350971738148,-34.401756454645422],[-59.425290181630089,-34.401657976201946],[-59.42522649426401,-34.401560763965534],[-59.42515994800997,-34.401464876488802],[-59.425090582959569,-34.401370371526255],[-59.425018440901809,-34.401277305999621],[-59.424943565297909,-34.401185735963196],[-59.424866001255019,-34.401095716570588],[-59.424785795499211,-34.40100730204113],[-59.424702996347122,-34.400920545627393],[-59.424617653677046,-34.40083549958306],[-59.424529818898677,-34.400752215131533],[-59.424439544922308,-34.400670742435032],[-59.424346886126862,-34.400591130564415],[-59.424251898327121,-34.40051342746964],[-59.424154638740205,-34.400437679950791],[-59.424055165951025,-34.400363933630103],[-59.423953539876933,-34.40029223292435],[-59.423849821731778,-34.400222621018095],[-59.423744073989006,-34.400155139837771],[-59.423636360343878,-34.400089830026353],[-59.423526745675339,-34.400026730918974],[-59.423415296006809,-34.399965880519169],[-59.423302078466421,-34.399907315476057],[-59.423187161246652,-34.399851071062194],[-59.423070613563226,-34.399797181152437],[-59.422952505613466,-34.399745678203502],[-59.422832908533991,-34.399696593234403],[-59.422711894357896,-34.399649955807774],[-59.422589535971362,-34.39960579401221],[-59.422465907069842,-34.399564134445079],[-59.422341082113604,-34.399525002196832],[-59.422215136282965,-34.399488420835638],[-59.42208814543293,-34.399454412393375],[-59.421960186047698,-34.399422997352261],[-59.421831335194454,-34.399394194632492],[-59.42170167047702,-34.399368021581033],[-59.421571269989208,-34.399344493961024],[-59.42144021226764,-34.399323625942252],[-59.421308576244677,-34.399305430092802],[-59.421176441200771,-34.399289917371306],[-59.421043886716717,-34.399277097120454],[-59.420910992625906,-34.399266977061366],[-59.420777838966011,-34.399259563288879],[-59.420644505931079,-34.399254860267916],[-59.420511073823072,-34.39925287083085],[-59.420377623003546,-34.399253596175718],[-59.420244233845416,-34.399257035865546],[-59.420110986684378,-34.399263187828559],[-59.419977961770705,-34.399272048359535],[-59.419845239220805,-34.399283612121906],[-59.419712898969124,-34.399297872151095],[-59.419581020719946,-34.399314819858567],[-59.419449683899408,-34.399334445037219],[-59.419318967607765,-34.399356735867208],[-59.419188950571666,-34.39938167892339],[-59.4190597110968,-34.399409259183187],[-59.418931327020871,-34.399439460035701],[-59.418803875666505,-34.399472263291763],[-59.41867743379489,-34.399507649194796],[-59.418552077559525,-34.399545596432745],[-59.418427882460321,-34.399586082150932],[-59.418304923298194,-34.399629081965728],[-59.418183274130023,-34.39967456997941],[-59.418063008224017,-34.399722518795521],[-59.417944198015682,-34.399772899535563],[-59.417826915064126,-34.399825681856257],[-59.417711230009104,-34.399880833967899],[-59.417597212528271,-34.399938322653362],[-59.417484931295434,-34.399998113288291],[-59.417374453939061,-34.400060169861781],[-59.417265847001666,-34.400124454998121],[-59.417159175899656,-34.400190929979296],[-59.417054504883971,-34.400259554768326],[-59.41695189700139,-34.400330288033317],[-59.416851414056538,-34.400403087172322],[-59.416753116574689,-34.400477908339163],[-59.416657063765342,-34.400554706469535],[-59.416563313486463,-34.400633435308436],[-59.416471922209723,-34.400714047437823],[-59.416382944986488,-34.400796494305297],[-59.416296435414559,-34.400880726253135],[-59.416212445605943,-34.400966692548458],[-59.416131026155561,-34.401054341413555],[-59.416052226110537,-34.401143620057177],[-59.415976092940845,-34.401234474706293],[-59.41590267251064,-34.401326850638419],[-59.41583200905059,-34.401420692214714],[-59.415764145131241,-34.401515942913271],[-59.415699121637395,-34.401612545363371],[-59.415636977743453,-34.401710441379848],[-59.415577750889739,-34.401809571998221],[-59.415521476759977,-34.401909877510221],[-59.415468189259848,-34.402011297499683],[-59.415417920496417,-34.402113770878948],[-59.415370700758871,-34.402217235925654],[-59.415326558500183,-34.402321630319953],[-59.415285520320005,-34.402426891181946],[-59.415247610948605,-34.402532955109628],[-59.415212853231914,-34.402639758217056],[-59.41518126811777,-34.4027472361728],[-59.415152874643283,-34.402855324238693],[-59.415127689923303,-34.402963957308856],[-59.41510572914013,-34.40307306994886],[-59.415087005534275,-34.403182596435208],[-59.415071530396517,-34.403292470794781],[-59.415059313061064,-34.403402626844745],[-59.415050360899869,-34.403512998232323],[-59.415044679318122,-34.403623518474738],[-59.415042271751126,-34.403734120999317]]]}}
]
}
