{
"type": "FeatureCollection",
"name": "cuenca",
"crs": { "type": "name", "properties": { "name": "urn:ogc:def:crs:OGC:1.3:CRS84" } },
"features": [
{"type":"Feature","properties":{"Name":"Cuenca aportante al lote (1.0 ha)"},"geometry":{"type":"Polygon","coordinates":[[[-59.421296465443113,-34.403089194055028],[-59.421285293213245,-34.404711760370034],[-59.420959025582953,-34.404710216518581],[-59.420970204110631,-34.403087650296825],[-59.421296465443113,-34.403089194055028]]]}},
{"type":"Feature","properties":{"Name":"Cuenca aportante al lote (1.0 ha)"},"geometry":{"type":"Polygon","coordinates":[[[-59.420959025582953,-34.404710216518581],[-59.420957162408087,-34.404980644179979],[-59.420630893752929,-34.404979099442912],[-59.420632757977465,-34.404708671797074],[-59.420959025582953,-34.404710216518581]]]}},
{"type":"Feature","properties":{"Name":"Cuenca aportante al lote (1.0 ha)"},"geometry":{"type":"Polygon","coordinates":[[[-59.420630893752929,-34.404979099442912],[-59.420629029503537,-34.40524952707672],[-59.420302759823535,-34.405247981454018],[-59.420304625122604,-34.404977553835799],[-59.420630893752929,-34.404979099442912]]]}},
{"type":"Feature","properties":{"Name":"Cuenca aportante al lote (1.0 ha)"},"geometry":{"type":"Polygon","coordinates":[[[-59.420302759823535,-34.405247981454018],[-59.42030089449959,-34.405518409060186],[-59.419974623794729,-34.40551686255187],[-59.419976490168374,-34.405246434961271],[-59.420302759823535,-34.405247981454018]]]}},
{"type":"Feature","properties":{"Name":"Cuenca aportante al lote (1.0 ha)"},"geometry":{"type":"Polygon","coordinates":[[[-59.419974623794729,-34.40551686255187],[-59.419972757396195,-34.405787290130419],[-59.419646485666469,-34.405785742736427],[-59.419648353114738,-34.405515315173474],[-59.419974623794729,-34.40551686255187]]]}},
{"type":"Feature","properties":{"Name":"Cuenca aportante al lote (1.0 ha)"},"geometry":{"type":"Polygon","coordinates":[[[-59.419646485666469,-34.405785742736427],[-59.419644618193331,-34.406056170287314],[-59.419318345438768,-34.406054622007673],[-59.41932021396164,-34.405784194472353],[-59.419646485666469,-34.405785742736427]]]}}
]
}
