{
"type": "FeatureCollection",
"name": "depresiones",
"crs": { "type": "name", "properties": { "name": "urn:ogc:def:crs:OGC:1.3:CRS84" } },
"features": [
{"type":"Feature","properties":{"Name":"depresión 1"},"geometry":{"type":"Polygon","coordinates":[[[-59.422607084206113,-34.402284076881315],[-59.422605226502519,-34.402554504728897],[-59.422278967170023,-34.4025529644817],[-59.422280825923174,-34.402282536649629],[-59.422607084206113,-34.402284076881315]]]}},
{"type":"Feature","properties":{"Name":"depresión 2"},"geometry":{"type":"Polygon","coordinates":[[[-59.424229113466069,-34.403643904494302],[-59.424225408282936,-34.404184760211535],[-59.423572876800009,-34.404181687361465],[-59.423574731503216,-34.403911259539811],[-59.423900996182681,-34.403912796384397],[-59.423902849811533,-34.403642368535209],[-59.424229113466069,-34.403643904494302]]]}}
]
}
