{
"type": "FeatureCollection",
"name": "flowpath",
"crs": { "type": "name", "properties": { "name": "urn:ogc:def:crs:OGC:1.3:CRS84" } },
"features": [
{"type":"Feature","properties":{"Name":"Camino de flujo desde el lote"},"geometry":{"type":"LineString","coordinates":[[-59.421132403526343,-34.403223636156973],[-59.421134266015002,-34.402953208409386],[-59.421136128478842,-34.402682780649727],[-59.420811732221743,-34.402410808723644],[-59.420487338063751,-34.402138835946616],[-59.420162946004858,-34.401866862318641],[-59.419836689482352,-34.401865315585468],[-59.419512300596907,-34.401593340252205],[-59.419187913810518,-34.40132136406811],[-59.419516035746611,-34.401052484755795],[-59.419191651009392,-34.400780508578741],[-59.418867268371123,-34.400508531550862],[-59.418541017195693,-34.400506981415859],[-59.41821663773073,-34.400235002682884],[-59.41789226036466,-34.399963023099161],[-59.417567885097455,-34.399691042664735],[-59.417243511929087,-34.399419061379618],[-59.416917265076172,-34.399417506957597],[-59.416592895080974,-34.399145523967604],[-59.416266649327461,-34.399143967821452],[-59.416268527184577,-34.398873540126971],[-59.415944161386918,-34.398601555435725],[-59.415617917782214,-34.398599997581229],[-59.415291674202557,-34.398598438856865],[-59.414967312652436,-34.398326451606756],[-59.41464295320101,-34.398054463506121],[-59.414316711795301,-34.398052902203617],[-59.41399235551696,-34.39778091239841],[-59.41366800133725,-34.397508921742755],[-59.413669887438559,-34.397238494101487],[-59.413345536381591,-34.396966502599099],[-59.413021187423183,-34.396694510246341],[-59.413023075547578,-34.39642408260034],[-59.412698729711771,-34.396152089400942],[-59.412374385974388,-34.395880095351224],[-59.412376276121726,-34.395609667700597],[-59.412378166243876,-34.395339240037863],[-59.412053826652922,-34.395067245145277],[-59.411729489160315,-34.394795249402442],[-59.411731381305216,-34.394524821735089],[-59.411733273424886,-34.394254394055679],[-59.411408940078417,-34.393982397470083],[-59.411082714662733,-34.393980827706251],[-59.410758384488872,-34.393708829416589],[-59.410434056413209,-34.393436830276805],[-59.4101097304357,-34.393164830286892],[-59.40978540655636,-34.392892829446915],[-59.409787304819062,-34.392622401789986],[-59.409789203056448,-34.392351974121013],[-59.409464883322677,-34.392079972438538],[-59.409140565686947,-34.391807969906068],[-59.409142465946452,-34.391537542232591],[-59.408818151432378,-34.391265538853922],[-59.408820052690174,-34.39099511117216],[-59.408821953922647,-34.390724683478354],[-59.408823855129782,-34.390454255772475],[-59.408499545784458,-34.390182251555281],[-59.408175238536977,-34.389910246488178],[-59.407850933387294,-34.389638240571216],[-59.407526630335397,-34.389366233804402],[-59.407202329381256,-34.389094226187794],[-59.407204235680638,-34.388823798488957],[-59.406879937847634,-34.388551790026398],[-59.40688184514503,-34.388281362319326],[-59.406883752417009,-34.388010934600224],[-59.406559458728452,-34.387738925295608],[-59.406233257818762,-34.387737342852695],[-59.405907056934531,-34.387735759540256],[-59.405580856075758,-34.387734175358339],[-59.405254655242452,-34.387732590306925],[-59.404928454434625,-34.387731004385991],[-59.404604168214938,-34.387458989963974],[-59.404279884092787,-34.387186974692327],[-59.403955602068145,-34.386914958571147],[-59.403631322141017,-34.386642941600385],[-59.40330704431134,-34.386370923780127],[-59.402982768579086,-34.386098905110359],[-59.402658494944262,-34.385826885591143],[-59.40233422340679,-34.385554865222474],[-59.402009953966676,-34.385282844004394],[-59.401685686623885,-34.38501082193693],[-59.401361421378375,-34.384738799020106],[-59.401037158230139,-34.384466775253941],[-59.400710970339347,-34.384465178222491],[-59.400384782474234,-34.384463580321672],[-59.400386710362618,-34.384193152753717],[-59.40038863822533,-34.383922725173704],[-59.400064381368686,-34.383650698859682],[-59.399740126609231,-34.383378671696434],[-59.399742056491945,-34.383108244112414],[-59.399743986348945,-34.382837816516322],[-59.39974591618023,-34.382567388908193],[-59.400074025411037,-34.382298560798738],[-59.40007595414238,-34.382028133150357],[-59.400077882848016,-34.381757705489868],[-59.399753635248175,-34.381485678354892],[-59.399755564950866,-34.381215250686395],[-59.399757494627842,-34.380944823005841],[-59.399759424279097,-34.380674395313221],[-59.399761353904637,-34.380403967608515],[-59.399763283504456,-34.380133539891766],[-59.399765213078574,-34.379863112162937],[-59.399767142626949,-34.379592684422057],[-59.399769072149624,-34.379322256669091],[-59.399771001646577,-34.379051828904061],[-59.399772931117823,-34.378781401126979],[-59.399448695841514,-34.378509373183292],[-59.399450626309623,-34.378238945398181],[-59.399452556752003,-34.377968517600983],[-59.399454487168661,-34.37769808979175],[-59.399456417559584,-34.377427661970422],[-59.399458347924799,-34.377157234137051],[-59.399460278264272,-34.376886806291594],[-59.399462208578029,-34.376616378434086],[-59.399137982555949,-34.37634434966975],[-59.399139913866449,-34.376073921804206],[-59.399141845151185,-34.375803493926632],[-59.399143776410192,-34.375533066036951],[-59.398819555551782,-34.375261036435852],[-59.398495336789644,-34.37498900598586],[-59.398171120123749,-34.374716974686997],[-59.39817305442412,-34.374446546797486],[-59.398174988698706,-34.374176118895903],[-59.398176922947513,-34.373905690982248],[-59.398178857170549,-34.373635263056521],[-59.398180791367807,-34.37336483511875],[-59.397856581909558,-34.373092802991479],[-59.397858517103252,-34.372822375045715],[-59.397860452271189,-34.372551947087871],[-59.397862387413319,-34.372281519117976],[-59.397864322529664,-34.372011091136017],[-59.397866257620215,-34.371740663141999],[-59.397868192684975,-34.371470235135888],[-59.397870127723934,-34.37119980711774],[-59.397872062737129,-34.370929379087507],[-59.397873997724524,-34.370658951045208],[-59.397549799561766,-34.370386918106036],[-59.397551735545463,-34.370116490055771],[-59.397553671503346,-34.369846061993435],[-59.397881737416206,-34.369577238755369],[-59.397883672274666,-34.369306810652738],[-59.397885607107334,-34.369036382538056],[-59.397887541914201,-34.368765954411309],[-59.397889476695305,-34.368495526272483],[-59.397891411450615,-34.368225098121592],[-59.397893346180133,-34.367954669958635],[-59.397895280883859,-34.367684241783621],[-59.397897215561827,-34.367413813596535],[-59.397899150213995,-34.36714338539737],[-59.39790108484037,-34.366872957186168],[-59.397903019440975,-34.3666025289629],[-59.397904954015786,-34.366332100727547],[-59.397906888564805,-34.366061672480136],[-59.397908823088066,-34.365791244220659],[-59.397910757585528,-34.365520815949111],[-59.397912692057204,-34.365250387665519],[-59.397914626503123,-34.364979959369826],[-59.397916560923235,-34.364709531062097],[-59.397918495317569,-34.364439102742296],[-59.397920429686117,-34.364168674410415],[-59.397922364028894,-34.363898246066491],[-59.397924298345892,-34.363627817710494],[-59.397926232637118,-34.363357389342418],[-59.397928166902553,-34.363086960962313],[-59.397930101142201,-34.362816532570108],[-59.398258138123389,-34.362547707713361],[-59.398260071264005,-34.362277279280882],[-59.398262004378864,-34.362006850836345],[-59.398263937467952,-34.361736422379742],[-59.398265870531297,-34.361465993911089],[-59.398267803568856,-34.361195565430343],[-59.398269736580673,-34.360925136937567],[-59.398271669566711,-34.360654708432698],[-59.398273602526984,-34.360384279915785],[-59.398275535461501,-34.360113851386799],[-59.397951376077089,-34.359841819459746],[-59.397953310007438,-34.359571390922767],[-59.39795524391198,-34.35930096237373],[-59.397631088665335,-34.359028929606488],[-59.397633023565632,-34.358758501049486],[-59.397634958440143,-34.358488072480412],[-59.397310807331053,-34.358216038873081],[-59.397312743201248,-34.357945610296042],[-59.397314679045621,-34.357675181706952],[-59.397316614864209,-34.357404753105797],[-59.397318550657012,-34.357134324492577],[-59.397320486423993,-34.356863895867292],[-59.396996342516466,-34.356591861432243],[-59.396998279279032,-34.356321432798985],[-59.396674138487185,-34.35604939751984],[-59.396676076245257,-34.35577896887866],[-59.396351938569019,-34.355506932755496],[-59.396353877322554,-34.355236504106387],[-59.396355816050232,-34.354966075445191],[-59.396357754752081,-34.354695646771944],[-59.396033622233801,-34.354423609813054],[-59.395709491809654,-34.354151572006096],[-59.395711432528067,-34.353881143329033],[-59.395713373220616,-34.353610714639949],[-59.395389246932851,-34.35333867599325],[-59.395391188620671,-34.353068247296228],[-59.395393130282599,-34.352797818587142],[-59.39506900813106,-34.352525779100759],[-59.395070950788202,-34.352255350383771],[-59.395072893419439,-34.351984921654733],[-59.395074836024783,-34.351714492913615],[-59.395076778604256,-34.351444064160454],[-59.394752662630751,-34.351172023842764],[-59.39442854875103,-34.350899982677198],[-59.394430493346583,-34.350629553920314],[-59.394432437916201,-34.350359125151357],[-59.394434382459906,-34.350088696370328],[-59.394436326977676,-34.349818267577248],[-59.394438271469539,-34.349547838772111],[-59.394440215935496,-34.349277409954887],[-59.394116110274972,-34.349005367966548],[-59.393792006707997,-34.348733325130425],[-59.393467905234566,-34.348461281446532],[-59.393143805854628,-34.348189236914891],[-59.393145754377926,-34.347918808102413],[-59.392821658112226,-34.347646762727251],[-59.392823607630291,-34.347376333906936],[-59.392825557122379,-34.34710590507455],[-59.392501464991483,-34.346833858860165],[-59.392503415478259,-34.346563430019962],[-59.392505365939037,-34.346293001167666],[-59.392181277942754,-34.346020954114145],[-59.392183229398157,-34.345750525254019],[-59.392185180827546,-34.345480096381849],[-59.392187132230951,-34.345209667497592],[-59.391863049389656,-34.344937619609198],[-59.3918650017876,-34.344667190717161],[-59.391540922059967,-34.344395141985473],[-59.391216844425443,-34.344123092406271],[-59.391218798838359,-34.343852663510681],[-59.391220753225205,-34.343582234602991],[-59.390896679724626,-34.343310184184858],[-59.390572608317001,-34.343038132919276],[-59.390574564718655,-34.342767704008097],[-59.390576521094225,-34.342497275084845],[-59.390252453820281,-34.342225222980431],[-59.390254411190121,-34.341954794049414],[-59.390256368533862,-34.341684365106325],[-59.389932305393408,-34.341412312163129],[-59.389934263731355,-34.341141883212259],[-59.389936222043211,-34.340871454249346],[-59.38961216303602,-34.340599400467447],[-59.389614122342017,-34.340328971496767],[-59.389290066447728,-34.34005691687188],[-59.38896601264608,-34.339784861399735],[-59.388641960937022,-34.339512805080389],[-59.388643923277392,-34.339242376110626],[-59.388645885591615,-34.338971947128798],[-59.388647847879689,-34.338701518134883],[-59.388649810141601,-34.33843108912891],[-59.388325764605476,-34.338159031979721],[-59.388327727861295,-34.337888602966039],[-59.388329691090938,-34.337618173940271],[-59.388005649687294,-34.337346115952641],[-59.38800761391078,-34.337075686919157],[-59.387683575619462,-34.336803628088802],[-59.38735953942043,-34.336531568411367],[-59.387035505313669,-34.336259507886908],[-59.387037472570768,-34.33598907885446],[-59.387039439801647,-34.335718649809948],[-59.387041407006322,-34.335448220753385],[-59.387043374184749,-34.33517779168475],[-59.387045341336993,-34.334907362604078],[-59.387047308462989,-34.334636933511291],[-59.387049275562781,-34.334366504406468],[-59.387051242636339,-34.334096075289594],[-59.3870532096837,-34.333825646160633],[-59.387055176704827,-34.333555217019622],[-59.387057143699764,-34.333284787866546],[-59.386733122903109,-34.333012726543267],[-59.386409104198364,-34.332740664373119],[-59.38673705885374,-34.33247186820968],[-59.387065011417256,-34.332203071133598],[-59.387066978281098,-34.331932641920211],[-59.387068945118713,-34.331662212694752],[-59.387070911930124,-34.331391783457228],[-59.387072878715308,-34.331121354207646],[-59.387074845474295,-34.330850924945992],[-59.387076812207063,-34.330580495672287],[-59.387078778913612,-34.330310066386517],[-59.387080745593948,-34.330039637088682],[-59.386754769333209,-34.330038005111433],[-59.386430761844423,-34.329765942989553],[-59.38610478668194,-34.329764309293509],[-59.385780782356733,-34.329492245473723],[-59.385782753141491,-34.329221816205532],[-59.385458751927288,-34.328949751543441],[-59.385134752804575,-34.328677686034666],[-59.384810755773309,-34.328405619679231],[-59.384486760833475,-34.328133552477162],[-59.384488735669656,-34.327863123214605],[-59.384490710479497,-34.327592693939998],[-59.384492685263034,-34.327322264653304],[-59.384168695472603,-34.327050196617975],[-59.38384470777347,-34.326778127736091],[-59.383520722165557,-34.326506058007666],[-59.383522699980652,-34.326235628722301],[-59.383524677769344,-34.325965199424878],[-59.383526655531703,-34.325694770115383],[-59.383528633267673,-34.325424340793809],[-59.383204653827853,-34.325152270236785],[-59.383206632556657,-34.324881840907636],[-59.383208611259086,-34.324611411566423],[-59.383210589935139,-34.324340982213144],[-59.382886615643798,-34.324068910823144],[-59.382562643443421,-34.32379683858673],[-59.38223669160066,-34.323795194843768],[-59.382238673333987,-34.323524765503947],[-59.38224065504091,-34.32325433615209],[-59.382242636721415,-34.322983906788153],[-59.382244618375516,-34.322713477412172],[-59.382246600003192,-34.322443048024112],[-59.382248581604451,-34.322172618624002],[-59.382250563179319,-34.321902189211841],[-59.38225254472777,-34.321631759787579],[-59.38225452624981,-34.321361330351266],[-59.382256507745424,-34.321090900902909],[-59.382258489214642,-34.320820471442474],[-59.38226047065745,-34.320550041969973],[-59.382262452073839,-34.320279612485422],[-59.382264433463831,-34.320009182988784],[-59.382266414827406,-34.319738753480102],[-59.382268396164569,-34.319468323959356],[-59.38194444342998,-34.31919625009786],[-59.381946425759551,-34.318925820569575],[-59.381948408062712,-34.318655391029218],[-59.381950390339448,-34.31838496147676],[-59.381952372589772,-34.318114531912286],[-59.381954354813658,-34.317844102335748],[-59.381630409263344,-34.317572027650648],[-59.381632392479546,-34.31730159806655],[-59.381634375669314,-34.317031168470386],[-59.381636358832651,-34.316760738862165],[-59.381638341969534,-34.316490309241871],[-59.381966247602207,-34.31622152462311],[-59.381968229641167,-34.315951094962124],[-59.381970211653716,-34.315680665289079],[-59.381972193639847,-34.315410235603963],[-59.382300093967956,-34.315141449986932],[-59.382627992206018,-34.314872663457564],[-59.382955888354061,-34.314603876015909],[-59.3832837824121,-34.314335087661959],[-59.383285760086231,-34.314064657850317],[-59.383287737734015,-34.313794228026602],[-59.383615627559458,-34.31352543870323],[-59.383943515295009,-34.313256648467629],[-59.383945490773861,-34.312986218574686],[-59.383947466226381,-34.312715788669699],[-59.384275349729627,-34.312446997464768],[-59.3842773240846,-34.312176567519124],[-59.384605204426869,-34.311907775373527],[-59.384607177684366,-34.311637345387247],[-59.384935054865771,-34.311368552300955],[-59.385262929957527,-34.311099758302603],[-59.385264901046497,-34.310829328247159],[-59.385592772977525,-34.310560533308255],[-59.385594742969168,-34.310290103212218],[-59.385922611739581,-34.310021307332754],[-59.385924580633954,-34.30975087719613],[-59.386252446243851,-34.309482080376185],[-59.386580309764277,-34.309213282644315],[-59.386582276490493,-34.308942852438577],[-59.38691013685056,-34.308674053766289],[-59.386912102479648,-34.30840362352],[-59.38691406808254,-34.308133193261668]]}}
]
}
